<?xml version="1.0" encoding="UTF-8"?>
<gpx version="1.1" creator="Apple Health Export" xmlns="http://www.topografix.com/GPX/1/1" xmlns:xsi="http://www.w3.org/2001/XMLSchema-instance" xsi:schemaLocation="http://www.topografix.com/GPX/1/1 http://www.topografix.com/GPX/1/1/gpx.xsd">
  <metadata>
    <time>2026-06-04T15:24:54Z</time>
  </metadata>
  <trk>
    <name>Route 2024-08-17 8:12pm</name>
    <trkseg>
      <trkpt lon="79.858927" lat="6.906243"><ele>11.858587</ele><time>2024-08-17T17:08:48Z</time><extensions><speed>1.283893</speed><course>132.179545</course><hAcc>2.498351</hAcc><vAcc>1.558806</vAcc></extensions></trkpt>
      <trkpt lon="79.858936" lat="6.906235"><ele>11.834033</ele><time>2024-08-17T17:08:49Z</time><extensions><speed>1.242767</speed><course>134.315343</course><hAcc>2.123022</hAcc><vAcc>1.367698</vAcc></extensions></trkpt>
      <trkpt lon="79.858944" lat="6.906227"><ele>11.822710</ele><time>2024-08-17T17:08:49Z</time><extensions><speed>1.259445</speed><course>137.623150</course><hAcc>1.921601</hAcc><vAcc>1.217353</vAcc></extensions></trkpt>
      <trkpt lon="79.858951" lat="6.906219"><ele>11.815097</ele><time>2024-08-17T17:08:50Z</time><extensions><speed>1.217768</speed><course>140.442558</course><hAcc>1.808296</hAcc><vAcc>1.102004</vAcc></extensions></trkpt>
      <trkpt lon="79.858958" lat="6.906211"><ele>11.810130</ele><time>2024-08-17T17:08:51Z</time><extensions><speed>1.107340</speed><course>139.541285</course><hAcc>1.747732</hAcc><vAcc>1.016146</vAcc></extensions></trkpt>
      <trkpt lon="79.858965" lat="6.906204"><ele>11.779767</ele><time>2024-08-17T17:08:52Z</time><extensions><speed>1.108236</speed><course>135.870032</course><hAcc>1.717310</hAcc><vAcc>0.954387</vAcc></extensions></trkpt>
      <trkpt lon="79.858972" lat="6.906197"><ele>11.735623</ele><time>2024-08-17T17:08:53Z</time><extensions><speed>1.123817</speed><course>127.737870</course><hAcc>1.693366</hAcc><vAcc>0.911539</vAcc></extensions></trkpt>
      <trkpt lon="79.858981" lat="6.906192"><ele>11.697109</ele><time>2024-08-17T17:08:54Z</time><extensions><speed>1.152299</speed><course>118.107243</course><hAcc>1.689126</hAcc><vAcc>0.882880</vAcc></extensions></trkpt>
      <trkpt lon="79.858991" lat="6.906188"><ele>11.661909</ele><time>2024-08-17T17:08:55Z</time><extensions><speed>1.158662</speed><course>109.518016</course><hAcc>1.681328</hAcc><vAcc>0.864380</vAcc></extensions></trkpt>
      <trkpt lon="79.859001" lat="6.906185"><ele>11.619035</ele><time>2024-08-17T17:08:56Z</time><extensions><speed>1.225222</speed><course>102.697194</course><hAcc>1.655191</hAcc><vAcc>0.852826</vAcc></extensions></trkpt>
      <trkpt lon="79.859013" lat="6.906182"><ele>11.577024</ele><time>2024-08-17T17:08:57Z</time><extensions><speed>1.360975</speed><course>100.040376</course><hAcc>1.638239</hAcc><vAcc>0.845784</vAcc></extensions></trkpt>
      <trkpt lon="79.859025" lat="6.906181"><ele>11.529223</ele><time>2024-08-17T17:08:58Z</time><extensions><speed>1.394145</speed><course>97.666659</course><hAcc>1.629173</hAcc><vAcc>0.841534</vAcc></extensions></trkpt>
      <trkpt lon="79.859037" lat="6.906179"><ele>11.465730</ele><time>2024-08-17T17:08:59Z</time><extensions><speed>1.389630</speed><course>100.550128</course><hAcc>1.653081</hAcc><vAcc>0.838881</vAcc></extensions></trkpt>
      <trkpt lon="79.859049" lat="6.906176"><ele>11.423380</ele><time>2024-08-17T17:09:00Z</time><extensions><speed>1.328683</speed><course>103.471497</course><hAcc>1.678150</hAcc><vAcc>0.837087</vAcc></extensions></trkpt>
      <trkpt lon="79.859061" lat="6.906174"><ele>11.342486</ele><time>2024-08-17T17:09:01Z</time><extensions><speed>1.275957</speed><course>97.531727</course><hAcc>1.660426</hAcc><vAcc>0.835689</vAcc></extensions></trkpt>
      <trkpt lon="79.859073" lat="6.906173"><ele>11.280160</ele><time>2024-08-17T17:09:02Z</time><extensions><speed>1.304608</speed><course>89.085554</course><hAcc>1.636736</hAcc><vAcc>0.834442</vAcc></extensions></trkpt>
      <trkpt lon="79.859085" lat="6.906174"><ele>11.220095</ele><time>2024-08-17T17:09:03Z</time><extensions><speed>1.330710</speed><course>83.948818</course><hAcc>1.637714</hAcc><vAcc>0.833225</vAcc></extensions></trkpt>
      <trkpt lon="79.859096" lat="6.906176"><ele>11.169129</ele><time>2024-08-17T17:09:04Z</time><extensions><speed>1.298389</speed><course>80.887370</course><hAcc>1.655730</hAcc><vAcc>0.832004</vAcc></extensions></trkpt>
      <trkpt lon="79.859108" lat="6.906178"><ele>11.126866</ele><time>2024-08-17T17:09:05Z</time><extensions><speed>1.249732</speed><course>77.068452</course><hAcc>1.682932</hAcc><vAcc>0.830785</vAcc></extensions></trkpt>
      <trkpt lon="79.859118" lat="6.906181"><ele>11.080826</ele><time>2024-08-17T17:09:06Z</time><extensions><speed>1.170060</speed><course>72.497866</course><hAcc>1.716007</hAcc><vAcc>0.829587</vAcc></extensions></trkpt>
      <trkpt lon="79.859128" lat="6.906184"><ele>11.043076</ele><time>2024-08-17T17:09:07Z</time><extensions><speed>1.122220</speed><course>65.678990</course><hAcc>1.699440</hAcc><vAcc>0.828444</vAcc></extensions></trkpt>
      <trkpt lon="79.859137" lat="6.906189"><ele>11.012805</ele><time>2024-08-17T17:09:08Z</time><extensions><speed>1.062710</speed><course>62.337270</course><hAcc>1.695691</hAcc><vAcc>0.827381</vAcc></extensions></trkpt>
      <trkpt lon="79.859146" lat="6.906193"><ele>11.023445</ele><time>2024-08-17T17:09:09Z</time><extensions><speed>1.113224</speed><course>62.988041</course><hAcc>1.695917</hAcc><vAcc>0.826411</vAcc></extensions></trkpt>
      <trkpt lon="79.859155" lat="6.906198"><ele>11.030477</ele><time>2024-08-17T17:09:10Z</time><extensions><speed>1.171720</speed><course>59.016559</course><hAcc>1.701388</hAcc><vAcc>0.825548</vAcc></extensions></trkpt>
      <trkpt lon="79.859163" lat="6.906204"><ele>11.032980</ele><time>2024-08-17T17:09:11Z</time><extensions><speed>1.173452</speed><course>50.585362</course><hAcc>1.706318</hAcc><vAcc>0.824793</vAcc></extensions></trkpt>
      <trkpt lon="79.859171" lat="6.906212"><ele>11.032849</ele><time>2024-08-17T17:09:12Z</time><extensions><speed>1.267601</speed><course>44.892504</course><hAcc>1.708326</hAcc><vAcc>0.824141</vAcc></extensions></trkpt>
      <trkpt lon="79.859179" lat="6.906220"><ele>11.039337</ele><time>2024-08-17T17:09:13Z</time><extensions><speed>1.288999</speed><course>41.370082</course><hAcc>1.707460</hAcc><vAcc>0.823589</vAcc></extensions></trkpt>
      <trkpt lon="79.859187" lat="6.906229"><ele>11.081526</ele><time>2024-08-17T17:09:14Z</time><extensions><speed>1.294783</speed><course>40.856123</course><hAcc>1.707792</hAcc><vAcc>0.823131</vAcc></extensions></trkpt>
      <trkpt lon="79.859194" lat="6.906238"><ele>11.136473</ele><time>2024-08-17T17:09:15Z</time><extensions><speed>1.237095</speed><course>40.736734</course><hAcc>1.695745</hAcc><vAcc>0.822751</vAcc></extensions></trkpt>
      <trkpt lon="79.859202" lat="6.906246"><ele>11.201803</ele><time>2024-08-17T17:09:16Z</time><extensions><speed>1.284314</speed><course>41.692842</course><hAcc>1.673966</hAcc><vAcc>0.822433</vAcc></extensions></trkpt>
      <trkpt lon="79.859210" lat="6.906255"><ele>11.290062</ele><time>2024-08-17T17:09:17Z</time><extensions><speed>1.238414</speed><course>43.856222</course><hAcc>1.657539</hAcc><vAcc>0.822174</vAcc></extensions></trkpt>
      <trkpt lon="79.859217" lat="6.906262"><ele>11.390293</ele><time>2024-08-17T17:09:18Z</time><extensions><speed>1.143483</speed><course>45.625236</course><hAcc>1.648348</hAcc><vAcc>0.821958</vAcc></extensions></trkpt>
      <trkpt lon="79.859224" lat="6.906269"><ele>11.452082</ele><time>2024-08-17T17:09:19Z</time><extensions><speed>1.056323</speed><course>46.785919</course><hAcc>1.654939</hAcc><vAcc>0.821801</vAcc></extensions></trkpt>
      <trkpt lon="79.859231" lat="6.906276"><ele>11.492154</ele><time>2024-08-17T17:09:20Z</time><extensions><speed>1.122780</speed><course>42.463720</course><hAcc>1.658104</hAcc><vAcc>0.821690</vAcc></extensions></trkpt>
      <trkpt lon="79.859238" lat="6.906284"><ele>11.518099</ele><time>2024-08-17T17:09:21Z</time><extensions><speed>1.132483</speed><course>35.517232</course><hAcc>1.657412</hAcc><vAcc>0.821608</vAcc></extensions></trkpt>
      <trkpt lon="79.859243" lat="6.906293"><ele>11.578699</ele><time>2024-08-17T17:09:22Z</time><extensions><speed>1.132010</speed><course>32.462509</course><hAcc>1.628680</hAcc><vAcc>0.821551</vAcc></extensions></trkpt>
      <trkpt lon="79.859249" lat="6.906301"><ele>11.601841</ele><time>2024-08-17T17:09:23Z</time><extensions><speed>1.105284</speed><course>32.591136</course><hAcc>1.629003</hAcc><vAcc>0.821537</vAcc></extensions></trkpt>
      <trkpt lon="79.859254" lat="6.906309"><ele>11.634461</ele><time>2024-08-17T17:09:24Z</time><extensions><speed>1.075657</speed><course>33.778876</course><hAcc>1.637348</hAcc><vAcc>0.821561</vAcc></extensions></trkpt>
      <trkpt lon="79.859260" lat="6.906317"><ele>11.658073</ele><time>2024-08-17T17:09:25Z</time><extensions><speed>1.009536</speed><course>34.504284</course><hAcc>1.636833</hAcc><vAcc>0.821621</vAcc></extensions></trkpt>
      <trkpt lon="79.859265" lat="6.906325"><ele>11.718106</ele><time>2024-08-17T17:09:26Z</time><extensions><speed>0.997599</speed><course>32.189531</course><hAcc>1.659418</hAcc><vAcc>0.821704</vAcc></extensions></trkpt>
      <trkpt lon="79.859270" lat="6.906332"><ele>11.717800</ele><time>2024-08-17T17:09:27Z</time><extensions><speed>1.007135</speed><course>34.034104</course><hAcc>1.680908</hAcc><vAcc>0.821812</vAcc></extensions></trkpt>
      <trkpt lon="79.859274" lat="6.906340"><ele>11.701680</ele><time>2024-08-17T17:09:28Z</time><extensions><speed>0.945837</speed><course>33.440661</course><hAcc>1.664257</hAcc><vAcc>0.821937</vAcc></extensions></trkpt>
      <trkpt lon="79.859279" lat="6.906347"><ele>11.677721</ele><time>2024-08-17T17:09:29Z</time><extensions><speed>0.863546</speed><course>30.669487</course><hAcc>1.668026</hAcc><vAcc>0.822058</vAcc></extensions></trkpt>
      <trkpt lon="79.859283" lat="6.906353"><ele>11.661362</ele><time>2024-08-17T17:09:30Z</time><extensions><speed>0.870099</speed><course>33.818635</course><hAcc>1.665736</hAcc><vAcc>0.822168</vAcc></extensions></trkpt>
      <trkpt lon="79.859288" lat="6.906360"><ele>11.650584</ele><time>2024-08-17T17:09:31Z</time><extensions><speed>0.933292</speed><course>38.437635</course><hAcc>1.661854</hAcc><vAcc>0.822276</vAcc></extensions></trkpt>
      <trkpt lon="79.859294" lat="6.906367"><ele>11.627140</ele><time>2024-08-17T17:09:32Z</time><extensions><speed>1.084634</speed><course>41.212240</course><hAcc>1.658048</hAcc><vAcc>0.822371</vAcc></extensions></trkpt>
      <trkpt lon="79.859301" lat="6.906375"><ele>11.613225</ele><time>2024-08-17T17:09:33Z</time><extensions><speed>1.185816</speed><course>41.489216</course><hAcc>1.676916</hAcc><vAcc>0.822433</vAcc></extensions></trkpt>
      <trkpt lon="79.859307" lat="6.906382"><ele>11.620153</ele><time>2024-08-17T17:09:34Z</time><extensions><speed>1.068359</speed><course>41.133429</course><hAcc>1.713006</hAcc><vAcc>0.822467</vAcc></extensions></trkpt>
      <trkpt lon="79.859314" lat="6.906390"><ele>11.614301</ele><time>2024-08-17T17:09:35Z</time><extensions><speed>1.120614</speed><course>35.488873</course><hAcc>1.675424</hAcc><vAcc>0.822464</vAcc></extensions></trkpt>
      <trkpt lon="79.859319" lat="6.906399"><ele>11.599457</ele><time>2024-08-17T17:09:36Z</time><extensions><speed>1.175042</speed><course>31.851160</course><hAcc>1.661847</hAcc><vAcc>0.822422</vAcc></extensions></trkpt>
      <trkpt lon="79.859325" lat="6.906408"><ele>11.566726</ele><time>2024-08-17T17:09:37Z</time><extensions><speed>1.179855</speed><course>30.406252</course><hAcc>1.685113</hAcc><vAcc>0.822344</vAcc></extensions></trkpt>
      <trkpt lon="79.859330" lat="6.906417"><ele>11.537290</ele><time>2024-08-17T17:09:38Z</time><extensions><speed>1.194740</speed><course>30.438286</course><hAcc>1.699862</hAcc><vAcc>0.822233</vAcc></extensions></trkpt>
      <trkpt lon="79.859336" lat="6.906427"><ele>11.528717</ele><time>2024-08-17T17:09:39Z</time><extensions><speed>1.292866</speed><course>33.872596</course><hAcc>1.691472</hAcc><vAcc>0.822116</vAcc></extensions></trkpt>
      <trkpt lon="79.859344" lat="6.906436"><ele>11.517286</ele><time>2024-08-17T17:09:40Z</time><extensions><speed>1.424638</speed><course>39.848125</course><hAcc>1.699637</hAcc><vAcc>0.821990</vAcc></extensions></trkpt>
      <trkpt lon="79.859353" lat="6.906446"><ele>11.499883</ele><time>2024-08-17T17:09:41Z</time><extensions><speed>1.534946</speed><course>44.514218</course><hAcc>1.715514</hAcc><vAcc>0.821866</vAcc></extensions></trkpt>
      <trkpt lon="79.859363" lat="6.906456"><ele>11.480618</ele><time>2024-08-17T17:09:42Z</time><extensions><speed>1.535142</speed><course>47.383535</course><hAcc>1.722199</hAcc><vAcc>0.821763</vAcc></extensions></trkpt>
      <trkpt lon="79.859374" lat="6.906466"><ele>11.459857</ele><time>2024-08-17T17:09:43Z</time><extensions><speed>1.620271</speed><course>49.506271</course><hAcc>1.718273</hAcc><vAcc>0.821675</vAcc></extensions></trkpt>
      <trkpt lon="79.859385" lat="6.906475"><ele>11.432069</ele><time>2024-08-17T17:09:44Z</time><extensions><speed>1.575761</speed><course>50.898628</course><hAcc>1.727324</hAcc><vAcc>0.821619</vAcc></extensions></trkpt>
      <trkpt lon="79.859396" lat="6.906484"><ele>11.452202</ele><time>2024-08-17T17:09:45Z</time><extensions><speed>1.533062</speed><course>51.318881</course><hAcc>1.736097</hAcc><vAcc>0.821601</vAcc></extensions></trkpt>
      <trkpt lon="79.859406" lat="6.906492"><ele>11.411299</ele><time>2024-08-17T17:09:46Z</time><extensions><speed>1.448989</speed><course>51.337597</course><hAcc>1.733775</hAcc><vAcc>0.821618</vAcc></extensions></trkpt>
      <trkpt lon="79.859416" lat="6.906500"><ele>11.342954</ele><time>2024-08-17T17:09:47Z</time><extensions><speed>1.350777</speed><course>50.402772</course><hAcc>1.731584</hAcc><vAcc>0.821662</vAcc></extensions></trkpt>
      <trkpt lon="79.859425" lat="6.906508"><ele>11.279579</ele><time>2024-08-17T17:09:48Z</time><extensions><speed>1.352699</speed><course>46.356632</course><hAcc>1.730638</hAcc><vAcc>0.821730</vAcc></extensions></trkpt>
      <trkpt lon="79.859434" lat="6.906517"><ele>11.218396</ele><time>2024-08-17T17:09:49Z</time><extensions><speed>1.364550</speed><course>43.016004</course><hAcc>1.733673</hAcc><vAcc>0.821816</vAcc></extensions></trkpt>
      <trkpt lon="79.859442" lat="6.906526"><ele>11.190550</ele><time>2024-08-17T17:09:50Z</time><extensions><speed>1.285819</speed><course>39.798145</course><hAcc>1.732398</hAcc><vAcc>0.821920</vAcc></extensions></trkpt>
      <trkpt lon="79.859449" lat="6.906535"><ele>11.157659</ele><time>2024-08-17T17:09:51Z</time><extensions><speed>1.288338</speed><course>38.557948</course><hAcc>1.728455</hAcc><vAcc>0.822040</vAcc></extensions></trkpt>
      <trkpt lon="79.859456" lat="6.906545"><ele>11.113540</ele><time>2024-08-17T17:09:52Z</time><extensions><speed>1.340060</speed><course>35.483598</course><hAcc>1.723371</hAcc><vAcc>0.822177</vAcc></extensions></trkpt>
      <trkpt lon="79.859463" lat="6.906555"><ele>11.070660</ele><time>2024-08-17T17:09:53Z</time><extensions><speed>1.392932</speed><course>34.531310</course><hAcc>1.719241</hAcc><vAcc>0.822318</vAcc></extensions></trkpt>
      <trkpt lon="79.859471" lat="6.906565"><ele>11.031422</ele><time>2024-08-17T17:09:54Z</time><extensions><speed>1.403944</speed><course>36.515652</course><hAcc>1.724324</hAcc><vAcc>0.822461</vAcc></extensions></trkpt>
      <trkpt lon="79.859478" lat="6.906574"><ele>11.005791</ele><time>2024-08-17T17:09:55Z</time><extensions><speed>1.246281</speed><course>39.595095</course><hAcc>1.737492</hAcc><vAcc>0.822606</vAcc></extensions></trkpt>
      <trkpt lon="79.859484" lat="6.906583"><ele>10.996024</ele><time>2024-08-17T17:09:56Z</time><extensions><speed>1.032614</speed><course>32.503164</course><hAcc>1.734853</hAcc><vAcc>0.822750</vAcc></extensions></trkpt>
      <trkpt lon="79.859488" lat="6.906591"><ele>10.948672</ele><time>2024-08-17T17:09:57Z</time><extensions><speed>0.960489</speed><course>26.363759</course><hAcc>1.737662</hAcc><vAcc>0.822897</vAcc></extensions></trkpt>
      <trkpt lon="79.859492" lat="6.906599"><ele>10.908175</ele><time>2024-08-17T17:09:58Z</time><extensions><speed>1.127128</speed><course>22.471329</course><hAcc>1.740664</hAcc><vAcc>0.823053</vAcc></extensions></trkpt>
      <trkpt lon="79.859496" lat="6.906609"><ele>10.909344</ele><time>2024-08-17T17:09:59Z</time><extensions><speed>1.280463</speed><course>20.395559</course><hAcc>1.748723</hAcc><vAcc>0.823218</vAcc></extensions></trkpt>
      <trkpt lon="79.859501" lat="6.906621"><ele>10.908745</ele><time>2024-08-17T17:10:00Z</time><extensions><speed>1.376048</speed><course>21.205924</course><hAcc>1.757138</hAcc><vAcc>0.823388</vAcc></extensions></trkpt>
      <trkpt lon="79.859505" lat="6.906632"><ele>10.908621</ele><time>2024-08-17T17:10:01Z</time><extensions><speed>1.331902</speed><course>22.271304</course><hAcc>1.766236</hAcc><vAcc>0.823556</vAcc></extensions></trkpt>
      <trkpt lon="79.859510" lat="6.906642"><ele>10.914166</ele><time>2024-08-17T17:10:03Z</time><extensions><speed>1.159042</speed><course>23.880773</course><hAcc>1.771973</hAcc><vAcc>0.823708</vAcc></extensions></trkpt>
      <trkpt lon="79.859514" lat="6.906652"><ele>10.946782</ele><time>2024-08-17T17:10:04Z</time><extensions><speed>1.130967</speed><course>25.449580</course><hAcc>1.766940</hAcc><vAcc>0.823821</vAcc></extensions></trkpt>
      <trkpt lon="79.859518" lat="6.906661"><ele>10.975685</ele><time>2024-08-17T17:10:05Z</time><extensions><speed>1.151758</speed><course>27.184859</course><hAcc>1.758987</hAcc><vAcc>0.823915</vAcc></extensions></trkpt>
      <trkpt lon="79.859524" lat="6.906670"><ele>11.002013</ele><time>2024-08-17T17:10:06Z</time><extensions><speed>1.213880</speed><course>30.273832</course><hAcc>1.752127</hAcc><vAcc>0.823987</vAcc></extensions></trkpt>
      <trkpt lon="79.859529" lat="6.906680"><ele>11.014809</ele><time>2024-08-17T17:10:07Z</time><extensions><speed>1.219186</speed><course>33.873395</course><hAcc>1.744478</hAcc><vAcc>0.824039</vAcc></extensions></trkpt>
      <trkpt lon="79.859536" lat="6.906688"><ele>11.037691</ele><time>2024-08-17T17:10:08Z</time><extensions><speed>1.176625</speed><course>37.283849</course><hAcc>1.737604</hAcc><vAcc>0.824068</vAcc></extensions></trkpt>
      <trkpt lon="79.859542" lat="6.906697"><ele>11.079125</ele><time>2024-08-17T17:10:09Z</time><extensions><speed>1.161008</speed><course>39.825463</course><hAcc>1.728988</hAcc><vAcc>0.824068</vAcc></extensions></trkpt>
      <trkpt lon="79.859549" lat="6.906705"><ele>11.123323</ele><time>2024-08-17T17:10:10Z</time><extensions><speed>1.143462</speed><course>40.271004</course><hAcc>1.722739</hAcc><vAcc>0.824045</vAcc></extensions></trkpt>
      <trkpt lon="79.859555" lat="6.906712"><ele>11.163271</ele><time>2024-08-17T17:10:11Z</time><extensions><speed>1.079079</speed><course>37.599399</course><hAcc>1.720180</hAcc><vAcc>0.824003</vAcc></extensions></trkpt>
      <trkpt lon="79.859561" lat="6.906720"><ele>11.227154</ele><time>2024-08-17T17:10:12Z</time><extensions><speed>0.913476</speed><course>34.421215</course><hAcc>1.704264</hAcc><vAcc>0.823933</vAcc></extensions></trkpt>
      <trkpt lon="79.859565" lat="6.906726"><ele>11.304405</ele><time>2024-08-17T17:10:13Z</time><extensions><speed>0.864065</speed><course>33.632655</course><hAcc>1.706360</hAcc><vAcc>0.823830</vAcc></extensions></trkpt>
      <trkpt lon="79.859570" lat="6.906733"><ele>11.348547</ele><time>2024-08-17T17:10:14Z</time><extensions><speed>0.912367</speed><course>33.196739</course><hAcc>1.721859</hAcc><vAcc>0.823721</vAcc></extensions></trkpt>
      <trkpt lon="79.859575" lat="6.906740"><ele>11.392706</ele><time>2024-08-17T17:10:15Z</time><extensions><speed>1.015016</speed><course>36.526428</course><hAcc>1.704618</hAcc><vAcc>0.823595</vAcc></extensions></trkpt>
      <trkpt lon="79.859580" lat="6.906748"><ele>11.437875</ele><time>2024-08-17T17:10:16Z</time><extensions><speed>1.046359</speed><course>40.606201</course><hAcc>1.696739</hAcc><vAcc>0.823453</vAcc></extensions></trkpt>
      <trkpt lon="79.859587" lat="6.906755"><ele>11.513956</ele><time>2024-08-17T17:10:17Z</time><extensions><speed>1.068068</speed><course>42.051109</course><hAcc>1.702485</hAcc><vAcc>0.823289</vAcc></extensions></trkpt>
      <trkpt lon="79.859593" lat="6.906762"><ele>11.592311</ele><time>2024-08-17T17:10:18Z</time><extensions><speed>1.048331</speed><course>44.135189</course><hAcc>1.699154</hAcc><vAcc>0.823110</vAcc></extensions></trkpt>
      <trkpt lon="79.859600" lat="6.906768"><ele>11.656346</ele><time>2024-08-17T17:10:19Z</time><extensions><speed>0.955897</speed><course>47.444573</course><hAcc>1.681002</hAcc><vAcc>0.822912</vAcc></extensions></trkpt>
      <trkpt lon="79.859606" lat="6.906774"><ele>11.723437</ele><time>2024-08-17T17:10:20Z</time><extensions><speed>0.922125</speed><course>53.631507</course><hAcc>1.691056</hAcc><vAcc>0.822698</vAcc></extensions></trkpt>
      <trkpt lon="79.859613" lat="6.906779"><ele>11.800399</ele><time>2024-08-17T17:10:21Z</time><extensions><speed>1.020220</speed><course>54.127790</course><hAcc>1.733221</hAcc><vAcc>0.822477</vAcc></extensions></trkpt>
      <trkpt lon="79.859621" lat="6.906785"><ele>11.898512</ele><time>2024-08-17T17:10:22Z</time><extensions><speed>1.028193</speed><course>48.748876</course><hAcc>1.692136</hAcc><vAcc>0.822249</vAcc></extensions></trkpt>
      <trkpt lon="79.859627" lat="6.906791"><ele>11.944143</ele><time>2024-08-17T17:10:23Z</time><extensions><speed>0.999026</speed><course>39.921119</course><hAcc>1.669558</hAcc><vAcc>0.822014</vAcc></extensions></trkpt>
      <trkpt lon="79.859632" lat="6.906799"><ele>12.012922</ele><time>2024-08-17T17:10:24Z</time><extensions><speed>1.073037</speed><course>32.442341</course><hAcc>1.680190</hAcc><vAcc>0.821752</vAcc></extensions></trkpt>
      <trkpt lon="79.859638" lat="6.906808"><ele>12.100737</ele><time>2024-08-17T17:10:25Z</time><extensions><speed>1.291830</speed><course>28.234601</course><hAcc>1.673328</hAcc><vAcc>0.821494</vAcc></extensions></trkpt>
      <trkpt lon="79.859644" lat="6.906819"><ele>12.176282</ele><time>2024-08-17T17:10:26Z</time><extensions><speed>1.420251</speed><course>27.346359</course><hAcc>1.652931</hAcc><vAcc>0.821233</vAcc></extensions></trkpt>
      <trkpt lon="79.859650" lat="6.906831"><ele>12.254864</ele><time>2024-08-17T17:10:27Z</time><extensions><speed>1.483788</speed><course>27.574758</course><hAcc>1.647511</hAcc><vAcc>0.820970</vAcc></extensions></trkpt>
      <trkpt lon="79.859656" lat="6.906842"><ele>12.336384</ele><time>2024-08-17T17:10:28Z</time><extensions><speed>1.273352</speed><course>31.148271</course><hAcc>1.654083</hAcc><vAcc>0.820722</vAcc></extensions></trkpt>
      <trkpt lon="79.859662" lat="6.906852"><ele>12.419668</ele><time>2024-08-17T17:10:29Z</time><extensions><speed>1.283002</speed><course>34.981618</course><hAcc>1.656032</hAcc><vAcc>0.820502</vAcc></extensions></trkpt>
      <trkpt lon="79.859669" lat="6.906860"><ele>12.471918</ele><time>2024-08-17T17:10:30Z</time><extensions><speed>1.031011</speed><course>41.023762</course><hAcc>1.700284</hAcc><vAcc>0.820307</vAcc></extensions></trkpt>
      <trkpt lon="79.859674" lat="6.906867"><ele>12.518728</ele><time>2024-08-17T17:10:31Z</time><extensions><speed>0.989731</speed><course>36.754914</course><hAcc>1.650960</hAcc><vAcc>0.820139</vAcc></extensions></trkpt>
      <trkpt lon="79.859679" lat="6.906874"><ele>12.551413</ele><time>2024-08-17T17:10:32Z</time><extensions><speed>0.845550</speed><course>35.172993</course><hAcc>1.634443</hAcc><vAcc>0.820010</vAcc></extensions></trkpt>
      <trkpt lon="79.859684" lat="6.906880"><ele>12.571212</ele><time>2024-08-17T17:10:33Z</time><extensions><speed>0.776406</speed><course>33.699978</course><hAcc>1.660450</hAcc><vAcc>0.819910</vAcc></extensions></trkpt>
      <trkpt lon="79.859688" lat="6.906887"><ele>12.616715</ele><time>2024-08-17T17:10:34Z</time><extensions><speed>1.095967</speed><course>35.132494</course><hAcc>1.678509</hAcc><vAcc>0.819831</vAcc></extensions></trkpt>
      <trkpt lon="79.859695" lat="6.906896"><ele>12.667832</ele><time>2024-08-17T17:10:35Z</time><extensions><speed>1.293141</speed><course>36.599423</course><hAcc>1.704918</hAcc><vAcc>0.819771</vAcc></extensions></trkpt>
      <trkpt lon="79.859702" lat="6.906906"><ele>12.689609</ele><time>2024-08-17T17:10:36Z</time><extensions><speed>1.451235</speed><course>37.818883</course><hAcc>1.716587</hAcc><vAcc>0.819735</vAcc></extensions></trkpt>
      <trkpt lon="79.859710" lat="6.906916"><ele>12.710424</ele><time>2024-08-17T17:10:37Z</time><extensions><speed>1.507055</speed><course>36.875722</course><hAcc>1.697610</hAcc><vAcc>0.819702</vAcc></extensions></trkpt>
      <trkpt lon="79.859718" lat="6.906927"><ele>12.731980</ele><time>2024-08-17T17:10:38Z</time><extensions><speed>1.539715</speed><course>34.419019</course><hAcc>1.690091</hAcc><vAcc>0.819692</vAcc></extensions></trkpt>
      <trkpt lon="79.859726" lat="6.906939"><ele>12.743561</ele><time>2024-08-17T17:10:39Z</time><extensions><speed>1.515944</speed><course>34.739020</course><hAcc>1.700357</hAcc><vAcc>0.819704</vAcc></extensions></trkpt>
      <trkpt lon="79.859734" lat="6.906950"><ele>12.800538</ele><time>2024-08-17T17:10:40Z</time><extensions><speed>1.489988</speed><course>35.656574</course><hAcc>1.718883</hAcc><vAcc>0.819738</vAcc></extensions></trkpt>
      <trkpt lon="79.859742" lat="6.906960"><ele>12.821857</ele><time>2024-08-17T17:10:41Z</time><extensions><speed>1.339122</speed><course>37.726760</course><hAcc>1.720515</hAcc><vAcc>0.819803</vAcc></extensions></trkpt>
      <trkpt lon="79.859749" lat="6.906970"><ele>12.801896</ele><time>2024-08-17T17:10:42Z</time><extensions><speed>1.302255</speed><course>37.508453</course><hAcc>1.712616</hAcc><vAcc>0.819893</vAcc></extensions></trkpt>
      <trkpt lon="79.859756" lat="6.906979"><ele>12.776854</ele><time>2024-08-17T17:10:43Z</time><extensions><speed>1.185881</speed><course>37.108701</course><hAcc>1.706274</hAcc><vAcc>0.820013</vAcc></extensions></trkpt>
      <trkpt lon="79.859762" lat="6.906987"><ele>12.740988</ele><time>2024-08-17T17:10:44Z</time><extensions><speed>1.189069</speed><course>36.704779</course><hAcc>1.710191</hAcc><vAcc>0.820172</vAcc></extensions></trkpt>
      <trkpt lon="79.859769" lat="6.906996"><ele>12.740198</ele><time>2024-08-17T17:10:45Z</time><extensions><speed>1.236950</speed><course>34.474306</course><hAcc>1.712336</hAcc><vAcc>0.820364</vAcc></extensions></trkpt>
      <trkpt lon="79.859775" lat="6.907006"><ele>12.716601</ele><time>2024-08-17T17:10:46Z</time><extensions><speed>1.285137</speed><course>31.903104</course><hAcc>1.702694</hAcc><vAcc>0.820591</vAcc></extensions></trkpt>
      <trkpt lon="79.859781" lat="6.907016"><ele>12.690269</ele><time>2024-08-17T17:10:47Z</time><extensions><speed>1.331156</speed><course>29.655218</course><hAcc>1.686306</hAcc><vAcc>0.820859</vAcc></extensions></trkpt>
      <trkpt lon="79.859787" lat="6.907026"><ele>12.675206</ele><time>2024-08-17T17:10:48Z</time><extensions><speed>1.321986</speed><course>29.814624</course><hAcc>1.675916</hAcc><vAcc>0.821167</vAcc></extensions></trkpt>
      <trkpt lon="79.859793" lat="6.907036"><ele>12.649541</ele><time>2024-08-17T17:10:49Z</time><extensions><speed>1.183211</speed><course>32.625474</course><hAcc>1.689073</hAcc><vAcc>0.821505</vAcc></extensions></trkpt>
      <trkpt lon="79.859798" lat="6.907044"><ele>12.642600</ele><time>2024-08-17T17:10:50Z</time><extensions><speed>0.902199</speed><course>38.509799</course><hAcc>1.719453</hAcc><vAcc>0.821841</vAcc></extensions></trkpt>
      <trkpt lon="79.859803" lat="6.907051"><ele>12.605913</ele><time>2024-08-17T17:10:51Z</time><extensions><speed>0.933005</speed><course>33.310045</course><hAcc>1.685760</hAcc><vAcc>0.822167</vAcc></extensions></trkpt>
      <trkpt lon="79.859808" lat="6.907058"><ele>12.550775</ele><time>2024-08-17T17:10:52Z</time><extensions><speed>0.884739</speed><course>30.117434</course><hAcc>1.672317</hAcc><vAcc>0.822461</vAcc></extensions></trkpt>
      <trkpt lon="79.859812" lat="6.907065"><ele>12.485243</ele><time>2024-08-17T17:10:53Z</time><extensions><speed>1.012172</speed><course>28.843744</course><hAcc>1.682402</hAcc><vAcc>0.822712</vAcc></extensions></trkpt>
      <trkpt lon="79.859816" lat="6.907074"><ele>12.436376</ele><time>2024-08-17T17:10:53Z</time><extensions><speed>1.112529</speed><course>30.177549</course><hAcc>1.698134</hAcc><vAcc>0.822916</vAcc></extensions></trkpt>
      <trkpt lon="79.859822" lat="6.907082"><ele>12.422728</ele><time>2024-08-17T17:10:54Z</time><extensions><speed>1.154087</speed><course>32.410742</course><hAcc>1.708990</hAcc><vAcc>0.823066</vAcc></extensions></trkpt>
      <trkpt lon="79.859828" lat="6.907091"><ele>12.399491</ele><time>2024-08-17T17:10:55Z</time><extensions><speed>1.245580</speed><course>35.639761</course><hAcc>1.710625</hAcc><vAcc>0.823157</vAcc></extensions></trkpt>
      <trkpt lon="79.859835" lat="6.907101"><ele>12.370105</ele><time>2024-08-17T17:10:56Z</time><extensions><speed>1.277123</speed><course>37.512248</course><hAcc>1.715699</hAcc><vAcc>0.823186</vAcc></extensions></trkpt>
      <trkpt lon="79.859842" lat="6.907110"><ele>12.354743</ele><time>2024-08-17T17:10:57Z</time><extensions><speed>1.301758</speed><course>38.167156</course><hAcc>1.718431</hAcc><vAcc>0.823158</vAcc></extensions></trkpt>
      <trkpt lon="79.859849" lat="6.907119"><ele>12.335837</ele><time>2024-08-17T17:10:58Z</time><extensions><speed>1.270414</speed><course>37.216759</course><hAcc>1.714121</hAcc><vAcc>0.823079</vAcc></extensions></trkpt>
      <trkpt lon="79.859856" lat="6.907128"><ele>12.368565</ele><time>2024-08-17T17:10:59Z</time><extensions><speed>1.250466</speed><course>36.245328</course><hAcc>1.707608</hAcc><vAcc>0.822949</vAcc></extensions></trkpt>
      <trkpt lon="79.859863" lat="6.907137"><ele>12.418112</ele><time>2024-08-17T17:11:00Z</time><extensions><speed>1.246169</speed><course>34.815110</course><hAcc>1.714214</hAcc><vAcc>0.822798</vAcc></extensions></trkpt>
      <trkpt lon="79.859869" lat="6.907146"><ele>12.433673</ele><time>2024-08-17T17:11:01Z</time><extensions><speed>1.191867</speed><course>34.126249</course><hAcc>1.727783</hAcc><vAcc>0.822641</vAcc></extensions></trkpt>
      <trkpt lon="79.859875" lat="6.907156"><ele>12.436377</ele><time>2024-08-17T17:11:02Z</time><extensions><speed>1.282466</speed><course>34.659749</course><hAcc>1.721645</hAcc><vAcc>0.822490</vAcc></extensions></trkpt>
      <trkpt lon="79.859882" lat="6.907165"><ele>12.437687</ele><time>2024-08-17T17:11:03Z</time><extensions><speed>1.317192</speed><course>35.307957</course><hAcc>1.721515</hAcc><vAcc>0.822353</vAcc></extensions></trkpt>
      <trkpt lon="79.859889" lat="6.907175"><ele>12.447695</ele><time>2024-08-17T17:11:04Z</time><extensions><speed>1.233991</speed><course>37.237644</course><hAcc>1.718618</hAcc><vAcc>0.822245</vAcc></extensions></trkpt>
      <trkpt lon="79.859895" lat="6.907183"><ele>12.453989</ele><time>2024-08-17T17:11:05Z</time><extensions><speed>1.130959</speed><course>37.274023</course><hAcc>1.714794</hAcc><vAcc>0.822171</vAcc></extensions></trkpt>
      <trkpt lon="79.859901" lat="6.907191"><ele>12.494183</ele><time>2024-08-17T17:11:06Z</time><extensions><speed>1.111460</speed><course>37.580641</course><hAcc>1.709086</hAcc><vAcc>0.822143</vAcc></extensions></trkpt>
      <trkpt lon="79.859907" lat="6.907199"><ele>12.526443</ele><time>2024-08-17T17:11:07Z</time><extensions><speed>1.134911</speed><course>36.316412</course><hAcc>1.705397</hAcc><vAcc>0.822161</vAcc></extensions></trkpt>
      <trkpt lon="79.859913" lat="6.907208"><ele>12.606954</ele><time>2024-08-17T17:11:08Z</time><extensions><speed>1.165471</speed><course>31.484141</course><hAcc>1.700886</hAcc><vAcc>0.822227</vAcc></extensions></trkpt>
      <trkpt lon="79.859918" lat="6.907217"><ele>12.651500</ele><time>2024-08-17T17:11:09Z</time><extensions><speed>1.143957</speed><course>28.162377</course><hAcc>1.712172</hAcc><vAcc>0.822353</vAcc></extensions></trkpt>
      <trkpt lon="79.859922" lat="6.907226"><ele>12.671398</ele><time>2024-08-17T17:11:10Z</time><extensions><speed>0.947259</speed><course>25.411543</course><hAcc>1.743982</hAcc><vAcc>0.822539</vAcc></extensions></trkpt>
      <trkpt lon="79.859926" lat="6.907234"><ele>12.707459</ele><time>2024-08-17T17:11:11Z</time><extensions><speed>1.078694</speed><course>19.252221</course><hAcc>1.707950</hAcc><vAcc>0.822760</vAcc></extensions></trkpt>
      <trkpt lon="79.859928" lat="6.907243"><ele>12.759858</ele><time>2024-08-17T17:11:12Z</time><extensions><speed>1.049066</speed><course>12.791953</course><hAcc>1.693562</hAcc><vAcc>0.823009</vAcc></extensions></trkpt>
      <trkpt lon="79.859930" lat="6.907252"><ele>12.786302</ele><time>2024-08-17T17:11:13Z</time><extensions><speed>0.940322</speed><course>5.487541</course><hAcc>1.706365</hAcc><vAcc>0.823274</vAcc></extensions></trkpt>
      <trkpt lon="79.859929" lat="6.907260"><ele>12.825003</ele><time>2024-08-17T17:11:14Z</time><extensions><speed>0.797486</speed><course>350.897496</course><hAcc>1.721235</hAcc><vAcc>0.823546</vAcc></extensions></trkpt>
      <trkpt lon="79.859927" lat="6.907267"><ele>12.877487</ele><time>2024-08-17T17:11:15Z</time><extensions><speed>0.793790</speed><course>332.578591</course><hAcc>1.733515</hAcc><vAcc>0.823824</vAcc></extensions></trkpt>
      <trkpt lon="79.859923" lat="6.907273"><ele>12.917838</ele><time>2024-08-17T17:11:16Z</time><extensions><speed>0.909683</speed><course>312.729581</course><hAcc>1.741757</hAcc><vAcc>0.824108</vAcc></extensions></trkpt>
      <trkpt lon="79.859915" lat="6.907278"><ele>12.955398</ele><time>2024-08-17T17:11:17Z</time><extensions><speed>1.111463</speed><course>302.803440</course><hAcc>1.739266</hAcc><vAcc>0.824385</vAcc></extensions></trkpt>
      <trkpt lon="79.859906" lat="6.907284"><ele>13.010899</ele><time>2024-08-17T17:11:18Z</time><extensions><speed>1.264894</speed><course>300.436647</course><hAcc>1.735564</hAcc><vAcc>0.824654</vAcc></extensions></trkpt>
      <trkpt lon="79.859896" lat="6.907289"><ele>13.059948</ele><time>2024-08-17T17:11:19Z</time><extensions><speed>1.227504</speed><course>299.123625</course><hAcc>1.740178</hAcc><vAcc>0.824904</vAcc></extensions></trkpt>
      <trkpt lon="79.859887" lat="6.907294"><ele>13.105531</ele><time>2024-08-17T17:11:20Z</time><extensions><speed>1.069417</speed><course>296.952564</course><hAcc>1.747870</hAcc><vAcc>0.825152</vAcc></extensions></trkpt>
      <trkpt lon="79.859879" lat="6.907299"><ele>13.154257</ele><time>2024-08-17T17:11:21Z</time><extensions><speed>1.041857</speed><course>300.072662</course><hAcc>1.739875</hAcc><vAcc>0.825377</vAcc></extensions></trkpt>
      <trkpt lon="79.859871" lat="6.907304"><ele>13.214003</ele><time>2024-08-17T17:11:22Z</time><extensions><speed>1.010628</speed><course>304.148280</course><hAcc>1.739748</hAcc><vAcc>0.825578</vAcc></extensions></trkpt>
      <trkpt lon="79.859864" lat="6.907309"><ele>13.243407</ele><time>2024-08-17T17:11:23Z</time><extensions><speed>0.931434</speed><course>310.161293</course><hAcc>1.741961</hAcc><vAcc>0.825750</vAcc></extensions></trkpt>
      <trkpt lon="79.859858" lat="6.907315"><ele>13.255805</ele><time>2024-08-17T17:11:24Z</time><extensions><speed>0.962513</speed><course>317.400260</course><hAcc>1.735894</hAcc><vAcc>0.825894</vAcc></extensions></trkpt>
      <trkpt lon="79.859852" lat="6.907322"><ele>13.253941</ele><time>2024-08-17T17:11:25Z</time><extensions><speed>1.045719</speed><course>320.897244</course><hAcc>1.744194</hAcc><vAcc>0.826021</vAcc></extensions></trkpt>
      <trkpt lon="79.859846" lat="6.907330"><ele>13.289335</ele><time>2024-08-17T17:11:26Z</time><extensions><speed>1.112472</speed><course>323.720518</course><hAcc>1.749113</hAcc><vAcc>0.826111</vAcc></extensions></trkpt>
      <trkpt lon="79.859840" lat="6.907338"><ele>13.312607</ele><time>2024-08-17T17:11:27Z</time><extensions><speed>1.119947</speed><course>326.962201</course><hAcc>1.742700</hAcc><vAcc>0.826170</vAcc></extensions></trkpt>
      <trkpt lon="79.859835" lat="6.907347"><ele>13.334931</ele><time>2024-08-17T17:11:28Z</time><extensions><speed>1.089084</speed><course>331.046240</course><hAcc>1.728710</hAcc><vAcc>0.826205</vAcc></extensions></trkpt>
      <trkpt lon="79.859830" lat="6.907355"><ele>13.387086</ele><time>2024-08-17T17:11:29Z</time><extensions><speed>1.034871</speed><course>332.100963</course><hAcc>1.713303</hAcc><vAcc>0.826192</vAcc></extensions></trkpt>
      <trkpt lon="79.859826" lat="6.907363"><ele>13.405732</ele><time>2024-08-17T17:11:30Z</time><extensions><speed>1.010234</speed><course>330.424320</course><hAcc>1.710846</hAcc><vAcc>0.826162</vAcc></extensions></trkpt>
      <trkpt lon="79.859821" lat="6.907372"><ele>13.393943</ele><time>2024-08-17T17:11:31Z</time><extensions><speed>1.227900</speed><course>330.250176</course><hAcc>1.698140</hAcc><vAcc>0.826124</vAcc></extensions></trkpt>
      <trkpt lon="79.859816" lat="6.907382"><ele>13.417990</ele><time>2024-08-17T17:11:32Z</time><extensions><speed>1.329845</speed><course>334.443500</course><hAcc>1.689244</hAcc><vAcc>0.826076</vAcc></extensions></trkpt>
      <trkpt lon="79.859811" lat="6.907393"><ele>13.420968</ele><time>2024-08-17T17:11:33Z</time><extensions><speed>1.238872</speed><course>336.211552</course><hAcc>1.695891</hAcc><vAcc>0.826018</vAcc></extensions></trkpt>
      <trkpt lon="79.859806" lat="6.907403"><ele>13.425640</ele><time>2024-08-17T17:11:34Z</time><extensions><speed>1.194958</speed><course>334.734922</course><hAcc>1.679122</hAcc><vAcc>0.825958</vAcc></extensions></trkpt>
      <trkpt lon="79.859802" lat="6.907412"><ele>13.442461</ele><time>2024-08-17T17:11:35Z</time><extensions><speed>1.047573</speed><course>330.986780</course><hAcc>1.667763</hAcc><vAcc>0.825907</vAcc></extensions></trkpt>
      <trkpt lon="79.859797" lat="6.907421"><ele>13.432850</ele><time>2024-08-17T17:11:36Z</time><extensions><speed>1.086919</speed><course>331.045836</course><hAcc>1.639641</hAcc><vAcc>0.825857</vAcc></extensions></trkpt>
      <trkpt lon="79.859792" lat="6.907429"><ele>13.396264</ele><time>2024-08-17T17:11:37Z</time><extensions><speed>1.129737</speed><course>330.608605</course><hAcc>1.629759</hAcc><vAcc>0.825812</vAcc></extensions></trkpt>
      <trkpt lon="79.859787" lat="6.907438"><ele>13.375141</ele><time>2024-08-17T17:11:38Z</time><extensions><speed>1.106641</speed><course>332.669087</course><hAcc>1.652667</hAcc><vAcc>0.825765</vAcc></extensions></trkpt>
      <trkpt lon="79.859783" lat="6.907446"><ele>13.347738</ele><time>2024-08-17T17:11:39Z</time><extensions><speed>0.935184</speed><course>333.635704</course><hAcc>1.695852</hAcc><vAcc>0.825726</vAcc></extensions></trkpt>
      <trkpt lon="79.859779" lat="6.907454"><ele>13.319183</ele><time>2024-08-17T17:11:40Z</time><extensions><speed>0.918323</speed><course>325.101140</course><hAcc>1.657459</hAcc><vAcc>0.825699</vAcc></extensions></trkpt>
      <trkpt lon="79.859774" lat="6.907461"><ele>13.296251</ele><time>2024-08-17T17:11:41Z</time><extensions><speed>0.994013</speed><course>321.130718</course><hAcc>1.635576</hAcc><vAcc>0.825679</vAcc></extensions></trkpt>
      <trkpt lon="79.859768" lat="6.907468"><ele>13.290168</ele><time>2024-08-17T17:11:42Z</time><extensions><speed>1.110201</speed><course>322.336205</course><hAcc>1.628175</hAcc><vAcc>0.825654</vAcc></extensions></trkpt>
      <trkpt lon="79.859761" lat="6.907476"><ele>13.262713</ele><time>2024-08-17T17:11:43Z</time><extensions><speed>1.157888</speed><course>322.991829</course><hAcc>1.619116</hAcc><vAcc>0.825637</vAcc></extensions></trkpt>
      <trkpt lon="79.859755" lat="6.907485"><ele>13.225373</ele><time>2024-08-17T17:11:44Z</time><extensions><speed>1.164363</speed><course>322.768493</course><hAcc>1.609950</hAcc><vAcc>0.825620</vAcc></extensions></trkpt>
      <trkpt lon="79.859749" lat="6.907493"><ele>13.188433</ele><time>2024-08-17T17:11:45Z</time><extensions><speed>1.166379</speed><course>321.054934</course><hAcc>1.628990</hAcc><vAcc>0.825602</vAcc></extensions></trkpt>
      <trkpt lon="79.859743" lat="6.907500"><ele>13.172837</ele><time>2024-08-17T17:11:46Z</time><extensions><speed>0.941981</speed><course>321.372677</course><hAcc>1.686520</hAcc><vAcc>0.825576</vAcc></extensions></trkpt>
      <trkpt lon="79.859737" lat="6.907507"><ele>13.143544</ele><time>2024-08-17T17:11:47Z</time><extensions><speed>0.974435</speed><course>324.675415</course><hAcc>1.635664</hAcc><vAcc>0.825544</vAcc></extensions></trkpt>
      <trkpt lon="79.859732" lat="6.907515"><ele>13.129946</ele><time>2024-08-17T17:11:48Z</time><extensions><speed>0.998505</speed><course>326.705993</course><hAcc>1.619896</hAcc><vAcc>0.825509</vAcc></extensions></trkpt>
      <trkpt lon="79.859728" lat="6.907522"><ele>13.128594</ele><time>2024-08-17T17:11:49Z</time><extensions><speed>1.014784</speed><course>328.114905</course><hAcc>1.646244</hAcc><vAcc>0.825472</vAcc></extensions></trkpt>
      <trkpt lon="79.859723" lat="6.907530"><ele>13.134126</ele><time>2024-08-17T17:11:50Z</time><extensions><speed>0.971101</speed><course>330.811991</course><hAcc>1.660575</hAcc><vAcc>0.825449</vAcc></extensions></trkpt>
      <trkpt lon="79.859719" lat="6.907538"><ele>13.126830</ele><time>2024-08-17T17:11:51Z</time><extensions><speed>0.941590</speed><course>332.060049</course><hAcc>1.678268</hAcc><vAcc>0.825430</vAcc></extensions></trkpt>
      <trkpt lon="79.859715" lat="6.907545"><ele>13.108554</ele><time>2024-08-17T17:11:52Z</time><extensions><speed>0.990476</speed><course>330.562055</course><hAcc>1.699206</hAcc><vAcc>0.825426</vAcc></extensions></trkpt>
      <trkpt lon="79.859710" lat="6.907553"><ele>13.115104</ele><time>2024-08-17T17:11:53Z</time><extensions><speed>1.042164</speed><course>330.003688</course><hAcc>1.714574</hAcc><vAcc>0.825435</vAcc></extensions></trkpt>
      <trkpt lon="79.859705" lat="6.907562"><ele>13.132507</ele><time>2024-08-17T17:11:54Z</time><extensions><speed>1.111645</speed><course>331.025957</course><hAcc>1.722060</hAcc><vAcc>0.825462</vAcc></extensions></trkpt>
      <trkpt lon="79.859700" lat="6.907571"><ele>13.142473</ele><time>2024-08-17T17:11:55Z</time><extensions><speed>1.169028</speed><course>334.673883</course><hAcc>1.726913</hAcc><vAcc>0.825502</vAcc></extensions></trkpt>
      <trkpt lon="79.859696" lat="6.907581"><ele>13.160789</ele><time>2024-08-17T17:11:56Z</time><extensions><speed>1.167143</speed><course>338.670193</course><hAcc>1.727403</hAcc><vAcc>0.825559</vAcc></extensions></trkpt>
      <trkpt lon="79.859693" lat="6.907590"><ele>13.172362</ele><time>2024-08-17T17:11:57Z</time><extensions><speed>1.081818</speed><course>339.730732</course><hAcc>1.727079</hAcc><vAcc>0.825588</vAcc></extensions></trkpt>
      <trkpt lon="79.859689" lat="6.907599"><ele>13.192415</ele><time>2024-08-17T17:11:58Z</time><extensions><speed>1.033524</speed><course>339.393917</course><hAcc>1.727690</hAcc><vAcc>0.825571</vAcc></extensions></trkpt>
      <trkpt lon="79.859686" lat="6.907608"><ele>13.209227</ele><time>2024-08-17T17:11:59Z</time><extensions><speed>0.991251</speed><course>336.406019</course><hAcc>1.732005</hAcc><vAcc>0.825537</vAcc></extensions></trkpt>
      <trkpt lon="79.859682" lat="6.907615"><ele>13.222601</ele><time>2024-08-17T17:12:00Z</time><extensions><speed>0.883661</speed><course>331.054731</course><hAcc>1.741117</hAcc><vAcc>0.825419</vAcc></extensions></trkpt>
      <trkpt lon="79.859678" lat="6.907621"><ele>13.251327</ele><time>2024-08-17T17:12:01Z</time><extensions><speed>0.711232</speed><course>324.419228</course><hAcc>1.751952</hAcc><vAcc>0.825222</vAcc></extensions></trkpt>
      <trkpt lon="79.859675" lat="6.907626"><ele>13.305609</ele><time>2024-08-17T17:12:02Z</time><extensions><speed>0.536327</speed><course>321.560889</course><hAcc>1.760288</hAcc><vAcc>0.824819</vAcc></extensions></trkpt>
      <trkpt lon="79.859672" lat="6.907629"><ele>13.310831</ele><time>2024-08-17T17:12:03Z</time><extensions><speed>0.460465</speed><course>321.388177</course><hAcc>1.774674</hAcc><vAcc>0.824156</vAcc></extensions></trkpt>
      <trkpt lon="79.859670" lat="6.907632"><ele>13.326347</ele><time>2024-08-17T17:12:04Z</time><extensions><speed>0.317927</speed><course>323.775962</course><hAcc>1.778912</hAcc><vAcc>0.823387</vAcc></extensions></trkpt>
      <trkpt lon="79.859669" lat="6.907634"><ele>13.343720</ele><time>2024-08-17T17:12:05Z</time><extensions><speed>0.185606</speed><course>333.541822</course><hAcc>1.773902</hAcc><vAcc>0.822394</vAcc></extensions></trkpt>
      <trkpt lon="79.859668" lat="6.907635"><ele>13.362792</ele><time>2024-08-17T17:12:06Z</time><extensions><speed>0.091543</speed><course>353.740201</course><hAcc>1.777041</hAcc><vAcc>0.821054</vAcc></extensions></trkpt>
      <trkpt lon="79.859669" lat="6.907636"><ele>13.375378</ele><time>2024-08-17T17:12:07Z</time><extensions><speed>0.055972</speed><course>75.483575</course><hAcc>1.787322</hAcc><vAcc>0.819307</vAcc></extensions></trkpt>
      <trkpt lon="79.859669" lat="6.907636"><ele>13.393455</ele><time>2024-08-17T17:12:09Z</time><extensions><speed>0.122891</speed><course>110.003834</course><hAcc>1.813220</hAcc><vAcc>0.817045</vAcc></extensions></trkpt>
      <trkpt lon="79.859671" lat="6.907635"><ele>13.403408</ele><time>2024-08-17T17:12:10Z</time><extensions><speed>0.179365</speed><course>112.805713</course><hAcc>1.853129</hAcc><vAcc>0.814361</vAcc></extensions></trkpt>
      <trkpt lon="79.859673" lat="6.907635"><ele>13.428402</ele><time>2024-08-17T17:12:11Z</time><extensions><speed>0.246363</speed><course>101.125730</course><hAcc>1.860166</hAcc><vAcc>0.810633</vAcc></extensions></trkpt>
      <trkpt lon="79.859675" lat="6.907635"><ele>13.431997</ele><time>2024-08-17T17:12:12Z</time><extensions><speed>0.312613</speed><course>84.546888</course><hAcc>1.883598</hAcc><vAcc>0.805013</vAcc></extensions></trkpt>
      <trkpt lon="79.859678" lat="6.907635"><ele>13.443073</ele><time>2024-08-17T17:12:13Z</time><extensions><speed>0.384932</speed><course>73.195785</course><hAcc>1.968727</hAcc><vAcc>0.796250</vAcc></extensions></trkpt>
      <trkpt lon="79.859682" lat="6.907636"><ele>13.450112</ele><time>2024-08-17T17:12:14Z</time><extensions><speed>0.424968</speed><course>67.546973</course><hAcc>2.110973</hAcc><vAcc>0.785876</vAcc></extensions></trkpt>
      <trkpt lon="79.859686" lat="6.907638"><ele>13.458173</ele><time>2024-08-17T17:12:15Z</time><extensions><speed>0.526057</speed><course>61.988557</course><hAcc>2.250116</hAcc><vAcc>0.774761</vAcc></extensions></trkpt>
      <trkpt lon="79.859690" lat="6.907641"><ele>13.466131</ele><time>2024-08-17T17:12:16Z</time><extensions><speed>0.582416</speed><course>60.306418</course><hAcc>2.404716</hAcc><vAcc>0.761746</vAcc></extensions></trkpt>
      <trkpt lon="79.859695" lat="6.907643"><ele>13.474415</ele><time>2024-08-17T17:12:17Z</time><extensions><speed>0.584993</speed><course>62.050682</course><hAcc>2.576521</hAcc><vAcc>0.747011</vAcc></extensions></trkpt>
      <trkpt lon="79.859699" lat="6.907645"><ele>13.483409</ele><time>2024-08-17T17:12:18Z</time><extensions><speed>0.507359</speed><course>63.590881</course><hAcc>2.747990</hAcc><vAcc>0.730963</vAcc></extensions></trkpt>
      <trkpt lon="79.859703" lat="6.907646"><ele>13.493231</ele><time>2024-08-17T17:12:19Z</time><extensions><speed>0.412294</speed><course>68.335088</course><hAcc>2.896307</hAcc><vAcc>0.714240</vAcc></extensions></trkpt>
      <trkpt lon="79.859706" lat="6.907647"><ele>13.502993</ele><time>2024-08-17T17:12:20Z</time><extensions><speed>0.344307</speed><course>74.393976</course><hAcc>3.049608</hAcc><vAcc>0.699550</vAcc></extensions></trkpt>
      <trkpt lon="79.859709" lat="6.907648"><ele>13.513334</ele><time>2024-08-17T17:12:21Z</time><extensions><speed>0.289046</speed><course>85.434369</course><hAcc>3.220164</hAcc><vAcc>0.687952</vAcc></extensions></trkpt>
      <trkpt lon="79.859711" lat="6.907648"><ele>13.524296</ele><time>2024-08-17T17:12:22Z</time><extensions><speed>0.254872</speed><course>99.488229</course><hAcc>3.408301</hAcc><vAcc>0.683294</vAcc></extensions></trkpt>
      <trkpt lon="79.859713" lat="6.907647"><ele>13.535994</ele><time>2024-08-17T17:12:23Z</time><extensions><speed>0.221579</speed><course>113.983426</course><hAcc>3.618723</hAcc><vAcc>0.690729</vAcc></extensions></trkpt>
      <trkpt lon="79.859715" lat="6.907646"><ele>13.548440</ele><time>2024-08-17T17:12:24Z</time><extensions><speed>0.176288</speed><course>126.340170</course><hAcc>3.848934</hAcc><vAcc>0.715947</vAcc></extensions></trkpt>
      <trkpt lon="79.859716" lat="6.907645"><ele>13.561467</ele><time>2024-08-17T17:12:25Z</time><extensions><speed>0.103090</speed><course>138.825181</course><hAcc>4.058166</hAcc><vAcc>0.763633</vAcc></extensions></trkpt>
      <trkpt lon="79.859716" lat="6.907645"><ele>13.574814</ele><time>2024-08-17T17:12:26Z</time><extensions><speed>0.058302</speed><course>155.759544</course><hAcc>4.178111</hAcc><vAcc>0.836552</vAcc></extensions></trkpt>
      <trkpt lon="79.859717" lat="6.907644"><ele>13.588249</ele><time>2024-08-17T17:12:27Z</time><extensions><speed>0.059327</speed><course>165.875429</course><hAcc>4.247525</hAcc><vAcc>0.936046</vAcc></extensions></trkpt>
      <trkpt lon="79.859717" lat="6.907644"><ele>13.601646</ele><time>2024-08-17T17:12:28Z</time><extensions><speed>0.018080</speed><course>174.269284</course><hAcc>4.343550</hAcc><vAcc>1.062614</vAcc></extensions></trkpt>
      <trkpt lon="79.859717" lat="6.907644"><ele>13.614968</ele><time>2024-08-17T17:12:29Z</time><extensions><speed>0.006406</speed><course>179.040398</course><hAcc>4.403202</hAcc><vAcc>1.216060</vAcc></extensions></trkpt>
    </trkseg>
  </trk>
</gpx>