<?xml version="1.0" encoding="UTF-8"?>
<gpx version="1.1" creator="Apple Health Export" xmlns="http://www.topografix.com/GPX/1/1" xmlns:xsi="http://www.w3.org/2001/XMLSchema-instance" xsi:schemaLocation="http://www.topografix.com/GPX/1/1 http://www.topografix.com/GPX/1/1/gpx.xsd">
  <metadata>
    <time>2026-06-04T15:24:53Z</time>
  </metadata>
  <trk>
    <name>Route 2023-02-23 11:40pm</name>
    <trkseg>
      <trkpt lon="35.216570" lat="31.776872"><ele>806.009368</ele><time>2023-02-23T21:34:08Z</time><extensions><speed>0.816127</speed><course>174.966598</course><hAcc>2.600137</hAcc><vAcc>1.519307</vAcc></extensions></trkpt>
      <trkpt lon="35.216571" lat="31.776864"><ele>806.020678</ele><time>2023-02-23T21:34:09Z</time><extensions><speed>0.935160</speed><course>177.770600</course><hAcc>2.206582</hAcc><vAcc>1.329505</vAcc></extensions></trkpt>
      <trkpt lon="35.216571" lat="31.776855"><ele>806.033836</ele><time>2023-02-23T21:34:10Z</time><extensions><speed>0.953259</speed><course>176.913463</course><hAcc>1.990679</hAcc><vAcc>1.180353</vAcc></extensions></trkpt>
      <trkpt lon="35.216572" lat="31.776847"><ele>806.047934</ele><time>2023-02-23T21:34:11Z</time><extensions><speed>0.868067</speed><course>171.717708</course><hAcc>1.871483</hAcc><vAcc>1.066046</vAcc></extensions></trkpt>
      <trkpt lon="35.216574" lat="31.776840"><ele>806.065662</ele><time>2023-02-23T21:34:12Z</time><extensions><speed>0.726573</speed><course>163.672113</course><hAcc>1.808611</hAcc><vAcc>0.981042</vAcc></extensions></trkpt>
      <trkpt lon="35.216577" lat="31.776835"><ele>806.091214</ele><time>2023-02-23T21:34:13Z</time><extensions><speed>0.669934</speed><course>149.674865</course><hAcc>1.778492</hAcc><vAcc>0.919886</vAcc></extensions></trkpt>
      <trkpt lon="35.216581" lat="31.776830"><ele>806.119006</ele><time>2023-02-23T21:34:14Z</time><extensions><speed>0.554760</speed><course>138.306148</course><hAcc>1.762434</hAcc><vAcc>0.877351</vAcc></extensions></trkpt>
      <trkpt lon="35.216584" lat="31.776827"><ele>806.143094</ele><time>2023-02-23T21:34:15Z</time><extensions><speed>0.355264</speed><course>124.070173</course><hAcc>1.766255</hAcc><vAcc>0.848691</vAcc></extensions></trkpt>
      <trkpt lon="35.216586" lat="31.776826"><ele>806.166796</ele><time>2023-02-23T21:34:16Z</time><extensions><speed>0.131643</speed><course>93.782013</course><hAcc>1.801867</hAcc><vAcc>0.829852</vAcc></extensions></trkpt>
      <trkpt lon="35.216588" lat="31.776827"><ele>806.184031</ele><time>2023-02-23T21:34:17Z</time><extensions><speed>0.132870</speed><course>62.382878</course><hAcc>1.773544</hAcc><vAcc>0.817793</vAcc></extensions></trkpt>
      <trkpt lon="35.216589" lat="31.776827"><ele>806.196596</ele><time>2023-02-23T21:34:18Z</time><extensions><speed>0.146084</speed><course>57.005132</course><hAcc>1.763236</hAcc><vAcc>0.810181</vAcc></extensions></trkpt>
      <trkpt lon="35.216590" lat="31.776828"><ele>806.199597</ele><time>2023-02-23T21:34:19Z</time><extensions><speed>0.169523</speed><course>62.515962</course><hAcc>1.775207</hAcc><vAcc>0.805408</vAcc></extensions></trkpt>
      <trkpt lon="35.216592" lat="31.776829"><ele>806.207355</ele><time>2023-02-23T21:34:20Z</time><extensions><speed>0.210665</speed><course>70.640577</course><hAcc>1.791959</hAcc><vAcc>0.802318</vAcc></extensions></trkpt>
      <trkpt lon="35.216595" lat="31.776829"><ele>806.200142</ele><time>2023-02-23T21:34:21Z</time><extensions><speed>0.268278</speed><course>77.862794</course><hAcc>1.804902</hAcc><vAcc>0.800169</vAcc></extensions></trkpt>
      <trkpt lon="35.216598" lat="31.776830"><ele>806.187069</ele><time>2023-02-23T21:34:22Z</time><extensions><speed>0.331616</speed><course>84.273112</course><hAcc>1.807719</hAcc><vAcc>0.798674</vAcc></extensions></trkpt>
      <trkpt lon="35.216602" lat="31.776830"><ele>806.169484</ele><time>2023-02-23T21:34:23Z</time><extensions><speed>0.407984</speed><course>90.496791</course><hAcc>1.803202</hAcc><vAcc>0.797690</vAcc></extensions></trkpt>
      <trkpt lon="35.216606" lat="31.776830"><ele>806.154063</ele><time>2023-02-23T21:34:24Z</time><extensions><speed>0.378767</speed><course>90.678623</course><hAcc>1.814964</hAcc><vAcc>0.797149</vAcc></extensions></trkpt>
      <trkpt lon="35.216611" lat="31.776829"><ele>806.139988</ele><time>2023-02-23T21:34:25Z</time><extensions><speed>0.525954</speed><course>95.014321</course><hAcc>1.813241</hAcc><vAcc>0.797022</vAcc></extensions></trkpt>
      <trkpt lon="35.216618" lat="31.776828"><ele>806.127171</ele><time>2023-02-23T21:34:26Z</time><extensions><speed>0.783577</speed><course>99.155298</course><hAcc>1.798309</hAcc><vAcc>0.797329</vAcc></extensions></trkpt>
      <trkpt lon="35.216628" lat="31.776827"><ele>806.118857</ele><time>2023-02-23T21:34:27Z</time><extensions><speed>1.130047</speed><course>103.190354</course><hAcc>1.782547</hAcc><vAcc>0.798077</vAcc></extensions></trkpt>
      <trkpt lon="35.216640" lat="31.776824"><ele>806.117855</ele><time>2023-02-23T21:34:28Z</time><extensions><speed>1.280737</speed><course>108.119008</course><hAcc>1.787944</hAcc><vAcc>0.799237</vAcc></extensions></trkpt>
      <trkpt lon="35.216653" lat="31.776819"><ele>806.113382</ele><time>2023-02-23T21:34:29Z</time><extensions><speed>1.371921</speed><course>114.086005</course><hAcc>1.786168</hAcc><vAcc>0.800757</vAcc></extensions></trkpt>
      <trkpt lon="35.216667" lat="31.776813"><ele>806.116179</ele><time>2023-02-23T21:34:30Z</time><extensions><speed>1.565523</speed><course>123.867646</course><hAcc>1.765153</hAcc><vAcc>0.802558</vAcc></extensions></trkpt>
      <trkpt lon="35.216680" lat="31.776803"><ele>806.128523</ele><time>2023-02-23T21:34:31Z</time><extensions><speed>1.751211</speed><course>133.360543</course><hAcc>1.744573</hAcc><vAcc>0.804591</vAcc></extensions></trkpt>
      <trkpt lon="35.216693" lat="31.776792"><ele>806.148438</ele><time>2023-02-23T21:34:32Z</time><extensions><speed>1.750727</speed><course>141.477534</course><hAcc>1.735298</hAcc><vAcc>0.806805</vAcc></extensions></trkpt>
      <trkpt lon="35.216703" lat="31.776779"><ele>806.166661</ele><time>2023-02-23T21:34:33Z</time><extensions><speed>1.685786</speed><course>148.050316</course><hAcc>1.727466</hAcc><vAcc>0.809082</vAcc></extensions></trkpt>
      <trkpt lon="35.216712" lat="31.776766"><ele>806.175886</ele><time>2023-02-23T21:34:34Z</time><extensions><speed>1.678800</speed><course>152.698258</course><hAcc>1.717812</hAcc><vAcc>0.811346</vAcc></extensions></trkpt>
      <trkpt lon="35.216719" lat="31.776752"><ele>806.182760</ele><time>2023-02-23T21:34:35Z</time><extensions><speed>1.645899</speed><course>157.063890</course><hAcc>1.715872</hAcc><vAcc>0.813500</vAcc></extensions></trkpt>
      <trkpt lon="35.216725" lat="31.776738"><ele>806.181158</ele><time>2023-02-23T21:34:36Z</time><extensions><speed>1.669948</speed><course>161.426385</course><hAcc>1.704720</hAcc><vAcc>0.815502</vAcc></extensions></trkpt>
      <trkpt lon="35.216730" lat="31.776724"><ele>806.182693</ele><time>2023-02-23T21:34:37Z</time><extensions><speed>1.598244</speed><course>165.417668</course><hAcc>1.696683</hAcc><vAcc>0.817330</vAcc></extensions></trkpt>
      <trkpt lon="35.216734" lat="31.776710"><ele>806.175283</ele><time>2023-02-23T21:34:38Z</time><extensions><speed>1.520725</speed><course>167.082798</course><hAcc>1.691177</hAcc><vAcc>0.818987</vAcc></extensions></trkpt>
      <trkpt lon="35.216737" lat="31.776697"><ele>806.140724</ele><time>2023-02-23T21:34:39Z</time><extensions><speed>1.447658</speed><course>169.710512</course><hAcc>1.684739</hAcc><vAcc>0.820486</vAcc></extensions></trkpt>
      <trkpt lon="35.216739" lat="31.776684"><ele>806.119449</ele><time>2023-02-23T21:34:40Z</time><extensions><speed>1.448334</speed><course>170.694006</course><hAcc>1.682324</hAcc><vAcc>0.821784</vAcc></extensions></trkpt>
      <trkpt lon="35.216741" lat="31.776672"><ele>806.101392</ele><time>2023-02-23T21:34:41Z</time><extensions><speed>1.308444</speed><course>169.095585</course><hAcc>1.681119</hAcc><vAcc>0.822869</vAcc></extensions></trkpt>
      <trkpt lon="35.216743" lat="31.776661"><ele>806.063230</ele><time>2023-02-23T21:34:42Z</time><extensions><speed>1.226427</speed><course>172.991431</course><hAcc>1.663916</hAcc><vAcc>0.823756</vAcc></extensions></trkpt>
      <trkpt lon="35.216742" lat="31.776650"><ele>806.019267</ele><time>2023-02-23T21:34:43Z</time><extensions><speed>1.194389</speed><course>183.509795</course><hAcc>1.642043</hAcc><vAcc>0.824450</vAcc></extensions></trkpt>
      <trkpt lon="35.216739" lat="31.776639"><ele>805.966520</ele><time>2023-02-23T21:34:44Z</time><extensions><speed>1.285376</speed><course>194.408075</course><hAcc>1.609553</hAcc><vAcc>0.824954</vAcc></extensions></trkpt>
      <trkpt lon="35.216735" lat="31.776627"><ele>805.911744</ele><time>2023-02-23T21:34:45Z</time><extensions><speed>1.408585</speed><course>195.212413</course><hAcc>1.551117</hAcc><vAcc>0.825307</vAcc></extensions></trkpt>
      <trkpt lon="35.216731" lat="31.776615"><ele>805.856624</ele><time>2023-02-23T21:34:46Z</time><extensions><speed>1.463117</speed><course>188.705886</course><hAcc>1.501363</hAcc><vAcc>0.825506</vAcc></extensions></trkpt>
      <trkpt lon="35.216730" lat="31.776602"><ele>805.802439</ele><time>2023-02-23T21:34:47Z</time><extensions><speed>1.525227</speed><course>172.951006</course><hAcc>1.496065</hAcc><vAcc>0.825582</vAcc></extensions></trkpt>
      <trkpt lon="35.216733" lat="31.776589"><ele>805.743244</ele><time>2023-02-23T21:34:48Z</time><extensions><speed>1.563007</speed><course>167.114458</course><hAcc>1.480250</hAcc><vAcc>0.825519</vAcc></extensions></trkpt>
      <trkpt lon="35.216735" lat="31.776575"><ele>805.687395</ele><time>2023-02-23T21:34:49Z</time><extensions><speed>1.515332</speed><course>169.155826</course><hAcc>1.447549</hAcc><vAcc>0.825331</vAcc></extensions></trkpt>
      <trkpt lon="35.216738" lat="31.776562"><ele>805.631113</ele><time>2023-02-23T21:34:50Z</time><extensions><speed>1.573064</speed><course>169.143968</course><hAcc>1.420027</hAcc><vAcc>0.825081</vAcc></extensions></trkpt>
      <trkpt lon="35.216741" lat="31.776548"><ele>805.571697</ele><time>2023-02-23T21:34:51Z</time><extensions><speed>1.569612</speed><course>170.374944</course><hAcc>1.401418</hAcc><vAcc>0.824732</vAcc></extensions></trkpt>
      <trkpt lon="35.216743" lat="31.776534"><ele>805.525046</ele><time>2023-02-23T21:34:52Z</time><extensions><speed>1.561825</speed><course>171.086890</course><hAcc>1.388815</hAcc><vAcc>0.824308</vAcc></extensions></trkpt>
      <trkpt lon="35.216745" lat="31.776520"><ele>805.490842</ele><time>2023-02-23T21:34:53Z</time><extensions><speed>1.612258</speed><course>172.594319</course><hAcc>1.383255</hAcc><vAcc>0.823833</vAcc></extensions></trkpt>
      <trkpt lon="35.216747" lat="31.776507"><ele>805.448177</ele><time>2023-02-23T21:34:54Z</time><extensions><speed>1.542717</speed><course>172.812166</course><hAcc>1.369791</hAcc><vAcc>0.823344</vAcc></extensions></trkpt>
      <trkpt lon="35.216749" lat="31.776493"><ele>805.415263</ele><time>2023-02-23T21:34:55Z</time><extensions><speed>1.588854</speed><course>166.681597</course><hAcc>1.373918</hAcc><vAcc>0.822889</vAcc></extensions></trkpt>
      <trkpt lon="35.216754" lat="31.776479"><ele>805.391723</ele><time>2023-02-23T21:34:56Z</time><extensions><speed>1.577602</speed><course>159.131476</course><hAcc>1.369549</hAcc><vAcc>0.822527</vAcc></extensions></trkpt>
      <trkpt lon="35.216766" lat="31.776479"><ele>805.201607</ele><time>2023-02-23T21:34:57Z</time><extensions><speed>1.485192</speed><course>146.965405</course><hAcc>1.368653</hAcc><vAcc>0.820514</vAcc></extensions></trkpt>
      <trkpt lon="35.216773" lat="31.776466"><ele>805.166837</ele><time>2023-02-23T21:34:58Z</time><extensions><speed>1.508942</speed><course>146.825883</course><hAcc>1.367109</hAcc><vAcc>0.818078</vAcc></extensions></trkpt>
      <trkpt lon="35.216781" lat="31.776453"><ele>805.126752</ele><time>2023-02-23T21:34:59Z</time><extensions><speed>1.500282</speed><course>143.664187</course><hAcc>1.364960</hAcc><vAcc>0.815480</vAcc></extensions></trkpt>
      <trkpt lon="35.216789" lat="31.776442"><ele>805.097205</ele><time>2023-02-23T21:35:00Z</time><extensions><speed>1.428359</speed><course>137.346669</course><hAcc>1.361769</hAcc><vAcc>0.812746</vAcc></extensions></trkpt>
      <trkpt lon="35.216799" lat="31.776431"><ele>805.062798</ele><time>2023-02-23T21:35:01Z</time><extensions><speed>1.472654</speed><course>134.912107</course><hAcc>1.363160</hAcc><vAcc>0.809937</vAcc></extensions></trkpt>
      <trkpt lon="35.216809" lat="31.776421"><ele>805.023109</ele><time>2023-02-23T21:35:02Z</time><extensions><speed>1.444435</speed><course>130.521609</course><hAcc>1.359175</hAcc><vAcc>0.807141</vAcc></extensions></trkpt>
      <trkpt lon="35.216820" lat="31.776413"><ele>804.991747</ele><time>2023-02-23T21:35:03Z</time><extensions><speed>1.367169</speed><course>123.732707</course><hAcc>1.350626</hAcc><vAcc>0.804515</vAcc></extensions></trkpt>
      <trkpt lon="35.216831" lat="31.776406"><ele>804.958393</ele><time>2023-02-23T21:35:04Z</time><extensions><speed>1.337660</speed><course>121.365753</course><hAcc>1.343174</hAcc><vAcc>0.802240</vAcc></extensions></trkpt>
      <trkpt lon="35.216843" lat="31.776399"><ele>804.930737</ele><time>2023-02-23T21:35:05Z</time><extensions><speed>1.368990</speed><course>119.657345</course><hAcc>1.333065</hAcc><vAcc>0.800558</vAcc></extensions></trkpt>
      <trkpt lon="35.216854" lat="31.776392"><ele>804.908432</ele><time>2023-02-23T21:35:06Z</time><extensions><speed>1.398664</speed><course>126.812849</course><hAcc>1.323667</hAcc><vAcc>0.799756</vAcc></extensions></trkpt>
      <trkpt lon="35.216864" lat="31.776381"><ele>804.890308</ele><time>2023-02-23T21:35:07Z</time><extensions><speed>1.585934</speed><course>148.566552</course><hAcc>1.319530</hAcc><vAcc>0.800158</vAcc></extensions></trkpt>
      <trkpt lon="35.216863" lat="31.776381"><ele>804.889004</ele><time>2023-02-23T21:35:07Z</time><extensions><speed>1.584292</speed><course>148.961426</course><hAcc>1.312622</hAcc><vAcc>0.793568</vAcc></extensions></trkpt>
      <trkpt lon="35.216870" lat="31.776367"><ele>804.877263</ele><time>2023-02-23T21:35:08Z</time><extensions><speed>1.932482</speed><course>162.792692</course><hAcc>1.315944</hAcc><vAcc>0.795049</vAcc></extensions></trkpt>
      <trkpt lon="35.216876" lat="31.776350"><ele>804.861426</ele><time>2023-02-23T21:35:09Z</time><extensions><speed>1.963956</speed><course>163.639914</course><hAcc>1.321010</hAcc><vAcc>0.797645</vAcc></extensions></trkpt>
      <trkpt lon="35.216881" lat="31.776333"><ele>804.845151</ele><time>2023-02-23T21:35:10Z</time><extensions><speed>1.903101</speed><course>162.755575</course><hAcc>1.328921</hAcc><vAcc>0.800972</vAcc></extensions></trkpt>
      <trkpt lon="35.216887" lat="31.776317"><ele>804.827335</ele><time>2023-02-23T21:35:11Z</time><extensions><speed>1.838335</speed><course>161.307552</course><hAcc>1.330889</hAcc><vAcc>0.804666</vAcc></extensions></trkpt>
      <trkpt lon="35.216893" lat="31.776302"><ele>804.807543</ele><time>2023-02-23T21:35:12Z</time><extensions><speed>1.799420</speed><course>159.542624</course><hAcc>1.342471</hAcc><vAcc>0.808442</vAcc></extensions></trkpt>
      <trkpt lon="35.216899" lat="31.776287"><ele>804.779223</ele><time>2023-02-23T21:35:13Z</time><extensions><speed>1.758693</speed><course>158.161512</course><hAcc>1.344076</hAcc><vAcc>0.812076</vAcc></extensions></trkpt>
      <trkpt lon="35.216905" lat="31.776273"><ele>804.749486</ele><time>2023-02-23T21:35:14Z</time><extensions><speed>1.721715</speed><course>155.167962</course><hAcc>1.343716</hAcc><vAcc>0.815436</vAcc></extensions></trkpt>
      <trkpt lon="35.216913" lat="31.776259"><ele>804.712743</ele><time>2023-02-23T21:35:15Z</time><extensions><speed>1.673873</speed><course>152.903514</course><hAcc>1.342845</hAcc><vAcc>0.818427</vAcc></extensions></trkpt>
      <trkpt lon="35.216920" lat="31.776246"><ele>804.677372</ele><time>2023-02-23T21:35:16Z</time><extensions><speed>1.649665</speed><course>151.199947</course><hAcc>1.346750</hAcc><vAcc>0.821038</vAcc></extensions></trkpt>
      <trkpt lon="35.216928" lat="31.776233"><ele>804.641786</ele><time>2023-02-23T21:35:17Z</time><extensions><speed>1.625336</speed><course>149.669269</course><hAcc>1.346775</hAcc><vAcc>0.823285</vAcc></extensions></trkpt>
      <trkpt lon="35.216936" lat="31.776221"><ele>804.602154</ele><time>2023-02-23T21:35:18Z</time><extensions><speed>1.560305</speed><course>150.856896</course><hAcc>1.338403</hAcc><vAcc>0.825140</vAcc></extensions></trkpt>
      <trkpt lon="35.216943" lat="31.776208"><ele>804.550762</ele><time>2023-02-23T21:35:19Z</time><extensions><speed>1.590684</speed><course>151.685710</course><hAcc>1.342313</hAcc><vAcc>0.826677</vAcc></extensions></trkpt>
      <trkpt lon="35.216951" lat="31.776196"><ele>804.491973</ele><time>2023-02-23T21:35:20Z</time><extensions><speed>1.611132</speed><course>152.157799</course><hAcc>1.344351</hAcc><vAcc>0.827895</vAcc></extensions></trkpt>
      <trkpt lon="35.216958" lat="31.776183"><ele>804.438280</ele><time>2023-02-23T21:35:21Z</time><extensions><speed>1.594932</speed><course>153.781182</course><hAcc>1.340657</hAcc><vAcc>0.828851</vAcc></extensions></trkpt>
      <trkpt lon="35.216965" lat="31.776170"><ele>804.389184</ele><time>2023-02-23T21:35:22Z</time><extensions><speed>1.575915</speed><course>153.991559</course><hAcc>1.339602</hAcc><vAcc>0.829575</vAcc></extensions></trkpt>
      <trkpt lon="35.216972" lat="31.776158"><ele>804.326509</ele><time>2023-02-23T21:35:23Z</time><extensions><speed>1.581329</speed><course>153.304094</course><hAcc>1.341332</hAcc><vAcc>0.830105</vAcc></extensions></trkpt>
      <trkpt lon="35.216979" lat="31.776145"><ele>804.254837</ele><time>2023-02-23T21:35:24Z</time><extensions><speed>1.587390</speed><course>152.834158</course><hAcc>1.342936</hAcc><vAcc>0.830453</vAcc></extensions></trkpt>
      <trkpt lon="35.216987" lat="31.776132"><ele>804.183772</ele><time>2023-02-23T21:35:25Z</time><extensions><speed>1.595881</speed><course>151.334753</course><hAcc>1.343194</hAcc><vAcc>0.830636</vAcc></extensions></trkpt>
      <trkpt lon="35.216995" lat="31.776120"><ele>804.120417</ele><time>2023-02-23T21:35:26Z</time><extensions><speed>1.588994</speed><course>157.208526</course><hAcc>1.336899</hAcc><vAcc>0.830728</vAcc></extensions></trkpt>
      <trkpt lon="35.217001" lat="31.776106"><ele>804.040678</ele><time>2023-02-23T21:35:27Z</time><extensions><speed>1.614526</speed><course>158.164840</course><hAcc>1.338233</hAcc><vAcc>0.830720</vAcc></extensions></trkpt>
      <trkpt lon="35.217008" lat="31.776093"><ele>803.965598</ele><time>2023-02-23T21:35:28Z</time><extensions><speed>1.658701</speed><course>156.954011</course><hAcc>1.343647</hAcc><vAcc>0.830660</vAcc></extensions></trkpt>
      <trkpt lon="35.217014" lat="31.776079"><ele>803.883434</ele><time>2023-02-23T21:35:29Z</time><extensions><speed>1.667117</speed><course>155.019365</course><hAcc>1.345709</hAcc><vAcc>0.830563</vAcc></extensions></trkpt>
      <trkpt lon="35.217021" lat="31.776065"><ele>803.787040</ele><time>2023-02-23T21:35:30Z</time><extensions><speed>1.663213</speed><course>155.701169</course><hAcc>1.343666</hAcc><vAcc>0.830433</vAcc></extensions></trkpt>
      <trkpt lon="35.217029" lat="31.776052"><ele>803.684556</ele><time>2023-02-23T21:35:31Z</time><extensions><speed>1.644958</speed><course>153.505848</course><hAcc>1.343015</hAcc><vAcc>0.830298</vAcc></extensions></trkpt>
      <trkpt lon="35.217036" lat="31.776039"><ele>803.577913</ele><time>2023-02-23T21:35:32Z</time><extensions><speed>1.647278</speed><course>154.846354</course><hAcc>1.345746</hAcc><vAcc>0.830183</vAcc></extensions></trkpt>
      <trkpt lon="35.217044" lat="31.776026"><ele>803.473996</ele><time>2023-02-23T21:35:33Z</time><extensions><speed>1.674907</speed><course>156.365974</course><hAcc>1.346930</hAcc><vAcc>0.830093</vAcc></extensions></trkpt>
      <trkpt lon="35.217051" lat="31.776012"><ele>803.358195</ele><time>2023-02-23T21:35:34Z</time><extensions><speed>1.664260</speed><course>154.016402</course><hAcc>1.349146</hAcc><vAcc>0.830015</vAcc></extensions></trkpt>
      <trkpt lon="35.217059" lat="31.775999"><ele>803.239136</ele><time>2023-02-23T21:35:35Z</time><extensions><speed>1.676369</speed><course>153.868713</course><hAcc>1.352104</hAcc><vAcc>0.829915</vAcc></extensions></trkpt>
      <trkpt lon="35.217068" lat="31.775987"><ele>803.116351</ele><time>2023-02-23T21:35:36Z</time><extensions><speed>1.643382</speed><course>141.504381</course><hAcc>1.349608</hAcc><vAcc>0.829766</vAcc></extensions></trkpt>
      <trkpt lon="35.217079" lat="31.775975"><ele>802.983087</ele><time>2023-02-23T21:35:37Z</time><extensions><speed>1.667633</speed><course>142.567844</course><hAcc>1.356551</hAcc><vAcc>0.829554</vAcc></extensions></trkpt>
      <trkpt lon="35.217089" lat="31.775963"><ele>802.861082</ele><time>2023-02-23T21:35:38Z</time><extensions><speed>1.638336</speed><course>146.321936</course><hAcc>1.354180</hAcc><vAcc>0.829273</vAcc></extensions></trkpt>
      <trkpt lon="35.217097" lat="31.775951"><ele>802.743047</ele><time>2023-02-23T21:35:39Z</time><extensions><speed>1.634234</speed><course>155.481962</course><hAcc>1.356589</hAcc><vAcc>0.828881</vAcc></extensions></trkpt>
      <trkpt lon="35.217103" lat="31.775937"><ele>802.620862</ele><time>2023-02-23T21:35:40Z</time><extensions><speed>1.599281</speed><course>160.744083</course><hAcc>1.351273</hAcc><vAcc>0.828362</vAcc></extensions></trkpt>
      <trkpt lon="35.217109" lat="31.775924"><ele>802.514580</ele><time>2023-02-23T21:35:41Z</time><extensions><speed>1.606077</speed><course>155.497565</course><hAcc>1.352938</hAcc><vAcc>0.827744</vAcc></extensions></trkpt>
      <trkpt lon="35.217117" lat="31.775912"><ele>802.408971</ele><time>2023-02-23T21:35:42Z</time><extensions><speed>1.629146</speed><course>144.967364</course><hAcc>1.357188</hAcc><vAcc>0.826951</vAcc></extensions></trkpt>
      <trkpt lon="35.217128" lat="31.775900"><ele>802.311636</ele><time>2023-02-23T21:35:43Z</time><extensions><speed>1.650261</speed><course>137.534899</course><hAcc>1.357051</hAcc><vAcc>0.826052</vAcc></extensions></trkpt>
      <trkpt lon="35.217139" lat="31.775889"><ele>802.209704</ele><time>2023-02-23T21:35:44Z</time><extensions><speed>1.620979</speed><course>138.265539</course><hAcc>1.357758</hAcc><vAcc>0.824994</vAcc></extensions></trkpt>
      <trkpt lon="35.217150" lat="31.775878"><ele>802.113457</ele><time>2023-02-23T21:35:45Z</time><extensions><speed>1.606126</speed><course>140.807542</course><hAcc>1.353715</hAcc><vAcc>0.823764</vAcc></extensions></trkpt>
      <trkpt lon="35.217160" lat="31.775867"><ele>802.033781</ele><time>2023-02-23T21:35:46Z</time><extensions><speed>1.636369</speed><course>139.831533</course><hAcc>1.363489</hAcc><vAcc>0.822424</vAcc></extensions></trkpt>
      <trkpt lon="35.217172" lat="31.775857"><ele>801.956869</ele><time>2023-02-23T21:35:47Z</time><extensions><speed>1.641954</speed><course>135.801702</course><hAcc>1.370065</hAcc><vAcc>0.820979</vAcc></extensions></trkpt>
      <trkpt lon="35.217184" lat="31.775846"><ele>801.886690</ele><time>2023-02-23T21:35:48Z</time><extensions><speed>1.646340</speed><course>135.350125</course><hAcc>1.378179</hAcc><vAcc>0.819499</vAcc></extensions></trkpt>
      <trkpt lon="35.217195" lat="31.775836"><ele>801.831386</ele><time>2023-02-23T21:35:49Z</time><extensions><speed>1.624912</speed><course>138.156463</course><hAcc>1.383216</hAcc><vAcc>0.818019</vAcc></extensions></trkpt>
      <trkpt lon="35.217205" lat="31.775824"><ele>801.774448</ele><time>2023-02-23T21:35:50Z</time><extensions><speed>1.579154</speed><course>146.827626</course><hAcc>1.383368</hAcc><vAcc>0.816563</vAcc></extensions></trkpt>
      <trkpt lon="35.217212" lat="31.775812"><ele>801.725850</ele><time>2023-02-23T21:35:51Z</time><extensions><speed>1.618629</speed><course>159.279767</course><hAcc>1.390465</hAcc><vAcc>0.815152</vAcc></extensions></trkpt>
      <trkpt lon="35.217218" lat="31.775798"><ele>801.678484</ele><time>2023-02-23T21:35:52Z</time><extensions><speed>1.641608</speed><course>159.875260</course><hAcc>1.395837</hAcc><vAcc>0.813728</vAcc></extensions></trkpt>
      <trkpt lon="35.217225" lat="31.775785"><ele>801.642676</ele><time>2023-02-23T21:35:53Z</time><extensions><speed>1.649661</speed><course>155.751670</course><hAcc>1.405475</hAcc><vAcc>0.812418</vAcc></extensions></trkpt>
      <trkpt lon="35.217231" lat="31.775771"><ele>801.612505</ele><time>2023-02-23T21:35:54Z</time><extensions><speed>1.625987</speed><course>158.662059</course><hAcc>1.404255</hAcc><vAcc>0.811222</vAcc></extensions></trkpt>
      <trkpt lon="35.217238" lat="31.775758"><ele>801.568164</ele><time>2023-02-23T21:35:55Z</time><extensions><speed>1.608788</speed><course>153.064140</course><hAcc>1.404436</hAcc><vAcc>0.810135</vAcc></extensions></trkpt>
      <trkpt lon="35.217246" lat="31.775746"><ele>801.520395</ele><time>2023-02-23T21:35:56Z</time><extensions><speed>1.567318</speed><course>145.070840</course><hAcc>1.402629</hAcc><vAcc>0.809181</vAcc></extensions></trkpt>
      <trkpt lon="35.217256" lat="31.775735"><ele>801.488209</ele><time>2023-02-23T21:35:57Z</time><extensions><speed>1.580067</speed><course>143.619279</course><hAcc>1.406178</hAcc><vAcc>0.808363</vAcc></extensions></trkpt>
      <trkpt lon="35.217266" lat="31.775724"><ele>801.455235</ele><time>2023-02-23T21:35:58Z</time><extensions><speed>1.573526</speed><course>140.871424</course><hAcc>1.407152</hAcc><vAcc>0.807748</vAcc></extensions></trkpt>
      <trkpt lon="35.217276" lat="31.775713"><ele>801.428778</ele><time>2023-02-23T21:35:59Z</time><extensions><speed>1.604124</speed><course>141.578946</course><hAcc>1.408629</hAcc><vAcc>0.807331</vAcc></extensions></trkpt>
      <trkpt lon="35.217285" lat="31.775701"><ele>801.396897</ele><time>2023-02-23T21:36:00Z</time><extensions><speed>1.625306</speed><course>147.596540</course><hAcc>1.408414</hAcc><vAcc>0.807179</vAcc></extensions></trkpt>
      <trkpt lon="35.217294" lat="31.775690"><ele>801.356362</ele><time>2023-02-23T21:36:01Z</time><extensions><speed>1.593682</speed><course>146.315447</course><hAcc>1.401167</hAcc><vAcc>0.807312</vAcc></extensions></trkpt>
      <trkpt lon="35.217303" lat="31.775678"><ele>801.313845</ele><time>2023-02-23T21:36:02Z</time><extensions><speed>1.525655</speed><course>140.600372</course><hAcc>1.391395</hAcc><vAcc>0.807778</vAcc></extensions></trkpt>
      <trkpt lon="35.217313" lat="31.775669"><ele>801.259423</ele><time>2023-02-23T21:36:03Z</time><extensions><speed>1.501263</speed><course>135.512758</course><hAcc>1.390785</hAcc><vAcc>0.808484</vAcc></extensions></trkpt>
      <trkpt lon="35.217324" lat="31.775659"><ele>801.225034</ele><time>2023-02-23T21:36:04Z</time><extensions><speed>1.554766</speed><course>135.745778</course><hAcc>1.392721</hAcc><vAcc>0.809389</vAcc></extensions></trkpt>
      <trkpt lon="35.217335" lat="31.775649"><ele>801.178823</ele><time>2023-02-23T21:36:05Z</time><extensions><speed>1.567570</speed><course>136.230977</course><hAcc>1.389379</hAcc><vAcc>0.810466</vAcc></extensions></trkpt>
      <trkpt lon="35.217346" lat="31.775639"><ele>801.128807</ele><time>2023-02-23T21:36:06Z</time><extensions><speed>1.549995</speed><course>138.557517</course><hAcc>1.380915</hAcc><vAcc>0.811676</vAcc></extensions></trkpt>
      <trkpt lon="35.217356" lat="31.775629"><ele>801.089359</ele><time>2023-02-23T21:36:07Z</time><extensions><speed>1.553000</speed><course>140.352915</course><hAcc>1.372548</hAcc><vAcc>0.812924</vAcc></extensions></trkpt>
      <trkpt lon="35.217366" lat="31.775618"><ele>801.044930</ele><time>2023-02-23T21:36:08Z</time><extensions><speed>1.542669</speed><course>146.351862</course><hAcc>1.368486</hAcc><vAcc>0.814097</vAcc></extensions></trkpt>
      <trkpt lon="35.217374" lat="31.775607"><ele>801.000209</ele><time>2023-02-23T21:36:09Z</time><extensions><speed>1.507623</speed><course>148.613850</course><hAcc>1.362300</hAcc><vAcc>0.815185</vAcc></extensions></trkpt>
      <trkpt lon="35.217382" lat="31.775595"><ele>800.938103</ele><time>2023-02-23T21:36:10Z</time><extensions><speed>1.516626</speed><course>148.987835</course><hAcc>1.361856</hAcc><vAcc>0.815994</vAcc></extensions></trkpt>
      <trkpt lon="35.217390" lat="31.775584"><ele>800.860617</ele><time>2023-02-23T21:36:11Z</time><extensions><speed>1.519810</speed><course>150.701518</course><hAcc>1.363457</hAcc><vAcc>0.816484</vAcc></extensions></trkpt>
      <trkpt lon="35.217398" lat="31.775571"><ele>800.780988</ele><time>2023-02-23T21:36:12Z</time><extensions><speed>1.559018</speed><course>154.755502</course><hAcc>1.370104</hAcc><vAcc>0.816584</vAcc></extensions></trkpt>
      <trkpt lon="35.217405" lat="31.775559"><ele>800.703753</ele><time>2023-02-23T21:36:13Z</time><extensions><speed>1.547021</speed><course>150.269667</course><hAcc>1.370620</hAcc><vAcc>0.816294</vAcc></extensions></trkpt>
      <trkpt lon="35.217414" lat="31.775548"><ele>800.622303</ele><time>2023-02-23T21:36:14Z</time><extensions><speed>1.499562</speed><course>143.390737</course><hAcc>1.371788</hAcc><vAcc>0.815603</vAcc></extensions></trkpt>
      <trkpt lon="35.217424" lat="31.775537"><ele>800.535038</ele><time>2023-02-23T21:36:15Z</time><extensions><speed>1.578006</speed><course>142.647520</course><hAcc>1.395286</hAcc><vAcc>0.814570</vAcc></extensions></trkpt>
      <trkpt lon="35.217434" lat="31.775526"><ele>800.441624</ele><time>2023-02-23T21:36:16Z</time><extensions><speed>1.609463</speed><course>142.427981</course><hAcc>1.412759</hAcc><vAcc>0.813278</vAcc></extensions></trkpt>
      <trkpt lon="35.217445" lat="31.775514"><ele>800.340125</ele><time>2023-02-23T21:36:17Z</time><extensions><speed>1.573486</speed><course>144.435105</course><hAcc>1.419841</hAcc><vAcc>0.811783</vAcc></extensions></trkpt>
      <trkpt lon="35.217454" lat="31.775503"><ele>800.240872</ele><time>2023-02-23T21:36:18Z</time><extensions><speed>1.539206</speed><course>143.829883</course><hAcc>1.426179</hAcc><vAcc>0.810207</vAcc></extensions></trkpt>
      <trkpt lon="35.217464" lat="31.775493"><ele>800.134482</ele><time>2023-02-23T21:36:19Z</time><extensions><speed>1.525063</speed><course>139.399665</course><hAcc>1.442032</hAcc><vAcc>0.808611</vAcc></extensions></trkpt>
      <trkpt lon="35.217476" lat="31.775482"><ele>800.024205</ele><time>2023-02-23T21:36:20Z</time><extensions><speed>1.597334</speed><course>134.165638</course><hAcc>1.469096</hAcc><vAcc>0.807139</vAcc></extensions></trkpt>
      <trkpt lon="35.217488" lat="31.775473"><ele>799.920725</ele><time>2023-02-23T21:36:21Z</time><extensions><speed>1.579060</speed><course>130.816162</course><hAcc>1.454171</hAcc><vAcc>0.805803</vAcc></extensions></trkpt>
      <trkpt lon="35.217501" lat="31.775464"><ele>799.830512</ele><time>2023-02-23T21:36:22Z</time><extensions><speed>1.610830</speed><course>128.729676</course><hAcc>1.444833</hAcc><vAcc>0.804744</vAcc></extensions></trkpt>
      <trkpt lon="35.217514" lat="31.775454"><ele>799.740326</ele><time>2023-02-23T21:36:23Z</time><extensions><speed>1.665732</speed><course>131.691200</course><hAcc>1.459998</hAcc><vAcc>0.804126</vAcc></extensions></trkpt>
      <trkpt lon="35.217526" lat="31.775444"><ele>799.664530</ele><time>2023-02-23T21:36:24Z</time><extensions><speed>1.670529</speed><course>132.034085</course><hAcc>1.453757</hAcc><vAcc>0.803942</vAcc></extensions></trkpt>
      <trkpt lon="35.217539" lat="31.775434"><ele>799.599685</ele><time>2023-02-23T21:36:25Z</time><extensions><speed>1.681544</speed><course>135.293601</course><hAcc>1.439506</hAcc><vAcc>0.804197</vAcc></extensions></trkpt>
      <trkpt lon="35.217550" lat="31.775423"><ele>799.551252</ele><time>2023-02-23T21:36:26Z</time><extensions><speed>1.668238</speed><course>134.629721</course><hAcc>1.427405</hAcc><vAcc>0.804863</vAcc></extensions></trkpt>
      <trkpt lon="35.217563" lat="31.775414"><ele>799.506255</ele><time>2023-02-23T21:36:27Z</time><extensions><speed>1.638264</speed><course>127.405716</course><hAcc>1.414633</hAcc><vAcc>0.805881</vAcc></extensions></trkpt>
      <trkpt lon="35.217575" lat="31.775405"><ele>799.478735</ele><time>2023-02-23T21:36:28Z</time><extensions><speed>1.585915</speed><course>131.103461</course><hAcc>1.400237</hAcc><vAcc>0.807176</vAcc></extensions></trkpt>
      <trkpt lon="35.217586" lat="31.775395"><ele>799.468547</ele><time>2023-02-23T21:36:29Z</time><extensions><speed>1.605351</speed><course>139.869953</course><hAcc>1.401140</hAcc><vAcc>0.808676</vAcc></extensions></trkpt>
      <trkpt lon="35.217596" lat="31.775384"><ele>799.474268</ele><time>2023-02-23T21:36:30Z</time><extensions><speed>1.599642</speed><course>144.102044</course><hAcc>1.397997</hAcc><vAcc>0.810322</vAcc></extensions></trkpt>
      <trkpt lon="35.217604" lat="31.775373"><ele>799.491803</ele><time>2023-02-23T21:36:31Z</time><extensions><speed>1.571619</speed><course>147.979458</course><hAcc>1.387751</hAcc><vAcc>0.812083</vAcc></extensions></trkpt>
      <trkpt lon="35.217612" lat="31.775361"><ele>799.515431</ele><time>2023-02-23T21:36:32Z</time><extensions><speed>1.469293</speed><course>148.835890</course><hAcc>1.374312</hAcc><vAcc>0.813931</vAcc></extensions></trkpt>
      <trkpt lon="35.217619" lat="31.775351"><ele>799.546752</ele><time>2023-02-23T21:36:33Z</time><extensions><speed>1.466719</speed><course>150.074104</course><hAcc>1.378522</hAcc><vAcc>0.815825</vAcc></extensions></trkpt>
      <trkpt lon="35.217626" lat="31.775340"><ele>799.578652</ele><time>2023-02-23T21:36:34Z</time><extensions><speed>1.426830</speed><course>146.028799</course><hAcc>1.380181</hAcc><vAcc>0.817698</vAcc></extensions></trkpt>
      <trkpt lon="35.217634" lat="31.775331"><ele>799.610491</ele><time>2023-02-23T21:36:35Z</time><extensions><speed>1.332237</speed><course>128.815089</course><hAcc>1.377386</hAcc><vAcc>0.819496</vAcc></extensions></trkpt>
      <trkpt lon="35.217643" lat="31.775324"><ele>799.647249</ele><time>2023-02-23T21:36:36Z</time><extensions><speed>1.139845</speed><course>136.943511</course><hAcc>1.366578</hAcc><vAcc>0.821167</vAcc></extensions></trkpt>
      <trkpt lon="35.217651" lat="31.775318"><ele>799.680005</ele><time>2023-02-23T21:36:37Z</time><extensions><speed>1.006226</speed><course>123.310414</course><hAcc>1.364105</hAcc><vAcc>0.822667</vAcc></extensions></trkpt>
      <trkpt lon="35.217659" lat="31.775314"><ele>799.702823</ele><time>2023-02-23T21:36:38Z</time><extensions><speed>0.976107</speed><course>102.918320</course><hAcc>1.363759</hAcc><vAcc>0.823974</vAcc></extensions></trkpt>
      <trkpt lon="35.217669" lat="31.775314"><ele>799.722175</ele><time>2023-02-23T21:36:39Z</time><extensions><speed>1.052148</speed><course>82.312639</course><hAcc>1.363873</hAcc><vAcc>0.825092</vAcc></extensions></trkpt>
      <trkpt lon="35.217680" lat="31.775317"><ele>799.736595</ele><time>2023-02-23T21:36:40Z</time><extensions><speed>1.243395</speed><course>65.982639</course><hAcc>1.366450</hAcc><vAcc>0.826026</vAcc></extensions></trkpt>
      <trkpt lon="35.217691" lat="31.775323"><ele>799.745353</ele><time>2023-02-23T21:36:41Z</time><extensions><speed>1.306726</speed><course>46.463652</course><hAcc>1.361936</hAcc><vAcc>0.826806</vAcc></extensions></trkpt>
      <trkpt lon="35.217699" lat="31.775332"><ele>799.748117</ele><time>2023-02-23T21:36:42Z</time><extensions><speed>1.435419</speed><course>30.272129</course><hAcc>1.366661</hAcc><vAcc>0.827450</vAcc></extensions></trkpt>
      <trkpt lon="35.217706" lat="31.775345"><ele>799.744992</ele><time>2023-02-23T21:36:43Z</time><extensions><speed>1.588961</speed><course>19.288949</course><hAcc>1.380646</hAcc><vAcc>0.827978</vAcc></extensions></trkpt>
      <trkpt lon="35.217711" lat="31.775358"><ele>799.736422</ele><time>2023-02-23T21:36:44Z</time><extensions><speed>1.575489</speed><course>18.345927</course><hAcc>1.388955</hAcc><vAcc>0.828401</vAcc></extensions></trkpt>
      <trkpt lon="35.217716" lat="31.775371"><ele>799.718050</ele><time>2023-02-23T21:36:45Z</time><extensions><speed>1.535081</speed><course>18.627836</course><hAcc>1.407341</hAcc><vAcc>0.828697</vAcc></extensions></trkpt>
      <trkpt lon="35.217721" lat="31.775384"><ele>799.690698</ele><time>2023-02-23T21:36:46Z</time><extensions><speed>1.476037</speed><course>21.490721</course><hAcc>1.443378</hAcc><vAcc>0.828881</vAcc></extensions></trkpt>
      <trkpt lon="35.217727" lat="31.775394"><ele>799.658801</ele><time>2023-02-23T21:36:47Z</time><extensions><speed>1.134170</speed><course>27.961734</course><hAcc>1.472519</hAcc><vAcc>0.828988</vAcc></extensions></trkpt>
      <trkpt lon="35.217731" lat="31.775401"><ele>799.623533</ele><time>2023-02-23T21:36:48Z</time><extensions><speed>0.480116</speed><course>22.055329</course><hAcc>1.469418</hAcc><vAcc>0.829001</vAcc></extensions></trkpt>
      <trkpt lon="35.217730" lat="31.775403"><ele>799.585889</ele><time>2023-02-23T21:36:49Z</time><extensions><speed>0.232484</speed><course>264.727201</course><hAcc>1.505104</hAcc><vAcc>0.828938</vAcc></extensions></trkpt>
      <trkpt lon="35.217727" lat="31.775401"><ele>799.546728</ele><time>2023-02-23T21:36:50Z</time><extensions><speed>0.430099</speed><course>235.397977</course><hAcc>1.563508</hAcc><vAcc>0.828806</vAcc></extensions></trkpt>
      <trkpt lon="35.217724" lat="31.775399"><ele>799.506758</ele><time>2023-02-23T21:36:51Z</time><extensions><speed>0.498105</speed><course>224.043770</course><hAcc>1.617632</hAcc><vAcc>0.828597</vAcc></extensions></trkpt>
      <trkpt lon="35.217720" lat="31.775395"><ele>799.466588</ele><time>2023-02-23T21:36:52Z</time><extensions><speed>0.512416</speed><course>214.462256</course><hAcc>1.655847</hAcc><vAcc>0.828333</vAcc></extensions></trkpt>
      <trkpt lon="35.217717" lat="31.775391"><ele>799.426751</ele><time>2023-02-23T21:36:53Z</time><extensions><speed>0.570785</speed><course>206.527951</course><hAcc>1.671600</hAcc><vAcc>0.828033</vAcc></extensions></trkpt>
      <trkpt lon="35.217715" lat="31.775386"><ele>799.387758</ele><time>2023-02-23T21:36:54Z</time><extensions><speed>0.587832</speed><course>200.676727</course><hAcc>1.680152</hAcc><vAcc>0.827697</vAcc></extensions></trkpt>
      <trkpt lon="35.217713" lat="31.775380"><ele>799.343314</ele><time>2023-02-23T21:36:55Z</time><extensions><speed>0.691015</speed><course>196.883712</course><hAcc>1.651169</hAcc><vAcc>0.827339</vAcc></extensions></trkpt>
      <trkpt lon="35.217711" lat="31.775375"><ele>799.303726</ele><time>2023-02-23T21:36:56Z</time><extensions><speed>0.595825</speed><course>194.387369</course><hAcc>1.645881</hAcc><vAcc>0.826955</vAcc></extensions></trkpt>
      <trkpt lon="35.217710" lat="31.775371"><ele>799.269489</ele><time>2023-02-23T21:36:57Z</time><extensions><speed>0.378885</speed><course>192.601844</course><hAcc>1.676449</hAcc><vAcc>0.826630</vAcc></extensions></trkpt>
      <trkpt lon="35.217709" lat="31.775368"><ele>799.238031</ele><time>2023-02-23T21:36:58Z</time><extensions><speed>0.243166</speed><course>191.352311</course><hAcc>1.694421</hAcc><vAcc>0.826333</vAcc></extensions></trkpt>
      <trkpt lon="35.217709" lat="31.775366"><ele>799.211051</ele><time>2023-02-23T21:36:59Z</time><extensions><speed>0.184927</speed><course>190.322010</course><hAcc>1.692548</hAcc><vAcc>0.826045</vAcc></extensions></trkpt>
      <trkpt lon="35.217708" lat="31.775364"><ele>799.188620</ele><time>2023-02-23T21:37:00Z</time><extensions><speed>0.153713</speed><course>189.051536</course><hAcc>1.686751</hAcc><vAcc>0.825806</vAcc></extensions></trkpt>
      <trkpt lon="35.217708" lat="31.775363"><ele>799.169698</ele><time>2023-02-23T21:37:01Z</time><extensions><speed>0.129492</speed><course>187.071971</course><hAcc>1.687651</hAcc><vAcc>0.825616</vAcc></extensions></trkpt>
      <trkpt lon="35.217708" lat="31.775362"><ele>799.154241</ele><time>2023-02-23T21:37:02Z</time><extensions><speed>0.098255</speed><course>183.510018</course><hAcc>1.704732</hAcc><vAcc>0.825489</vAcc></extensions></trkpt>
      <trkpt lon="35.217708" lat="31.775361"><ele>799.142169</ele><time>2023-02-23T21:37:03Z</time><extensions><speed>0.071049</speed><course>176.785208</course><hAcc>1.721852</hAcc><vAcc>0.825424</vAcc></extensions></trkpt>
      <trkpt lon="35.217708" lat="31.775361"><ele>799.133366</ele><time>2023-02-23T21:37:04Z</time><extensions><speed>0.053140</speed><course>165.709304</course><hAcc>1.728054</hAcc><vAcc>0.825425</vAcc></extensions></trkpt>
      <trkpt lon="35.217708" lat="31.775360"><ele>799.128731</ele><time>2023-02-23T21:37:05Z</time><extensions><speed>0.043482</speed><course>155.844803</course><hAcc>1.725658</hAcc><vAcc>0.825494</vAcc></extensions></trkpt>
      <trkpt lon="35.217708" lat="31.775360"><ele>799.125260</ele><time>2023-02-23T21:37:06Z</time><extensions><speed>0.043561</speed><course>152.870135</course><hAcc>1.726396</hAcc><vAcc>0.825585</vAcc></extensions></trkpt>
      <trkpt lon="35.217709" lat="31.775360"><ele>799.124564</ele><time>2023-02-23T21:37:07Z</time><extensions><speed>0.044916</speed><course>152.067221</course><hAcc>1.742511</hAcc><vAcc>0.825722</vAcc></extensions></trkpt>
      <trkpt lon="35.217709" lat="31.775359"><ele>799.125809</ele><time>2023-02-23T21:37:08Z</time><extensions><speed>0.045376</speed><course>149.166234</course><hAcc>1.750183</hAcc><vAcc>0.825878</vAcc></extensions></trkpt>
      <trkpt lon="35.217709" lat="31.775359"><ele>799.133118</ele><time>2023-02-23T21:37:09Z</time><extensions><speed>0.049084</speed><course>154.116220</course><hAcc>1.728146</hAcc><vAcc>0.826039</vAcc></extensions></trkpt>
      <trkpt lon="35.217709" lat="31.775359"><ele>799.142228</ele><time>2023-02-23T21:37:10Z</time><extensions><speed>0.037924</speed><course>179.238145</course><hAcc>1.722857</hAcc><vAcc>0.826189</vAcc></extensions></trkpt>
      <trkpt lon="35.217709" lat="31.775358"><ele>799.152731</ele><time>2023-02-23T21:37:11Z</time><extensions><speed>0.043932</speed><course>234.069331</course><hAcc>1.730652</hAcc><vAcc>0.826323</vAcc></extensions></trkpt>
      <trkpt lon="35.217708" lat="31.775358"><ele>799.164284</ele><time>2023-02-23T21:37:12Z</time><extensions><speed>0.082162</speed><course>260.847991</course><hAcc>1.739276</hAcc><vAcc>0.826437</vAcc></extensions></trkpt>
      <trkpt lon="35.217707" lat="31.775358"><ele>799.176597</ele><time>2023-02-23T21:37:13Z</time><extensions><speed>0.133888</speed><course>268.820279</course><hAcc>1.743783</hAcc><vAcc>0.826554</vAcc></extensions></trkpt>
      <trkpt lon="35.217705" lat="31.775358"><ele>799.189443</ele><time>2023-02-23T21:37:14Z</time><extensions><speed>0.185544</speed><course>270.840086</course><hAcc>1.747899</hAcc><vAcc>0.826653</vAcc></extensions></trkpt>
      <trkpt lon="35.217703" lat="31.775358"><ele>799.202620</ele><time>2023-02-23T21:37:15Z</time><extensions><speed>0.218122</speed><course>269.627354</course><hAcc>1.751004</hAcc><vAcc>0.826741</vAcc></extensions></trkpt>
      <trkpt lon="35.217701" lat="31.775358"><ele>799.215955</ele><time>2023-02-23T21:37:16Z</time><extensions><speed>0.238815</speed><course>266.857229</course><hAcc>1.746006</hAcc><vAcc>0.826833</vAcc></extensions></trkpt>
      <trkpt lon="35.217698" lat="31.775358"><ele>799.236319</ele><time>2023-02-23T21:37:17Z</time><extensions><speed>0.235236</speed><course>263.895745</course><hAcc>1.745034</hAcc><vAcc>0.826928</vAcc></extensions></trkpt>
      <trkpt lon="35.217696" lat="31.775358"><ele>799.257704</ele><time>2023-02-23T21:37:18Z</time><extensions><speed>0.215810</speed><course>261.533862</course><hAcc>1.745749</hAcc><vAcc>0.826996</vAcc></extensions></trkpt>
      <trkpt lon="35.217694" lat="31.775357"><ele>799.267929</ele><time>2023-02-23T21:37:19Z</time><extensions><speed>0.185532</speed><course>259.498460</course><hAcc>1.743586</hAcc><vAcc>0.827049</vAcc></extensions></trkpt>
      <trkpt lon="35.217692" lat="31.775357"><ele>799.276000</ele><time>2023-02-23T21:37:20Z</time><extensions><speed>0.145772</speed><course>257.195239</course><hAcc>1.738727</hAcc><vAcc>0.827091</vAcc></extensions></trkpt>
      <trkpt lon="35.217691" lat="31.775357"><ele>799.295674</ele><time>2023-02-23T21:37:21Z</time><extensions><speed>0.109199</speed><course>253.957694</course><hAcc>1.732290</hAcc><vAcc>0.827129</vAcc></extensions></trkpt>
      <trkpt lon="35.217690" lat="31.775356"><ele>799.306888</ele><time>2023-02-23T21:37:22Z</time><extensions><speed>0.079701</speed><course>248.780581</course><hAcc>1.726269</hAcc><vAcc>0.827169</vAcc></extensions></trkpt>
      <trkpt lon="35.217689" lat="31.775356"><ele>799.306507</ele><time>2023-02-23T21:37:23Z</time><extensions><speed>0.056064</speed><course>240.201901</course><hAcc>1.721997</hAcc><vAcc>0.827193</vAcc></extensions></trkpt>
      <trkpt lon="35.217689" lat="31.775356"><ele>799.289726</ele><time>2023-02-23T21:37:24Z</time><extensions><speed>0.032808</speed><course>221.324964</course><hAcc>1.721763</hAcc><vAcc>0.827231</vAcc></extensions></trkpt>
      <trkpt lon="35.217689" lat="31.775356"><ele>799.274251</ele><time>2023-02-23T21:37:25Z</time><extensions><speed>0.022178</speed><course>130.362671</course><hAcc>1.718980</hAcc><vAcc>0.827254</vAcc></extensions></trkpt>
      <trkpt lon="35.217690" lat="31.775356"><ele>799.250649</ele><time>2023-02-23T21:37:26Z</time><extensions><speed>0.090679</speed><course>79.731898</course><hAcc>1.714502</hAcc><vAcc>0.827270</vAcc></extensions></trkpt>
      <trkpt lon="35.217691" lat="31.775356"><ele>799.223419</ele><time>2023-02-23T21:37:27Z</time><extensions><speed>0.259799</speed><course>67.820029</course><hAcc>1.706562</hAcc><vAcc>0.827281</vAcc></extensions></trkpt>
      <trkpt lon="35.217696" lat="31.775358"><ele>799.196806</ele><time>2023-02-23T21:37:28Z</time><extensions><speed>0.591273</speed><course>64.645490</course><hAcc>1.694245</hAcc><vAcc>0.827283</vAcc></extensions></trkpt>
      <trkpt lon="35.217704" lat="31.775361"><ele>799.167578</ele><time>2023-02-23T21:37:29Z</time><extensions><speed>1.100489</speed><course>64.766706</course><hAcc>1.696134</hAcc><vAcc>0.827272</vAcc></extensions></trkpt>
      <trkpt lon="35.217716" lat="31.775366"><ele>799.146395</ele><time>2023-02-23T21:37:30Z</time><extensions><speed>1.449396</speed><course>67.842844</course><hAcc>1.695164</hAcc><vAcc>0.827288</vAcc></extensions></trkpt>
      <trkpt lon="35.217731" lat="31.775370"><ele>799.119487</ele><time>2023-02-23T21:37:31Z</time><extensions><speed>1.658464</speed><course>70.321120</course><hAcc>1.686312</hAcc><vAcc>0.827323</vAcc></extensions></trkpt>
      <trkpt lon="35.217749" lat="31.775375"><ele>799.101659</ele><time>2023-02-23T21:37:32Z</time><extensions><speed>1.757190</speed><course>75.360937</course><hAcc>1.676166</hAcc><vAcc>0.827360</vAcc></extensions></trkpt>
      <trkpt lon="35.217767" lat="31.775378"><ele>799.092682</ele><time>2023-02-23T21:37:33Z</time><extensions><speed>1.773669</speed><course>82.100164</course><hAcc>1.669766</hAcc><vAcc>0.827451</vAcc></extensions></trkpt>
      <trkpt lon="35.217785" lat="31.775379"><ele>799.068311</ele><time>2023-02-23T21:37:34Z</time><extensions><speed>1.692573</speed><course>91.521272</course><hAcc>1.676645</hAcc><vAcc>0.827565</vAcc></extensions></trkpt>
      <trkpt lon="35.217803" lat="31.775377"><ele>799.039126</ele><time>2023-02-23T21:37:35Z</time><extensions><speed>1.623408</speed><course>100.903280</course><hAcc>1.679312</hAcc><vAcc>0.827644</vAcc></extensions></trkpt>
      <trkpt lon="35.217818" lat="31.775373"><ele>799.011252</ele><time>2023-02-23T21:37:36Z</time><extensions><speed>1.489292</speed><course>110.852952</course><hAcc>1.681315</hAcc><vAcc>0.827695</vAcc></extensions></trkpt>
      <trkpt lon="35.217832" lat="31.775368"><ele>798.982325</ele><time>2023-02-23T21:37:37Z</time><extensions><speed>1.449837</speed><course>120.032638</course><hAcc>1.675316</hAcc><vAcc>0.827671</vAcc></extensions></trkpt>
      <trkpt lon="35.217846" lat="31.775361"><ele>798.955722</ele><time>2023-02-23T21:37:38Z</time><extensions><speed>1.509966</speed><course>124.726846</course><hAcc>1.680097</hAcc><vAcc>0.827577</vAcc></extensions></trkpt>
      <trkpt lon="35.217859" lat="31.775352"><ele>798.931370</ele><time>2023-02-23T21:37:39Z</time><extensions><speed>1.552319</speed><course>127.015866</course><hAcc>1.691260</hAcc><vAcc>0.827438</vAcc></extensions></trkpt>
      <trkpt lon="35.217871" lat="31.775344"><ele>798.903287</ele><time>2023-02-23T21:37:40Z</time><extensions><speed>1.517420</speed><course>128.908455</course><hAcc>1.704618</hAcc><vAcc>0.827281</vAcc></extensions></trkpt>
      <trkpt lon="35.217884" lat="31.775335"><ele>798.871596</ele><time>2023-02-23T21:37:41Z</time><extensions><speed>1.467649</speed><course>130.167424</course><hAcc>1.715254</hAcc><vAcc>0.827060</vAcc></extensions></trkpt>
      <trkpt lon="35.217895" lat="31.775327"><ele>798.827958</ele><time>2023-02-23T21:37:42Z</time><extensions><speed>1.344535</speed><course>132.074483</course><hAcc>1.726441</hAcc><vAcc>0.826745</vAcc></extensions></trkpt>
      <trkpt lon="35.217904" lat="31.775319"><ele>798.772068</ele><time>2023-02-23T21:37:43Z</time><extensions><speed>1.118315</speed><course>137.006379</course><hAcc>1.740408</hAcc><vAcc>0.826236</vAcc></extensions></trkpt>
      <trkpt lon="35.217911" lat="31.775313"><ele>798.717540</ele><time>2023-02-23T21:37:44Z</time><extensions><speed>0.823192</speed><course>145.106287</course><hAcc>1.743084</hAcc><vAcc>0.825620</vAcc></extensions></trkpt>
      <trkpt lon="35.217915" lat="31.775306"><ele>798.655227</ele><time>2023-02-23T21:37:45Z</time><extensions><speed>0.801633</speed><course>149.501103</course><hAcc>1.736228</hAcc><vAcc>0.824951</vAcc></extensions></trkpt>
      <trkpt lon="35.217920" lat="31.775300"><ele>798.588988</ele><time>2023-02-23T21:37:46Z</time><extensions><speed>0.874377</speed><course>150.841980</course><hAcc>1.738556</hAcc><vAcc>0.824236</vAcc></extensions></trkpt>
      <trkpt lon="35.217924" lat="31.775293"><ele>798.511312</ele><time>2023-02-23T21:37:47Z</time><extensions><speed>0.945324</speed><course>152.529271</course><hAcc>1.750596</hAcc><vAcc>0.823419</vAcc></extensions></trkpt>
      <trkpt lon="35.217929" lat="31.775285"><ele>798.432224</ele><time>2023-02-23T21:37:48Z</time><extensions><speed>1.004371</speed><course>153.574920</course><hAcc>1.754621</hAcc><vAcc>0.822598</vAcc></extensions></trkpt>
      <trkpt lon="35.217934" lat="31.775277"><ele>798.355275</ele><time>2023-02-23T21:37:49Z</time><extensions><speed>0.959820</speed><course>150.054127</course><hAcc>1.756972</hAcc><vAcc>0.821733</vAcc></extensions></trkpt>
      <trkpt lon="35.217939" lat="31.775271"><ele>798.281707</ele><time>2023-02-23T21:37:50Z</time><extensions><speed>0.781640</speed><course>143.536211</course><hAcc>1.756528</hAcc><vAcc>0.820828</vAcc></extensions></trkpt>
      <trkpt lon="35.217943" lat="31.775267"><ele>798.218424</ele><time>2023-02-23T21:37:51Z</time><extensions><speed>0.439542</speed><course>113.921674</course><hAcc>1.735255</hAcc><vAcc>0.819867</vAcc></extensions></trkpt>
      <trkpt lon="35.217948" lat="31.775268"><ele>798.162442</ele><time>2023-02-23T21:37:52Z</time><extensions><speed>0.518043</speed><course>57.975571</course><hAcc>1.720585</hAcc><vAcc>0.818973</vAcc></extensions></trkpt>
      <trkpt lon="35.217954" lat="31.775272"><ele>798.101068</ele><time>2023-02-23T21:37:53Z</time><extensions><speed>0.944317</speed><course>45.865875</course><hAcc>1.704270</hAcc><vAcc>0.818179</vAcc></extensions></trkpt>
      <trkpt lon="35.217962" lat="31.775279"><ele>798.037593</ele><time>2023-02-23T21:37:54Z</time><extensions><speed>1.360430</speed><course>44.197498</course><hAcc>1.694476</hAcc><vAcc>0.817451</vAcc></extensions></trkpt>
      <trkpt lon="35.217972" lat="31.775289"><ele>797.971245</ele><time>2023-02-23T21:37:55Z</time><extensions><speed>1.480915</speed><course>40.772531</course><hAcc>1.677980</hAcc><vAcc>0.816799</vAcc></extensions></trkpt>
      <trkpt lon="35.217982" lat="31.775299"><ele>797.912700</ele><time>2023-02-23T21:37:56Z</time><extensions><speed>1.525454</speed><course>38.235013</course><hAcc>1.658241</hAcc><vAcc>0.816311</vAcc></extensions></trkpt>
      <trkpt lon="35.217992" lat="31.775310"><ele>797.848097</ele><time>2023-02-23T21:37:57Z</time><extensions><speed>1.525299</speed><course>36.644036</course><hAcc>1.659543</hAcc><vAcc>0.815937</vAcc></extensions></trkpt>
      <trkpt lon="35.218002" lat="31.775321"><ele>797.784434</ele><time>2023-02-23T21:37:58Z</time><extensions><speed>1.455092</speed><course>37.225163</course><hAcc>1.700898</hAcc><vAcc>0.815640</vAcc></extensions></trkpt>
      <trkpt lon="35.218011" lat="31.775332"><ele>797.718685</ele><time>2023-02-23T21:37:59Z</time><extensions><speed>1.558761</speed><course>34.932676</course><hAcc>1.645549</hAcc><vAcc>0.815433</vAcc></extensions></trkpt>
      <trkpt lon="35.218020" lat="31.775344"><ele>797.665980</ele><time>2023-02-23T21:38:00Z</time><extensions><speed>1.542604</speed><course>33.969527</course><hAcc>1.611329</hAcc><vAcc>0.815318</vAcc></extensions></trkpt>
      <trkpt lon="35.218029" lat="31.775355"><ele>797.613261</ele><time>2023-02-23T21:38:01Z</time><extensions><speed>1.434561</speed><course>33.220783</course><hAcc>1.612020</hAcc><vAcc>0.815330</vAcc></extensions></trkpt>
      <trkpt lon="35.218037" lat="31.775366"><ele>797.565894</ele><time>2023-02-23T21:38:02Z</time><extensions><speed>1.324556</speed><course>35.413368</course><hAcc>1.649109</hAcc><vAcc>0.815429</vAcc></extensions></trkpt>
      <trkpt lon="35.218045" lat="31.775375"><ele>797.527333</ele><time>2023-02-23T21:38:03Z</time><extensions><speed>1.199900</speed><course>41.506144</course><hAcc>1.699281</hAcc><vAcc>0.815551</vAcc></extensions></trkpt>
      <trkpt lon="35.218053" lat="31.775383"><ele>797.492848</ele><time>2023-02-23T21:38:04Z</time><extensions><speed>1.211839</speed><course>37.759764</course><hAcc>1.655852</hAcc><vAcc>0.815625</vAcc></extensions></trkpt>
      <trkpt lon="35.218061" lat="31.775392"><ele>797.454074</ele><time>2023-02-23T21:38:05Z</time><extensions><speed>1.216233</speed><course>36.898383</course><hAcc>1.634562</hAcc><vAcc>0.815641</vAcc></extensions></trkpt>
      <trkpt lon="35.218069" lat="31.775401"><ele>797.413506</ele><time>2023-02-23T21:38:06Z</time><extensions><speed>1.299339</speed><course>35.388041</course><hAcc>1.638830</hAcc><vAcc>0.815566</vAcc></extensions></trkpt>
      <trkpt lon="35.218077" lat="31.775411"><ele>797.362788</ele><time>2023-02-23T21:38:07Z</time><extensions><speed>1.415206</speed><course>33.782899</course><hAcc>1.637854</hAcc><vAcc>0.815451</vAcc></extensions></trkpt>
      <trkpt lon="35.218085" lat="31.775422"><ele>797.306287</ele><time>2023-02-23T21:38:08Z</time><extensions><speed>1.482302</speed><course>31.817920</course><hAcc>1.625028</hAcc><vAcc>0.815318</vAcc></extensions></trkpt>
      <trkpt lon="35.218093" lat="31.775433"><ele>797.250821</ele><time>2023-02-23T21:38:09Z</time><extensions><speed>1.482273</speed><course>32.259204</course><hAcc>1.618451</hAcc><vAcc>0.815116</vAcc></extensions></trkpt>
      <trkpt lon="35.218102" lat="31.775444"><ele>797.195857</ele><time>2023-02-23T21:38:10Z</time><extensions><speed>1.499546</speed><course>33.777743</course><hAcc>1.643230</hAcc><vAcc>0.814862</vAcc></extensions></trkpt>
      <trkpt lon="35.218111" lat="31.775456"><ele>797.137334</ele><time>2023-02-23T21:38:11Z</time><extensions><speed>1.490089</speed><course>33.052276</course><hAcc>1.685945</hAcc><vAcc>0.814531</vAcc></extensions></trkpt>
      <trkpt lon="35.218118" lat="31.775466"><ele>797.070959</ele><time>2023-02-23T21:38:12Z</time><extensions><speed>1.264401</speed><course>24.831077</course><hAcc>1.662106</hAcc><vAcc>0.814145</vAcc></extensions></trkpt>
      <trkpt lon="35.218123" lat="31.775475"><ele>796.997147</ele><time>2023-02-23T21:38:13Z</time><extensions><speed>0.887592</speed><course>23.680325</course><hAcc>1.644344</hAcc><vAcc>0.813730</vAcc></extensions></trkpt>
      <trkpt lon="35.218127" lat="31.775482"><ele>796.906622</ele><time>2023-02-23T21:38:14Z</time><extensions><speed>0.693140</speed><course>33.708121</course><hAcc>1.648623</hAcc><vAcc>0.813364</vAcc></extensions></trkpt>
      <trkpt lon="35.218131" lat="31.775486"><ele>796.808041</ele><time>2023-02-23T21:38:15Z</time><extensions><speed>0.705472</speed><course>46.177883</course><hAcc>1.676003</hAcc><vAcc>0.813028</vAcc></extensions></trkpt>
      <trkpt lon="35.218138" lat="31.775491"><ele>796.709647</ele><time>2023-02-23T21:38:16Z</time><extensions><speed>0.814038</speed><course>53.954672</course><hAcc>1.705271</hAcc><vAcc>0.812722</vAcc></extensions></trkpt>
      <trkpt lon="35.218145" lat="31.775495"><ele>796.603813</ele><time>2023-02-23T21:38:17Z</time><extensions><speed>0.885237</speed><course>59.239233</course><hAcc>1.717678</hAcc><vAcc>0.812500</vAcc></extensions></trkpt>
      <trkpt lon="35.218154" lat="31.775500"><ele>796.488991</ele><time>2023-02-23T21:38:18Z</time><extensions><speed>1.091766</speed><course>59.729500</course><hAcc>1.717925</hAcc><vAcc>0.812387</vAcc></extensions></trkpt>
      <trkpt lon="35.218165" lat="31.775505"><ele>796.376071</ele><time>2023-02-23T21:38:19Z</time><extensions><speed>1.280979</speed><course>58.901505</course><hAcc>1.715215</hAcc><vAcc>0.812380</vAcc></extensions></trkpt>
      <trkpt lon="35.218177" lat="31.775511"><ele>796.263494</ele><time>2023-02-23T21:38:20Z</time><extensions><speed>1.439959</speed><course>55.496672</course><hAcc>1.713711</hAcc><vAcc>0.812384</vAcc></extensions></trkpt>
      <trkpt lon="35.218189" lat="31.775519"><ele>796.154392</ele><time>2023-02-23T21:38:21Z</time><extensions><speed>1.471712</speed><course>51.038557</course><hAcc>1.711662</hAcc><vAcc>0.812213</vAcc></extensions></trkpt>
      <trkpt lon="35.218201" lat="31.775528"><ele>796.049292</ele><time>2023-02-23T21:38:22Z</time><extensions><speed>1.457537</speed><course>48.054304</course><hAcc>1.708740</hAcc><vAcc>0.812170</vAcc></extensions></trkpt>
      <trkpt lon="35.218212" lat="31.775537"><ele>795.948615</ele><time>2023-02-23T21:38:23Z</time><extensions><speed>1.367755</speed><course>45.396821</course><hAcc>1.708246</hAcc><vAcc>0.812078</vAcc></extensions></trkpt>
      <trkpt lon="35.218222" lat="31.775545"><ele>795.854504</ele><time>2023-02-23T21:38:24Z</time><extensions><speed>1.285901</speed><course>45.506373</course><hAcc>1.709692</hAcc><vAcc>0.811903</vAcc></extensions></trkpt>
      <trkpt lon="35.218231" lat="31.775553"><ele>795.765970</ele><time>2023-02-23T21:38:25Z</time><extensions><speed>1.212887</speed><course>48.304355</course><hAcc>1.712022</hAcc><vAcc>0.811551</vAcc></extensions></trkpt>
      <trkpt lon="35.218241" lat="31.775559"><ele>795.688706</ele><time>2023-02-23T21:38:26Z</time><extensions><speed>1.097692</speed><course>56.316446</course><hAcc>1.713387</hAcc><vAcc>0.811119</vAcc></extensions></trkpt>
      <trkpt lon="35.218251" lat="31.775563"><ele>795.620338</ele><time>2023-02-23T21:38:27Z</time><extensions><speed>0.970165</speed><course>67.007119</course><hAcc>1.720108</hAcc><vAcc>0.810163</vAcc></extensions></trkpt>
      <trkpt lon="35.218259" lat="31.775566"><ele>795.552380</ele><time>2023-02-23T21:38:28Z</time><extensions><speed>0.795728</speed><course>83.345305</course><hAcc>1.730657</hAcc><vAcc>0.808179</vAcc></extensions></trkpt>
      <trkpt lon="35.218267" lat="31.775565"><ele>795.492722</ele><time>2023-02-23T21:38:29Z</time><extensions><speed>0.582340</speed><course>102.403680</course><hAcc>1.740672</hAcc><vAcc>0.805271</vAcc></extensions></trkpt>
      <trkpt lon="35.218271" lat="31.775564"><ele>795.450402</ele><time>2023-02-23T21:38:30Z</time><extensions><speed>0.269743</speed><course>129.805121</course><hAcc>1.739332</hAcc><vAcc>0.802504</vAcc></extensions></trkpt>
      <trkpt lon="35.218272" lat="31.775562"><ele>795.422537</ele><time>2023-02-23T21:38:31Z</time><extensions><speed>0.193254</speed><course>165.323649</course><hAcc>1.738631</hAcc><vAcc>0.799425</vAcc></extensions></trkpt>
      <trkpt lon="35.218272" lat="31.775560"><ele>795.410411</ele><time>2023-02-23T21:38:32Z</time><extensions><speed>0.197760</speed><course>183.875189</course><hAcc>1.753512</hAcc><vAcc>0.796012</vAcc></extensions></trkpt>
      <trkpt lon="35.218272" lat="31.775558"><ele>795.409570</ele><time>2023-02-23T21:38:33Z</time><extensions><speed>0.253671</speed><course>185.504804</course><hAcc>1.769801</hAcc><vAcc>0.792334</vAcc></extensions></trkpt>
      <trkpt lon="35.218272" lat="31.775556"><ele>795.435473</ele><time>2023-02-23T21:38:34Z</time><extensions><speed>0.354191</speed><course>183.849600</course><hAcc>1.786991</hAcc><vAcc>0.788430</vAcc></extensions></trkpt>
      <trkpt lon="35.218272" lat="31.775552"><ele>795.453419</ele><time>2023-02-23T21:38:35Z</time><extensions><speed>0.533761</speed><course>182.192741</course><hAcc>1.806557</hAcc><vAcc>0.784420</vAcc></extensions></trkpt>
      <trkpt lon="35.218271" lat="31.775545"><ele>795.474173</ele><time>2023-02-23T21:38:36Z</time><extensions><speed>0.820915</speed><course>179.975123</course><hAcc>1.826828</hAcc><vAcc>0.780526</vAcc></extensions></trkpt>
      <trkpt lon="35.218272" lat="31.775536"><ele>795.508075</ele><time>2023-02-23T21:38:37Z</time><extensions><speed>1.267454</speed><course>177.146640</course><hAcc>1.838703</hAcc><vAcc>0.776867</vAcc></extensions></trkpt>
      <trkpt lon="35.218273" lat="31.775522"><ele>795.544604</ele><time>2023-02-23T21:38:38Z</time><extensions><speed>1.827347</speed><course>173.659883</course><hAcc>1.842557</hAcc><vAcc>0.773854</vAcc></extensions></trkpt>
      <trkpt lon="35.218276" lat="31.775503"><ele>795.582139</ele><time>2023-02-23T21:38:39Z</time><extensions><speed>2.453733</speed><course>170.597739</course><hAcc>1.836481</hAcc><vAcc>0.771687</vAcc></extensions></trkpt>
      <trkpt lon="35.218282" lat="31.775481"><ele>795.625275</ele><time>2023-02-23T21:38:40Z</time><extensions><speed>2.557682</speed><course>166.980893</course><hAcc>1.838902</hAcc><vAcc>0.770401</vAcc></extensions></trkpt>
      <trkpt lon="35.218288" lat="31.775460"><ele>795.677523</ele><time>2023-02-23T21:38:41Z</time><extensions><speed>2.338343</speed><course>162.084926</course><hAcc>1.835257</hAcc><vAcc>0.769755</vAcc></extensions></trkpt>
      <trkpt lon="35.218297" lat="31.775441"><ele>795.734132</ele><time>2023-02-23T21:38:42Z</time><extensions><speed>2.009363</speed><course>155.154768</course><hAcc>1.829529</hAcc><vAcc>0.769358</vAcc></extensions></trkpt>
      <trkpt lon="35.218306" lat="31.775427"><ele>795.785898</ele><time>2023-02-23T21:38:43Z</time><extensions><speed>1.722150</speed><course>144.946016</course><hAcc>1.821027</hAcc><vAcc>0.769014</vAcc></extensions></trkpt>
      <trkpt lon="35.218317" lat="31.775415"><ele>795.832908</ele><time>2023-02-23T21:38:44Z</time><extensions><speed>1.491827</speed><course>136.558271</course><hAcc>1.807826</hAcc><vAcc>0.768717</vAcc></extensions></trkpt>
      <trkpt lon="35.218328" lat="31.775407"><ele>795.876193</ele><time>2023-02-23T21:38:45Z</time><extensions><speed>1.286432</speed><course>130.501831</course><hAcc>1.800440</hAcc><vAcc>0.768260</vAcc></extensions></trkpt>
      <trkpt lon="35.218338" lat="31.775400"><ele>795.914593</ele><time>2023-02-23T21:38:46Z</time><extensions><speed>1.190635</speed><course>127.835046</course><hAcc>1.799348</hAcc><vAcc>0.767557</vAcc></extensions></trkpt>
      <trkpt lon="35.218348" lat="31.775393"><ele>795.945190</ele><time>2023-02-23T21:38:47Z</time><extensions><speed>1.244512</speed><course>128.862906</course><hAcc>1.800694</hAcc><vAcc>0.766595</vAcc></extensions></trkpt>
      <trkpt lon="35.218358" lat="31.775386"><ele>795.970535</ele><time>2023-02-23T21:38:48Z</time><extensions><speed>1.345419</speed><course>129.595560</course><hAcc>1.812184</hAcc><vAcc>0.765312</vAcc></extensions></trkpt>
      <trkpt lon="35.218370" lat="31.775378"><ele>796.003280</ele><time>2023-02-23T21:38:49Z</time><extensions><speed>1.436208</speed><course>130.302181</course><hAcc>1.822506</hAcc><vAcc>0.763573</vAcc></extensions></trkpt>
      <trkpt lon="35.218381" lat="31.775369"><ele>796.033062</ele><time>2023-02-23T21:38:50Z</time><extensions><speed>1.417629</speed><course>130.626498</course><hAcc>1.825287</hAcc><vAcc>0.761027</vAcc></extensions></trkpt>
      <trkpt lon="35.218392" lat="31.775361"><ele>796.056523</ele><time>2023-02-23T21:38:51Z</time><extensions><speed>1.342022</speed><course>129.964830</course><hAcc>1.817782</hAcc><vAcc>0.758659</vAcc></extensions></trkpt>
      <trkpt lon="35.218402" lat="31.775354"><ele>796.076536</ele><time>2023-02-23T21:38:52Z</time><extensions><speed>1.194130</speed><course>127.951104</course><hAcc>1.805569</hAcc><vAcc>0.756224</vAcc></extensions></trkpt>
      <trkpt lon="35.218412" lat="31.775348"><ele>796.103398</ele><time>2023-02-23T21:38:53Z</time><extensions><speed>1.041523</speed><course>124.019324</course><hAcc>1.799621</hAcc><vAcc>0.753850</vAcc></extensions></trkpt>
      <trkpt lon="35.218420" lat="31.775343"><ele>796.120460</ele><time>2023-02-23T21:38:54Z</time><extensions><speed>0.906299</speed><course>123.183798</course><hAcc>1.803742</hAcc><vAcc>0.751306</vAcc></extensions></trkpt>
      <trkpt lon="35.218428" lat="31.775339"><ele>796.132335</ele><time>2023-02-23T21:38:55Z</time><extensions><speed>0.814373</speed><course>126.027067</course><hAcc>1.804134</hAcc><vAcc>0.747982</vAcc></extensions></trkpt>
      <trkpt lon="35.218433" lat="31.775334"><ele>796.142176</ele><time>2023-02-23T21:38:56Z</time><extensions><speed>0.662751</speed><course>141.368285</course><hAcc>1.801528</hAcc><vAcc>0.743761</vAcc></extensions></trkpt>
      <trkpt lon="35.218436" lat="31.775330"><ele>796.153137</ele><time>2023-02-23T21:38:57Z</time><extensions><speed>0.448215</speed><course>176.778244</course><hAcc>1.801883</hAcc><vAcc>0.737541</vAcc></extensions></trkpt>
      <trkpt lon="35.218434" lat="31.775327"><ele>796.154927</ele><time>2023-02-23T21:38:58Z</time><extensions><speed>0.384423</speed><course>221.012264</course><hAcc>1.815197</hAcc><vAcc>0.728487</vAcc></extensions></trkpt>
      <trkpt lon="35.218431" lat="31.775324"><ele>796.154431</ele><time>2023-02-23T21:38:59Z</time><extensions><speed>0.570210</speed><course>231.853045</course><hAcc>1.798721</hAcc><vAcc>0.717900</vAcc></extensions></trkpt>
      <trkpt lon="35.218425" lat="31.775320"><ele>796.151952</ele><time>2023-02-23T21:39:00Z</time><extensions><speed>0.777699</speed><course>226.963331</course><hAcc>1.793127</hAcc><vAcc>0.704377</vAcc></extensions></trkpt>
      <trkpt lon="35.218420" lat="31.775314"><ele>796.144673</ele><time>2023-02-23T21:39:01Z</time><extensions><speed>0.811546</speed><course>218.409318</course><hAcc>1.846528</hAcc><vAcc>0.687076</vAcc></extensions></trkpt>
      <trkpt lon="35.218415" lat="31.775309"><ele>796.135597</ele><time>2023-02-23T21:39:02Z</time><extensions><speed>0.731128</speed><course>215.598343</course><hAcc>1.885182</hAcc><vAcc>0.665465</vAcc></extensions></trkpt>
      <trkpt lon="35.218411" lat="31.775304"><ele>796.124884</ele><time>2023-02-23T21:39:03Z</time><extensions><speed>0.477418</speed><course>215.742190</course><hAcc>1.895108</hAcc><vAcc>0.639621</vAcc></extensions></trkpt>
      <trkpt lon="35.218408" lat="31.775302"><ele>796.116332</ele><time>2023-02-23T21:39:04Z</time><extensions><speed>0.283460</speed><course>226.410965</course><hAcc>1.953043</hAcc><vAcc>0.611533</vAcc></extensions></trkpt>
      <trkpt lon="35.218406" lat="31.775300"><ele>796.106585</ele><time>2023-02-23T21:39:05Z</time><extensions><speed>0.244388</speed><course>232.887204</course><hAcc>2.062350</hAcc><vAcc>0.579162</vAcc></extensions></trkpt>
      <trkpt lon="35.218404" lat="31.775299"><ele>796.095232</ele><time>2023-02-23T21:39:06Z</time><extensions><speed>0.255890</speed><course>230.422684</course><hAcc>2.246258</hAcc><vAcc>0.543975</vAcc></extensions></trkpt>
      <trkpt lon="35.218402" lat="31.775297"><ele>796.081780</ele><time>2023-02-23T21:39:07Z</time><extensions><speed>0.275505</speed><course>225.060076</course><hAcc>2.521093</hAcc><vAcc>0.508779</vAcc></extensions></trkpt>
      <trkpt lon="35.218400" lat="31.775295"><ele>796.067860</ele><time>2023-02-23T21:39:08Z</time><extensions><speed>0.289121</speed><course>220.706776</course><hAcc>2.895758</hAcc><vAcc>0.478951</vAcc></extensions></trkpt>
      <trkpt lon="35.218398" lat="31.775293"><ele>796.054737</ele><time>2023-02-23T21:39:09Z</time><extensions><speed>0.297092</speed><course>218.636479</course><hAcc>3.373426</hAcc><vAcc>0.461812</vAcc></extensions></trkpt>
      <trkpt lon="35.218396" lat="31.775291"><ele>796.042807</ele><time>2023-02-23T21:39:10Z</time><extensions><speed>0.302575</speed><course>218.433662</course><hAcc>3.945282</hAcc><vAcc>0.466977</vAcc></extensions></trkpt>
      <trkpt lon="35.218394" lat="31.775289"><ele>796.031660</ele><time>2023-02-23T21:39:11Z</time><extensions><speed>0.307782</speed><course>219.272193</course><hAcc>4.601143</hAcc><vAcc>0.503538</vAcc></extensions></trkpt>
      <trkpt lon="35.218392" lat="31.775287"><ele>796.020499</ele><time>2023-02-23T21:39:12Z</time><extensions><speed>0.317143</speed><course>220.405606</course><hAcc>5.348429</hAcc><vAcc>0.576792</vAcc></extensions></trkpt>
      <trkpt lon="35.218390" lat="31.775285"><ele>796.008738</ele><time>2023-02-23T21:39:13Z</time><extensions><speed>0.330465</speed><course>221.390118</course><hAcc>6.220565</hAcc><vAcc>0.686603</vAcc></extensions></trkpt>
      <trkpt lon="35.218387" lat="31.775282"><ele>795.995945</ele><time>2023-02-23T21:39:14Z</time><extensions><speed>0.354508</speed><course>221.976734</course><hAcc>7.297308</hAcc><vAcc>0.831655</vAcc></extensions></trkpt>
      <trkpt lon="35.218370" lat="31.775265"><ele>795.918814</ele><time>2023-02-23T21:39:19Z</time><extensions><speed>0.638540</speed><course>220.735423</course><hAcc>13.571124</hAcc><vAcc>1.875759</vAcc></extensions></trkpt>
      <trkpt lon="35.218366" lat="31.775261"><ele>795.900893</ele><time>2023-02-23T21:39:20Z</time><extensions><speed>0.606744</speed><course>220.946961</course><hAcc>15.720788</hAcc><vAcc>2.206770</vAcc></extensions></trkpt>
      <trkpt lon="35.218362" lat="31.775257"><ele>795.883129</ele><time>2023-02-23T21:39:21Z</time><extensions><speed>0.589575</speed><course>221.026133</course><hAcc>18.186778</hAcc><vAcc>2.561852</vAcc></extensions></trkpt>
      <trkpt lon="35.218097" lat="31.775193"><ele>784.525723</ele><time>2023-02-23T21:40:16Z</time><extensions><speed>0.000000</speed><course>0.980679</course><hAcc>17.284588</hAcc><vAcc>16.975179</vAcc></extensions></trkpt>
      <trkpt lon="35.218097" lat="31.775193"><ele>784.525723</ele><time>2023-02-23T21:40:17Z</time><extensions><speed>0.000000</speed><course>0.980679</course><hAcc>17.284588</hAcc><vAcc>16.975179</vAcc></extensions></trkpt>
    </trkseg>
  </trk>
</gpx>