<?xml version="1.0" encoding="UTF-8"?>
<gpx version="1.1" creator="Apple Health Export" xmlns="http://www.topografix.com/GPX/1/1" xmlns:xsi="http://www.w3.org/2001/XMLSchema-instance" xsi:schemaLocation="http://www.topografix.com/GPX/1/1 http://www.topografix.com/GPX/1/1/gpx.xsd">
  <metadata>
    <time>2026-06-04T15:24:55Z</time>
  </metadata>
  <trk>
    <name>Route 2025-06-24 6:13pm</name>
    <trkseg>
      <trkpt lon="7.856975" lat="46.562244"><ele>2666.246249</ele><time>2025-06-24T15:09:41Z</time><extensions><speed>0.306754</speed><course>132.423506</course><hAcc>1.755379</hAcc><vAcc>1.440964</vAcc></extensions></trkpt>
      <trkpt lon="7.856977" lat="46.562242"><ele>2666.363617</ele><time>2025-06-24T15:09:42Z</time><extensions><speed>0.175728</speed><course>144.086329</course><hAcc>1.560090</hAcc><vAcc>1.255282</vAcc></extensions></trkpt>
      <trkpt lon="7.856979" lat="46.562241"><ele>2666.516564</ele><time>2025-06-24T15:09:43Z</time><extensions><speed>0.284458</speed><course>133.313889</course><hAcc>1.451197</hAcc><vAcc>1.114943</vAcc></extensions></trkpt>
      <trkpt lon="7.856981" lat="46.562239"><ele>2666.683072</ele><time>2025-06-24T15:09:44Z</time><extensions><speed>0.167196</speed><course>140.630801</course><hAcc>1.381283</hAcc><vAcc>1.014476</vAcc></extensions></trkpt>
      <trkpt lon="7.856983" lat="46.562238"><ele>2666.859460</ele><time>2025-06-24T15:09:45Z</time><extensions><speed>0.215322</speed><course>109.592600</course><hAcc>1.339611</hAcc><vAcc>0.947660</vAcc></extensions></trkpt>
      <trkpt lon="7.856987" lat="46.562239"><ele>2667.039313</ele><time>2025-06-24T15:09:46Z</time><extensions><speed>0.464976</speed><course>77.205580</course><hAcc>1.372222</hAcc><vAcc>0.907752</vAcc></extensions></trkpt>
      <trkpt lon="7.856994" lat="46.562239"><ele>2667.201182</ele><time>2025-06-24T15:09:47Z</time><extensions><speed>0.542860</speed><course>78.662365</course><hAcc>1.389549</hAcc><vAcc>0.888016</vAcc></extensions></trkpt>
      <trkpt lon="7.857001" lat="46.562240"><ele>2667.344751</ele><time>2025-06-24T15:09:48Z</time><extensions><speed>0.543833</speed><course>85.477404</course><hAcc>1.415768</hAcc><vAcc>0.882322</vAcc></extensions></trkpt>
      <trkpt lon="7.857007" lat="46.562240"><ele>2667.488484</ele><time>2025-06-24T15:09:49Z</time><extensions><speed>0.464302</speed><course>94.535901</course><hAcc>1.471024</hAcc><vAcc>0.885519</vAcc></extensions></trkpt>
      <trkpt lon="7.857014" lat="46.562240"><ele>2667.621622</ele><time>2025-06-24T15:09:50Z</time><extensions><speed>0.507446</speed><course>94.193313</course><hAcc>1.549819</hAcc><vAcc>0.893588</vAcc></extensions></trkpt>
      <trkpt lon="7.857019" lat="46.562239"><ele>2667.744785</ele><time>2025-06-24T15:09:51Z</time><extensions><speed>0.352852</speed><course>98.546683</course><hAcc>1.583083</hAcc><vAcc>0.903682</vAcc></extensions></trkpt>
      <trkpt lon="7.857025" lat="46.562239"><ele>2667.867116</ele><time>2025-06-24T15:09:52Z</time><extensions><speed>0.540627</speed><course>93.708924</course><hAcc>1.581270</hAcc><vAcc>0.913985</vAcc></extensions></trkpt>
      <trkpt lon="7.857032" lat="46.562238"><ele>2667.948302</ele><time>2025-06-24T15:09:53Z</time><extensions><speed>0.603901</speed><course>107.910177</course><hAcc>1.573569</hAcc><vAcc>0.923450</vAcc></extensions></trkpt>
      <trkpt lon="7.857040" lat="46.562236"><ele>2668.036212</ele><time>2025-06-24T15:09:54Z</time><extensions><speed>0.637151</speed><course>116.026252</course><hAcc>1.570962</hAcc><vAcc>0.931553</vAcc></extensions></trkpt>
      <trkpt lon="7.857047" lat="46.562233"><ele>2668.123413</ele><time>2025-06-24T15:09:55Z</time><extensions><speed>0.564937</speed><course>123.728872</course><hAcc>1.565756</hAcc><vAcc>0.938113</vAcc></extensions></trkpt>
      <trkpt lon="7.857052" lat="46.562230"><ele>2668.197746</ele><time>2025-06-24T15:09:56Z</time><extensions><speed>0.437443</speed><course>121.829990</course><hAcc>1.551499</hAcc><vAcc>0.943158</vAcc></extensions></trkpt>
      <trkpt lon="7.857058" lat="46.562228"><ele>2668.261967</ele><time>2025-06-24T15:09:57Z</time><extensions><speed>0.569829</speed><course>113.651857</course><hAcc>1.561501</hAcc><vAcc>0.946837</vAcc></extensions></trkpt>
      <trkpt lon="7.857063" lat="46.562227"><ele>2668.317251</ele><time>2025-06-24T15:09:58Z</time><extensions><speed>0.205045</speed><course>123.819598</course><hAcc>1.549728</hAcc><vAcc>0.949354</vAcc></extensions></trkpt>
      <trkpt lon="7.857064" lat="46.562226"><ele>2668.365345</ele><time>2025-06-24T15:09:59Z</time><extensions><speed>0.088440</speed><course>144.768952</course><hAcc>1.540491</hAcc><vAcc>0.953032</vAcc></extensions></trkpt>
      <trkpt lon="7.857064" lat="46.562225"><ele>2668.300025</ele><time>2025-06-24T15:10:00Z</time><extensions><speed>0.054564</speed><course>177.442991</course><hAcc>1.538526</hAcc><vAcc>0.954640</vAcc></extensions></trkpt>
      <trkpt lon="7.857063" lat="46.562225"><ele>2668.204009</ele><time>2025-06-24T15:10:01Z</time><extensions><speed>0.053788</speed><course>195.912213</course><hAcc>1.533099</hAcc><vAcc>0.956885</vAcc></extensions></trkpt>
      <trkpt lon="7.857063" lat="46.562224"><ele>2668.075754</ele><time>2025-06-24T15:10:02Z</time><extensions><speed>0.051656</speed><course>202.654008</course><hAcc>1.535363</hAcc><vAcc>0.958819</vAcc></extensions></trkpt>
      <trkpt lon="7.857063" lat="46.562224"><ele>2667.923408</ele><time>2025-06-24T15:10:03Z</time><extensions><speed>0.052620</speed><course>206.940164</course><hAcc>1.533985</hAcc><vAcc>0.960729</vAcc></extensions></trkpt>
      <trkpt lon="7.857062" lat="46.562223"><ele>2667.761952</ele><time>2025-06-24T15:10:04Z</time><extensions><speed>0.064068</speed><course>217.990287</course><hAcc>1.528261</hAcc><vAcc>0.964008</vAcc></extensions></trkpt>
      <trkpt lon="7.857062" lat="46.562223"><ele>2667.607498</ele><time>2025-06-24T15:10:05Z</time><extensions><speed>0.070966</speed><course>231.557567</course><hAcc>1.536639</hAcc><vAcc>0.970485</vAcc></extensions></trkpt>
      <trkpt lon="7.857061" lat="46.562222"><ele>2667.440787</ele><time>2025-06-24T15:10:06Z</time><extensions><speed>0.081140</speed><course>237.332755</course><hAcc>1.552406</hAcc><vAcc>0.979599</vAcc></extensions></trkpt>
      <trkpt lon="7.857060" lat="46.562222"><ele>2667.263935</ele><time>2025-06-24T15:10:07Z</time><extensions><speed>0.091151</speed><course>238.871457</course><hAcc>1.580198</hAcc><vAcc>0.992498</vAcc></extensions></trkpt>
      <trkpt lon="7.857059" lat="46.562222"><ele>2667.075451</ele><time>2025-06-24T15:10:08Z</time><extensions><speed>0.086823</speed><course>239.283985</course><hAcc>1.642819</hAcc><vAcc>1.007631</vAcc></extensions></trkpt>
      <trkpt lon="7.857059" lat="46.562221"><ele>2666.878654</ele><time>2025-06-24T15:10:09Z</time><extensions><speed>0.026233</speed><course>238.071782</course><hAcc>1.727684</hAcc><vAcc>1.024281</vAcc></extensions></trkpt>
      <trkpt lon="7.857059" lat="46.562222"><ele>2666.660587</ele><time>2025-06-24T15:10:10Z</time><extensions><speed>0.022630</speed><course>227.285918</course><hAcc>1.741541</hAcc><vAcc>1.043747</vAcc></extensions></trkpt>
      <trkpt lon="7.857058" lat="46.562222"><ele>2666.440064</ele><time>2025-06-24T15:10:11Z</time><extensions><speed>0.029979</speed><course>185.844562</course><hAcc>1.730410</hAcc><vAcc>1.064548</vAcc></extensions></trkpt>
      <trkpt lon="7.857058" lat="46.562222"><ele>2666.222419</ele><time>2025-06-24T15:10:12Z</time><extensions><speed>0.044052</speed><course>95.563188</course><hAcc>1.799856</hAcc><vAcc>1.086723</vAcc></extensions></trkpt>
      <trkpt lon="7.857059" lat="46.562222"><ele>2666.010470</ele><time>2025-06-24T15:10:13Z</time><extensions><speed>0.101257</speed><course>65.599554</course><hAcc>1.929840</hAcc><vAcc>1.108707</vAcc></extensions></trkpt>
      <trkpt lon="7.857061" lat="46.562223"><ele>2665.807382</ele><time>2025-06-24T15:10:14Z</time><extensions><speed>0.162851</speed><course>59.781934</course><hAcc>2.058287</hAcc><vAcc>1.130285</vAcc></extensions></trkpt>
      <trkpt lon="7.857062" lat="46.562224"><ele>2665.615156</ele><time>2025-06-24T15:10:15Z</time><extensions><speed>0.194149</speed><course>40.768779</course><hAcc>2.176045</hAcc><vAcc>1.152341</vAcc></extensions></trkpt>
      <trkpt lon="7.857063" lat="46.562226"><ele>2665.434330</ele><time>2025-06-24T15:10:16Z</time><extensions><speed>0.267744</speed><course>8.201511</course><hAcc>2.264868</hAcc><vAcc>1.176010</vAcc></extensions></trkpt>
      <trkpt lon="7.857063" lat="46.562229"><ele>2665.264990</ele><time>2025-06-24T15:10:17Z</time><extensions><speed>0.340696</speed><course>355.948916</course><hAcc>2.311800</hAcc><vAcc>1.198515</vAcc></extensions></trkpt>
      <trkpt lon="7.857063" lat="46.562232"><ele>2665.107352</ele><time>2025-06-24T15:10:18Z</time><extensions><speed>0.404690</speed><course>350.085567</course><hAcc>2.323210</hAcc><vAcc>1.219184</vAcc></extensions></trkpt>
      <trkpt lon="7.857062" lat="46.562236"><ele>2664.954978</ele><time>2025-06-24T15:10:19Z</time><extensions><speed>0.453488</speed><course>349.335710</course><hAcc>2.312246</hAcc><vAcc>1.238119</vAcc></extensions></trkpt>
      <trkpt lon="7.857062" lat="46.562241"><ele>2664.823533</ele><time>2025-06-24T15:10:20Z</time><extensions><speed>0.447092</speed><course>351.108928</course><hAcc>2.289938</hAcc><vAcc>1.256119</vAcc></extensions></trkpt>
      <trkpt lon="7.857062" lat="46.562245"><ele>2664.711591</ele><time>2025-06-24T15:10:21Z</time><extensions><speed>0.404338</speed><course>354.484943</course><hAcc>2.264798</hAcc><vAcc>1.271568</vAcc></extensions></trkpt>
      <trkpt lon="7.857063" lat="46.562248"><ele>2664.599786</ele><time>2025-06-24T15:10:22Z</time><extensions><speed>0.335674</speed><course>0.245906</course><hAcc>2.243688</hAcc><vAcc>1.282600</vAcc></extensions></trkpt>
      <trkpt lon="7.857063" lat="46.562251"><ele>2664.520949</ele><time>2025-06-24T15:10:23Z</time><extensions><speed>0.271985</speed><course>9.354383</course><hAcc>2.230912</hAcc><vAcc>1.291950</vAcc></extensions></trkpt>
      <trkpt lon="7.857065" lat="46.562253"><ele>2664.455785</ele><time>2025-06-24T15:10:24Z</time><extensions><speed>0.228313</speed><course>22.458880</course><hAcc>2.227260</hAcc><vAcc>1.299615</vAcc></extensions></trkpt>
      <trkpt lon="7.857066" lat="46.562255"><ele>2664.394522</ele><time>2025-06-24T15:10:25Z</time><extensions><speed>0.217732</speed><course>36.701610</course><hAcc>2.233969</hAcc><vAcc>1.302882</vAcc></extensions></trkpt>
      <trkpt lon="7.857069" lat="46.562257"><ele>2664.328541</ele><time>2025-06-24T15:10:26Z</time><extensions><speed>0.217956</speed><course>49.263069</course><hAcc>2.254527</hAcc><vAcc>1.302768</vAcc></extensions></trkpt>
      <trkpt lon="7.857071" lat="46.562258"><ele>2664.287289</ele><time>2025-06-24T15:10:27Z</time><extensions><speed>0.251754</speed><course>59.583673</course><hAcc>2.271538</hAcc><vAcc>1.298429</vAcc></extensions></trkpt>
      <trkpt lon="7.857075" lat="46.562259"><ele>2664.245172</ele><time>2025-06-24T15:10:28Z</time><extensions><speed>0.317094</speed><course>67.908888</course><hAcc>2.277796</hAcc><vAcc>1.297021</vAcc></extensions></trkpt>
      <trkpt lon="7.857080" lat="46.562260"><ele>2664.210747</ele><time>2025-06-24T15:10:29Z</time><extensions><speed>0.436375</speed><course>74.898140</course><hAcc>2.268476</hAcc><vAcc>1.296133</vAcc></extensions></trkpt>
      <trkpt lon="7.857086" lat="46.562260"><ele>2664.201961</ele><time>2025-06-24T15:10:30Z</time><extensions><speed>0.484890</speed><course>83.775754</course><hAcc>2.282660</hAcc><vAcc>1.297998</vAcc></extensions></trkpt>
      <trkpt lon="7.857093" lat="46.562260"><ele>2664.198043</ele><time>2025-06-24T15:10:31Z</time><extensions><speed>0.490869</speed><course>90.996076</course><hAcc>2.314651</hAcc><vAcc>1.301242</vAcc></extensions></trkpt>
      <trkpt lon="7.857099" lat="46.562260"><ele>2664.184126</ele><time>2025-06-24T15:10:32Z</time><extensions><speed>0.468923</speed><course>95.959010</course><hAcc>2.354648</hAcc><vAcc>1.304285</vAcc></extensions></trkpt>
      <trkpt lon="7.857105" lat="46.562259"><ele>2664.176060</ele><time>2025-06-24T15:10:33Z</time><extensions><speed>0.463037</speed><course>104.188789</course><hAcc>2.405119</hAcc><vAcc>1.307636</vAcc></extensions></trkpt>
      <trkpt lon="7.857111" lat="46.562258"><ele>2664.156170</ele><time>2025-06-24T15:10:34Z</time><extensions><speed>0.395478</speed><course>109.274190</course><hAcc>2.456953</hAcc><vAcc>1.312697</vAcc></extensions></trkpt>
      <trkpt lon="7.857116" lat="46.562257"><ele>2664.142110</ele><time>2025-06-24T15:10:35Z</time><extensions><speed>0.477917</speed><course>117.138713</course><hAcc>2.467256</hAcc><vAcc>1.318249</vAcc></extensions></trkpt>
      <trkpt lon="7.857122" lat="46.562254"><ele>2664.129459</ele><time>2025-06-24T15:10:36Z</time><extensions><speed>0.564132</speed><course>122.792715</course><hAcc>2.473427</hAcc><vAcc>1.324106</vAcc></extensions></trkpt>
      <trkpt lon="7.857128" lat="46.562251"><ele>2664.117888</ele><time>2025-06-24T15:10:37Z</time><extensions><speed>0.629771</speed><course>125.794194</course><hAcc>2.487965</hAcc><vAcc>1.328142</vAcc></extensions></trkpt>
      <trkpt lon="7.857135" lat="46.562248"><ele>2664.107651</ele><time>2025-06-24T15:10:38Z</time><extensions><speed>0.629755</speed><course>126.638966</course><hAcc>2.509948</hAcc><vAcc>1.333364</vAcc></extensions></trkpt>
      <trkpt lon="7.857141" lat="46.562245"><ele>2664.098184</ele><time>2025-06-24T15:10:39Z</time><extensions><speed>0.545783</speed><course>125.936381</course><hAcc>2.531017</hAcc><vAcc>1.338768</vAcc></extensions></trkpt>
      <trkpt lon="7.857146" lat="46.562243"><ele>2664.088929</ele><time>2025-06-24T15:10:40Z</time><extensions><speed>0.384319</speed><course>123.605443</course><hAcc>2.547603</hAcc><vAcc>1.342174</vAcc></extensions></trkpt>
      <trkpt lon="7.857149" lat="46.562241"><ele>2664.043809</ele><time>2025-06-24T15:10:41Z</time><extensions><speed>0.205711</speed><course>117.615698</course><hAcc>2.553807</hAcc><vAcc>1.343064</vAcc></extensions></trkpt>
      <trkpt lon="7.857150" lat="46.562241"><ele>2663.989086</ele><time>2025-06-24T15:10:42Z</time><extensions><speed>0.108747</speed><course>117.336419</course><hAcc>2.546952</hAcc><vAcc>1.335202</vAcc></extensions></trkpt>
      <trkpt lon="7.857151" lat="46.562240"><ele>2663.938974</ele><time>2025-06-24T15:10:43Z</time><extensions><speed>0.076413</speed><course>135.241278</course><hAcc>2.534572</hAcc><vAcc>1.329019</vAcc></extensions></trkpt>
      <trkpt lon="7.857151" lat="46.562240"><ele>2663.899220</ele><time>2025-06-24T15:10:44Z</time><extensions><speed>0.035496</speed><course>164.789586</course><hAcc>2.521744</hAcc><vAcc>1.323112</vAcc></extensions></trkpt>
      <trkpt lon="7.857151" lat="46.562240"><ele>2663.855541</ele><time>2025-06-24T15:10:45Z</time><extensions><speed>0.029478</speed><course>247.131592</course><hAcc>2.509466</hAcc><vAcc>1.314527</vAcc></extensions></trkpt>
      <trkpt lon="7.857151" lat="46.562240"><ele>2663.847550</ele><time>2025-06-24T15:10:46Z</time><extensions><speed>0.055389</speed><course>285.462681</course><hAcc>2.496435</hAcc><vAcc>1.300583</vAcc></extensions></trkpt>
      <trkpt lon="7.857150" lat="46.562240"><ele>2663.839249</ele><time>2025-06-24T15:10:47Z</time><extensions><speed>0.069473</speed><course>289.975126</course><hAcc>2.483521</hAcc><vAcc>1.290263</vAcc></extensions></trkpt>
      <trkpt lon="7.857149" lat="46.562240"><ele>2663.848558</ele><time>2025-06-24T15:10:48Z</time><extensions><speed>0.073577</speed><course>291.070957</course><hAcc>2.475820</hAcc><vAcc>1.284168</vAcc></extensions></trkpt>
      <trkpt lon="7.857148" lat="46.562240"><ele>2663.860605</ele><time>2025-06-24T15:10:49Z</time><extensions><speed>0.070935</speed><course>287.359397</course><hAcc>2.467868</hAcc><vAcc>1.277590</vAcc></extensions></trkpt>
      <trkpt lon="7.857147" lat="46.562241"><ele>2663.880227</ele><time>2025-06-24T15:10:50Z</time><extensions><speed>0.057378</speed><course>273.968360</course><hAcc>2.454294</hAcc><vAcc>1.270896</vAcc></extensions></trkpt>
      <trkpt lon="7.857146" lat="46.562241"><ele>2663.918445</ele><time>2025-06-24T15:10:51Z</time><extensions><speed>0.047440</speed><course>215.484046</course><hAcc>2.427895</hAcc><vAcc>1.263929</vAcc></extensions></trkpt>
      <trkpt lon="7.857146" lat="46.562240"><ele>2663.981557</ele><time>2025-06-24T15:10:52Z</time><extensions><speed>0.074870</speed><course>172.504482</course><hAcc>2.408234</hAcc><vAcc>1.254535</vAcc></extensions></trkpt>
      <trkpt lon="7.857146" lat="46.562239"><ele>2664.044726</ele><time>2025-06-24T15:10:53Z</time><extensions><speed>0.161553</speed><course>150.566033</course><hAcc>2.400712</hAcc><vAcc>1.245370</vAcc></extensions></trkpt>
      <trkpt lon="7.857148" lat="46.562237"><ele>2664.144834</ele><time>2025-06-24T15:10:54Z</time><extensions><speed>0.304652</speed><course>143.359288</course><hAcc>2.397752</hAcc><vAcc>1.235885</vAcc></extensions></trkpt>
      <trkpt lon="7.857151" lat="46.562235"><ele>2664.230335</ele><time>2025-06-24T15:10:55Z</time><extensions><speed>0.417217</speed><course>136.566541</course><hAcc>2.401407</hAcc><vAcc>1.227643</vAcc></extensions></trkpt>
      <trkpt lon="7.857154" lat="46.562233"><ele>2664.334295</ele><time>2025-06-24T15:10:56Z</time><extensions><speed>0.361635</speed><course>124.195409</course><hAcc>2.413585</hAcc><vAcc>1.219530</vAcc></extensions></trkpt>
      <trkpt lon="7.857157" lat="46.562232"><ele>2664.451524</ele><time>2025-06-24T15:10:57Z</time><extensions><speed>0.149730</speed><course>102.000945</course><hAcc>2.433587</hAcc><vAcc>1.210989</vAcc></extensions></trkpt>
      <trkpt lon="7.857158" lat="46.562231"><ele>2664.584431</ele><time>2025-06-24T15:10:58Z</time><extensions><speed>0.057947</speed><course>55.767895</course><hAcc>2.436718</hAcc><vAcc>1.203953</vAcc></extensions></trkpt>
      <trkpt lon="7.857159" lat="46.562232"><ele>2664.700420</ele><time>2025-06-24T15:10:59Z</time><extensions><speed>0.131163</speed><course>61.535418</course><hAcc>2.392915</hAcc><vAcc>1.198075</vAcc></extensions></trkpt>
      <trkpt lon="7.857161" lat="46.562232"><ele>2664.867144</ele><time>2025-06-24T15:11:00Z</time><extensions><speed>0.192218</speed><course>75.375305</course><hAcc>2.366668</hAcc><vAcc>1.192940</vAcc></extensions></trkpt>
      <trkpt lon="7.857165" lat="46.562233"><ele>2665.020122</ele><time>2025-06-24T15:11:01Z</time><extensions><speed>0.335664</speed><course>87.786102</course><hAcc>2.362699</hAcc><vAcc>1.187046</vAcc></extensions></trkpt>
      <trkpt lon="7.857170" lat="46.562232"><ele>2665.172426</ele><time>2025-06-24T15:11:01Z</time><extensions><speed>0.422228</speed><course>99.501077</course><hAcc>2.359540</hAcc><vAcc>1.184127</vAcc></extensions></trkpt>
      <trkpt lon="7.857176" lat="46.562231"><ele>2665.322003</ele><time>2025-06-24T15:11:02Z</time><extensions><speed>0.553534</speed><course>103.956000</course><hAcc>2.348328</hAcc><vAcc>1.182559</vAcc></extensions></trkpt>
      <trkpt lon="7.857184" lat="46.562230"><ele>2665.505022</ele><time>2025-06-24T15:11:03Z</time><extensions><speed>0.665803</speed><course>110.102766</course><hAcc>2.327833</hAcc><vAcc>1.182811</vAcc></extensions></trkpt>
      <trkpt lon="7.857193" lat="46.562227"><ele>2665.670143</ele><time>2025-06-24T15:11:04Z</time><extensions><speed>0.761335</speed><course>112.629164</course><hAcc>2.294271</hAcc><vAcc>1.182990</vAcc></extensions></trkpt>
      <trkpt lon="7.857202" lat="46.562224"><ele>2665.830024</ele><time>2025-06-24T15:11:05Z</time><extensions><speed>0.810698</speed><course>113.441558</course><hAcc>2.257788</hAcc><vAcc>1.182147</vAcc></extensions></trkpt>
      <trkpt lon="7.857212" lat="46.562221"><ele>2665.988073</ele><time>2025-06-24T15:11:06Z</time><extensions><speed>0.861758</speed><course>113.857019</course><hAcc>2.237766</hAcc><vAcc>1.183154</vAcc></extensions></trkpt>
      <trkpt lon="7.857223" lat="46.562217"><ele>2666.180807</ele><time>2025-06-24T15:11:07Z</time><extensions><speed>0.943271</speed><course>115.781296</course><hAcc>2.238139</hAcc><vAcc>1.185395</vAcc></extensions></trkpt>
      <trkpt lon="7.857235" lat="46.562214"><ele>2666.315046</ele><time>2025-06-24T15:11:08Z</time><extensions><speed>0.954676</speed><course>113.095377</course><hAcc>2.230424</hAcc><vAcc>1.187581</vAcc></extensions></trkpt>
      <trkpt lon="7.857247" lat="46.562210"><ele>2666.428575</ele><time>2025-06-24T15:11:09Z</time><extensions><speed>1.010462</speed><course>111.379119</course><hAcc>2.197576</hAcc><vAcc>1.189300</vAcc></extensions></trkpt>
      <trkpt lon="7.857260" lat="46.562207"><ele>2666.527509</ele><time>2025-06-24T15:11:10Z</time><extensions><speed>1.160114</speed><course>111.051712</course><hAcc>2.190785</hAcc><vAcc>1.189273</vAcc></extensions></trkpt>
      <trkpt lon="7.857275" lat="46.562203"><ele>2666.566734</ele><time>2025-06-24T15:11:11Z</time><extensions><speed>1.195230</speed><course>114.907445</course><hAcc>2.194466</hAcc><vAcc>1.187870</vAcc></extensions></trkpt>
      <trkpt lon="7.857288" lat="46.562198"><ele>2666.566809</ele><time>2025-06-24T15:11:12Z</time><extensions><speed>1.101999</speed><course>118.833550</course><hAcc>2.193398</hAcc><vAcc>1.187080</vAcc></extensions></trkpt>
      <trkpt lon="7.857300" lat="46.562194"><ele>2666.526752</ele><time>2025-06-24T15:11:13Z</time><extensions><speed>1.033254</speed><course>121.040235</course><hAcc>2.170689</hAcc><vAcc>1.184739</vAcc></extensions></trkpt>
      <trkpt lon="7.857312" lat="46.562189"><ele>2666.444631</ele><time>2025-06-24T15:11:14Z</time><extensions><speed>1.077727</speed><course>119.882695</course><hAcc>2.145223</hAcc><vAcc>1.182571</vAcc></extensions></trkpt>
      <trkpt lon="7.857325" lat="46.562184"><ele>2666.324133</ele><time>2025-06-24T15:11:15Z</time><extensions><speed>1.118574</speed><course>116.825036</course><hAcc>2.140766</hAcc><vAcc>1.179532</vAcc></extensions></trkpt>
      <trkpt lon="7.857339" lat="46.562180"><ele>2666.186217</ele><time>2025-06-24T15:11:16Z</time><extensions><speed>1.136857</speed><course>112.704498</course><hAcc>2.161215</hAcc><vAcc>1.177473</vAcc></extensions></trkpt>
      <trkpt lon="7.857354" lat="46.562176"><ele>2666.014737</ele><time>2025-06-24T15:11:17Z</time><extensions><speed>1.166658</speed><course>105.121744</course><hAcc>2.163088</hAcc><vAcc>1.174882</vAcc></extensions></trkpt>
      <trkpt lon="7.857369" lat="46.562173"><ele>2665.825731</ele><time>2025-06-24T15:11:18Z</time><extensions><speed>1.249506</speed><course>99.596745</course><hAcc>2.156900</hAcc><vAcc>1.172691</vAcc></extensions></trkpt>
      <trkpt lon="7.857386" lat="46.562172"><ele>2665.604777</ele><time>2025-06-24T15:11:19Z</time><extensions><speed>1.286601</speed><course>96.460829</course><hAcc>2.147505</hAcc><vAcc>1.170220</vAcc></extensions></trkpt>
      <trkpt lon="7.857403" lat="46.562170"><ele>2665.326752</ele><time>2025-06-24T15:11:20Z</time><extensions><speed>1.246513</speed><course>94.374444</course><hAcc>2.114788</hAcc><vAcc>1.167904</vAcc></extensions></trkpt>
      <trkpt lon="7.857419" lat="46.562169"><ele>2665.028631</ele><time>2025-06-24T15:11:21Z</time><extensions><speed>1.192766</speed><course>92.345065</course><hAcc>2.070925</hAcc><vAcc>1.166476</vAcc></extensions></trkpt>
      <trkpt lon="7.857434" lat="46.562168"><ele>2664.719496</ele><time>2025-06-24T15:11:22Z</time><extensions><speed>1.141293</speed><course>90.080905</course><hAcc>2.062479</hAcc><vAcc>1.165502</vAcc></extensions></trkpt>
      <trkpt lon="7.857449" lat="46.562168"><ele>2664.408776</ele><time>2025-06-24T15:11:23Z</time><extensions><speed>1.093717</speed><course>86.451426</course><hAcc>2.063661</hAcc><vAcc>1.165042</vAcc></extensions></trkpt>
      <trkpt lon="7.857463" lat="46.562169"><ele>2664.082369</ele><time>2025-06-24T15:11:24Z</time><extensions><speed>1.087335</speed><course>82.567753</course><hAcc>2.049200</hAcc><vAcc>1.165367</vAcc></extensions></trkpt>
      <trkpt lon="7.857478" lat="46.562170"><ele>2663.768127</ele><time>2025-06-24T15:11:25Z</time><extensions><speed>1.138318</speed><course>84.729653</course><hAcc>2.025531</hAcc><vAcc>1.166399</vAcc></extensions></trkpt>
      <trkpt lon="7.857493" lat="46.562170"><ele>2663.429184</ele><time>2025-06-24T15:11:26Z</time><extensions><speed>1.182425</speed><course>87.240715</course><hAcc>1.994120</hAcc><vAcc>1.169323</vAcc></extensions></trkpt>
      <trkpt lon="7.857509" lat="46.562170"><ele>2663.062273</ele><time>2025-06-24T15:11:27Z</time><extensions><speed>1.160838</speed><course>88.362962</course><hAcc>1.969859</hAcc><vAcc>1.173929</vAcc></extensions></trkpt>
      <trkpt lon="7.857525" lat="46.562170"><ele>2662.725438</ele><time>2025-06-24T15:11:28Z</time><extensions><speed>1.240652</speed><course>87.129006</course><hAcc>1.951182</hAcc><vAcc>1.180323</vAcc></extensions></trkpt>
      <trkpt lon="7.857541" lat="46.562171"><ele>2662.368024</ele><time>2025-06-24T15:11:29Z</time><extensions><speed>1.256323</speed><course>86.068036</course><hAcc>1.928996</hAcc><vAcc>1.187346</vAcc></extensions></trkpt>
      <trkpt lon="7.857557" lat="46.562171"><ele>2662.026743</ele><time>2025-06-24T15:11:30Z</time><extensions><speed>1.230584</speed><course>89.242530</course><hAcc>1.908190</hAcc><vAcc>1.194915</vAcc></extensions></trkpt>
      <trkpt lon="7.857573" lat="46.562172"><ele>2661.713329</ele><time>2025-06-24T15:11:31Z</time><extensions><speed>1.259226</speed><course>88.324391</course><hAcc>1.903079</hAcc><vAcc>1.202424</vAcc></extensions></trkpt>
      <trkpt lon="7.857588" lat="46.562172"><ele>2661.382375</ele><time>2025-06-24T15:11:32Z</time><extensions><speed>1.252036</speed><course>87.737877</course><hAcc>1.901615</hAcc><vAcc>1.209587</vAcc></extensions></trkpt>
      <trkpt lon="7.857603" lat="46.562173"><ele>2661.078137</ele><time>2025-06-24T15:11:33Z</time><extensions><speed>1.150224</speed><course>88.220114</course><hAcc>1.903048</hAcc><vAcc>1.215776</vAcc></extensions></trkpt>
      <trkpt lon="7.857617" lat="46.562173"><ele>2660.811917</ele><time>2025-06-24T15:11:34Z</time><extensions><speed>1.112973</speed><course>86.622052</course><hAcc>1.886948</hAcc><vAcc>1.222146</vAcc></extensions></trkpt>
      <trkpt lon="7.857630" lat="46.562174"><ele>2660.550288</ele><time>2025-06-24T15:11:35Z</time><extensions><speed>1.014867</speed><course>81.536143</course><hAcc>1.887099</hAcc><vAcc>1.228828</vAcc></extensions></trkpt>
      <trkpt lon="7.857643" lat="46.562176"><ele>2660.314270</ele><time>2025-06-24T15:11:36Z</time><extensions><speed>0.998560</speed><course>75.656682</course><hAcc>1.903999</hAcc><vAcc>1.232673</vAcc></extensions></trkpt>
      <trkpt lon="7.857654" lat="46.562179"><ele>2660.086363</ele><time>2025-06-24T15:11:37Z</time><extensions><speed>0.853995</speed><course>74.185531</course><hAcc>1.917360</hAcc><vAcc>1.236319</vAcc></extensions></trkpt>
      <trkpt lon="7.857663" lat="46.562181"><ele>2659.863313</ele><time>2025-06-24T15:11:38Z</time><extensions><speed>0.612147</speed><course>64.496191</course><hAcc>1.913932</hAcc><vAcc>1.240756</vAcc></extensions></trkpt>
      <trkpt lon="7.857666" lat="46.562183"><ele>2659.668444</ele><time>2025-06-24T15:11:39Z</time><extensions><speed>0.156556</speed><course>4.576952</course><hAcc>1.912994</hAcc><vAcc>1.243835</vAcc></extensions></trkpt>
      <trkpt lon="7.857663" lat="46.562184"><ele>2659.472439</ele><time>2025-06-24T15:11:40Z</time><extensions><speed>0.423079</speed><course>287.925815</course><hAcc>1.924169</hAcc><vAcc>1.245018</vAcc></extensions></trkpt>
      <trkpt lon="7.857656" lat="46.562185"><ele>2659.282206</ele><time>2025-06-24T15:11:41Z</time><extensions><speed>0.719344</speed><course>276.524153</course><hAcc>1.928448</hAcc><vAcc>1.245107</vAcc></extensions></trkpt>
      <trkpt lon="7.857644" lat="46.562186"><ele>2659.127942</ele><time>2025-06-24T15:11:42Z</time><extensions><speed>1.034083</speed><course>267.356697</course><hAcc>1.930241</hAcc><vAcc>1.243874</vAcc></extensions></trkpt>
      <trkpt lon="7.857628" lat="46.562185"><ele>2659.008765</ele><time>2025-06-24T15:11:43Z</time><extensions><speed>1.328430</speed><course>265.883767</course><hAcc>1.937411</hAcc><vAcc>1.239601</vAcc></extensions></trkpt>
      <trkpt lon="7.857609" lat="46.562185"><ele>2658.896475</ele><time>2025-06-24T15:11:44Z</time><extensions><speed>1.536975</speed><course>267.943178</course><hAcc>1.933570</hAcc><vAcc>1.234095</vAcc></extensions></trkpt>
      <trkpt lon="7.857589" lat="46.562184"><ele>2658.790202</ele><time>2025-06-24T15:11:45Z</time><extensions><speed>1.608480</speed><course>267.838873</course><hAcc>1.909892</hAcc><vAcc>1.227191</vAcc></extensions></trkpt>
      <trkpt lon="7.857568" lat="46.562184"><ele>2658.731108</ele><time>2025-06-24T15:11:46Z</time><extensions><speed>1.566047</speed><course>266.088405</course><hAcc>1.876963</hAcc><vAcc>1.220283</vAcc></extensions></trkpt>
      <trkpt lon="7.857548" lat="46.562183"><ele>2658.688850</ele><time>2025-06-24T15:11:48Z</time><extensions><speed>1.506017</speed><course>264.042803</course><hAcc>1.855255</hAcc><vAcc>1.213536</vAcc></extensions></trkpt>
      <trkpt lon="7.857529" lat="46.562181"><ele>2658.660404</ele><time>2025-06-24T15:11:49Z</time><extensions><speed>1.485936</speed><course>262.010596</course><hAcc>1.838680</hAcc><vAcc>1.205668</vAcc></extensions></trkpt>
      <trkpt lon="7.857509" lat="46.562179"><ele>2658.638354</ele><time>2025-06-24T15:11:50Z</time><extensions><speed>1.498725</speed><course>263.669041</course><hAcc>1.819387</hAcc><vAcc>1.197101</vAcc></extensions></trkpt>
      <trkpt lon="7.857490" lat="46.562178"><ele>2658.653222</ele><time>2025-06-24T15:11:51Z</time><extensions><speed>1.506048</speed><course>266.633933</course><hAcc>1.798937</hAcc><vAcc>1.186643</vAcc></extensions></trkpt>
      <trkpt lon="7.857470" lat="46.562177"><ele>2658.687415</ele><time>2025-06-24T15:11:52Z</time><extensions><speed>1.499075</speed><course>267.835082</course><hAcc>1.786490</hAcc><vAcc>1.173811</vAcc></extensions></trkpt>
      <trkpt lon="7.857451" lat="46.562177"><ele>2658.737917</ele><time>2025-06-24T15:11:53Z</time><extensions><speed>1.461382</speed><course>266.493674</course><hAcc>1.772231</hAcc><vAcc>1.160780</vAcc></extensions></trkpt>
      <trkpt lon="7.857433" lat="46.562176"><ele>2658.785371</ele><time>2025-06-24T15:11:54Z</time><extensions><speed>1.374705</speed><course>266.803947</course><hAcc>1.756278</hAcc><vAcc>1.149020</vAcc></extensions></trkpt>
      <trkpt lon="7.857416" lat="46.562175"><ele>2658.857962</ele><time>2025-06-24T15:11:55Z</time><extensions><speed>1.288466</speed><course>265.106970</course><hAcc>1.749834</hAcc><vAcc>1.138119</vAcc></extensions></trkpt>
      <trkpt lon="7.857400" lat="46.562174"><ele>2658.925551</ele><time>2025-06-24T15:11:56Z</time><extensions><speed>1.198617</speed><course>265.450764</course><hAcc>1.736697</hAcc><vAcc>1.128887</vAcc></extensions></trkpt>
      <trkpt lon="7.857386" lat="46.562173"><ele>2659.036767</ele><time>2025-06-24T15:11:57Z</time><extensions><speed>1.112650</speed><course>266.302418</course><hAcc>1.731525</hAcc><vAcc>1.118619</vAcc></extensions></trkpt>
      <trkpt lon="7.857372" lat="46.562172"><ele>2659.186195</ele><time>2025-06-24T15:11:58Z</time><extensions><speed>1.083439</speed><course>260.781488</course><hAcc>1.740504</hAcc><vAcc>1.108199</vAcc></extensions></trkpt>
      <trkpt lon="7.857358" lat="46.562170"><ele>2659.386858</ele><time>2025-06-24T15:11:59Z</time><extensions><speed>1.059363</speed><course>253.762760</course><hAcc>1.746996</hAcc><vAcc>1.095849</vAcc></extensions></trkpt>
      <trkpt lon="7.857346" lat="46.562167"><ele>2659.538296</ele><time>2025-06-24T15:12:00Z</time><extensions><speed>0.951044</speed><course>239.429420</course><hAcc>1.749969</hAcc><vAcc>1.082203</vAcc></extensions></trkpt>
      <trkpt lon="7.857338" lat="46.562162"><ele>2659.688814</ele><time>2025-06-24T15:12:01Z</time><extensions><speed>0.756488</speed><course>215.084972</course><hAcc>1.742830</hAcc><vAcc>1.070830</vAcc></extensions></trkpt>
      <trkpt lon="7.857336" lat="46.562156"><ele>2659.824412</ele><time>2025-06-24T15:12:02Z</time><extensions><speed>0.692249</speed><course>179.566746</course><hAcc>1.736405</hAcc><vAcc>1.060015</vAcc></extensions></trkpt>
      <trkpt lon="7.857338" lat="46.562149"><ele>2659.965579</ele><time>2025-06-24T15:12:03Z</time><extensions><speed>0.787642</speed><course>155.336027</course><hAcc>1.744013</hAcc><vAcc>1.050073</vAcc></extensions></trkpt>
      <trkpt lon="7.857344" lat="46.562143"><ele>2660.108658</ele><time>2025-06-24T15:12:04Z</time><extensions><speed>0.880253</speed><course>141.143997</course><hAcc>1.759845</hAcc><vAcc>1.041339</vAcc></extensions></trkpt>
      <trkpt lon="7.857352" lat="46.562137"><ele>2660.272725</ele><time>2025-06-24T15:12:05Z</time><extensions><speed>0.923101</speed><course>129.112175</course><hAcc>1.765246</hAcc><vAcc>1.033251</vAcc></extensions></trkpt>
      <trkpt lon="7.857362" lat="46.562133"><ele>2660.425088</ele><time>2025-06-24T15:12:06Z</time><extensions><speed>0.943875</speed><course>121.651850</course><hAcc>1.780403</hAcc><vAcc>1.026981</vAcc></extensions></trkpt>
      <trkpt lon="7.857373" lat="46.562128"><ele>2660.607052</ele><time>2025-06-24T15:12:07Z</time><extensions><speed>1.027024</speed><course>113.691449</course><hAcc>1.769878</hAcc><vAcc>1.021642</vAcc></extensions></trkpt>
      <trkpt lon="7.857386" lat="46.562126"><ele>2660.789820</ele><time>2025-06-24T15:12:08Z</time><extensions><speed>1.042230</speed><course>103.675062</course><hAcc>1.766276</hAcc><vAcc>1.016811</vAcc></extensions></trkpt>
      <trkpt lon="7.857399" lat="46.562124"><ele>2660.938510</ele><time>2025-06-24T15:12:09Z</time><extensions><speed>0.992485</speed><course>93.709998</course><hAcc>1.776651</hAcc><vAcc>1.012846</vAcc></extensions></trkpt>
      <trkpt lon="7.857412" lat="46.562124"><ele>2661.107745</ele><time>2025-06-24T15:12:10Z</time><extensions><speed>1.011103</speed><course>88.542432</course><hAcc>1.803503</hAcc><vAcc>1.009917</vAcc></extensions></trkpt>
      <trkpt lon="7.857425" lat="46.562124"><ele>2661.229203</ele><time>2025-06-24T15:12:11Z</time><extensions><speed>0.924574</speed><course>86.418881</course><hAcc>1.841841</hAcc><vAcc>1.008004</vAcc></extensions></trkpt>
      <trkpt lon="7.857437" lat="46.562125"><ele>2661.359151</ele><time>2025-06-24T15:12:12Z</time><extensions><speed>0.886417</speed><course>90.243372</course><hAcc>1.848671</hAcc><vAcc>1.007396</vAcc></extensions></trkpt>
      <trkpt lon="7.857448" lat="46.562124"><ele>2661.471691</ele><time>2025-06-24T15:12:13Z</time><extensions><speed>0.767253</speed><course>95.307454</course><hAcc>1.864640</hAcc><vAcc>1.006893</vAcc></extensions></trkpt>
      <trkpt lon="7.857457" lat="46.562123"><ele>2661.601775</ele><time>2025-06-24T15:12:14Z</time><extensions><speed>0.696625</speed><course>100.243639</course><hAcc>1.889254</hAcc><vAcc>1.008355</vAcc></extensions></trkpt>
      <trkpt lon="7.857465" lat="46.562122"><ele>2661.718925</ele><time>2025-06-24T15:12:15Z</time><extensions><speed>0.606500</speed><course>107.402786</course><hAcc>1.917734</hAcc><vAcc>1.010089</vAcc></extensions></trkpt>
      <trkpt lon="7.857472" lat="46.562121"><ele>2661.807751</ele><time>2025-06-24T15:12:16Z</time><extensions><speed>0.462531</speed><course>101.944920</course><hAcc>1.952338</hAcc><vAcc>1.011662</vAcc></extensions></trkpt>
      <trkpt lon="7.857477" lat="46.562120"><ele>2661.919025</ele><time>2025-06-24T15:12:17Z</time><extensions><speed>0.326351</speed><course>92.996371</course><hAcc>1.978643</hAcc><vAcc>1.013081</vAcc></extensions></trkpt>
      <trkpt lon="7.857482" lat="46.562120"><ele>2661.995895</ele><time>2025-06-24T15:12:18Z</time><extensions><speed>0.414042</speed><course>90.987328</course><hAcc>1.981208</hAcc><vAcc>1.015969</vAcc></extensions></trkpt>
      <trkpt lon="7.857488" lat="46.562120"><ele>2662.056106</ele><time>2025-06-24T15:12:19Z</time><extensions><speed>0.571963</speed><course>94.824760</course><hAcc>1.998394</hAcc><vAcc>1.019494</vAcc></extensions></trkpt>
      <trkpt lon="7.857496" lat="46.562119"><ele>2662.122275</ele><time>2025-06-24T15:12:20Z</time><extensions><speed>0.651212</speed><course>101.420592</course><hAcc>2.009239</hAcc><vAcc>1.023373</vAcc></extensions></trkpt>
      <trkpt lon="7.857504" lat="46.562118"><ele>2662.186892</ele><time>2025-06-24T15:12:21Z</time><extensions><speed>0.671676</speed><course>101.114742</course><hAcc>2.023105</hAcc><vAcc>1.026652</vAcc></extensions></trkpt>
      <trkpt lon="7.857511" lat="46.562117"><ele>2662.262726</ele><time>2025-06-24T15:12:22Z</time><extensions><speed>0.519544</speed><course>103.728784</course><hAcc>2.021177</hAcc><vAcc>1.029587</vAcc></extensions></trkpt>
      <trkpt lon="7.857517" lat="46.562115"><ele>2662.297380</ele><time>2025-06-24T15:12:23Z</time><extensions><speed>0.472922</speed><course>110.530712</course><hAcc>1.993649</hAcc><vAcc>1.031198</vAcc></extensions></trkpt>
      <trkpt lon="7.857522" lat="46.562113"><ele>2662.305978</ele><time>2025-06-24T15:12:24Z</time><extensions><speed>0.506576</speed><course>117.449902</course><hAcc>1.972461</hAcc><vAcc>1.031991</vAcc></extensions></trkpt>
      <trkpt lon="7.857529" lat="46.562111"><ele>2662.345043</ele><time>2025-06-24T15:12:25Z</time><extensions><speed>0.609679</speed><course>120.554768</course><hAcc>1.959534</hAcc><vAcc>1.032300</vAcc></extensions></trkpt>
      <trkpt lon="7.857536" lat="46.562107"><ele>2662.340924</ele><time>2025-06-24T15:12:26Z</time><extensions><speed>0.757067</speed><course>121.825701</course><hAcc>1.941630</hAcc><vAcc>1.032395</vAcc></extensions></trkpt>
      <trkpt lon="7.857546" lat="46.562103"><ele>2662.393783</ele><time>2025-06-24T15:12:27Z</time><extensions><speed>1.033419</speed><course>121.843775</course><hAcc>1.952389</hAcc><vAcc>1.032167</vAcc></extensions></trkpt>
      <trkpt lon="7.857557" lat="46.562098"><ele>2662.405453</ele><time>2025-06-24T15:12:28Z</time><extensions><speed>1.009852</speed><course>124.873285</course><hAcc>1.974485</hAcc><vAcc>1.031959</vAcc></extensions></trkpt>
      <trkpt lon="7.857565" lat="46.562092"><ele>2662.414751</ele><time>2025-06-24T15:12:29Z</time><extensions><speed>0.744266</speed><course>152.261745</course><hAcc>1.932895</hAcc><vAcc>1.031009</vAcc></extensions></trkpt>
      <trkpt lon="7.857567" lat="46.562086"><ele>2662.399004</ele><time>2025-06-24T15:12:30Z</time><extensions><speed>0.734011</speed><course>183.916817</course><hAcc>1.907167</hAcc><vAcc>1.029987</vAcc></extensions></trkpt>
      <trkpt lon="7.857565" lat="46.562079"><ele>2662.421631</ele><time>2025-06-24T15:12:31Z</time><extensions><speed>0.821619</speed><course>199.732521</course><hAcc>1.918874</hAcc><vAcc>1.028320</vAcc></extensions></trkpt>
      <trkpt lon="7.857560" lat="46.562072"><ele>2662.438552</ele><time>2025-06-24T15:12:32Z</time><extensions><speed>0.833200</speed><course>213.167192</course><hAcc>1.942887</hAcc><vAcc>1.026539</vAcc></extensions></trkpt>
      <trkpt lon="7.857553" lat="46.562066"><ele>2662.475672</ele><time>2025-06-24T15:12:33Z</time><extensions><speed>0.927041</speed><course>211.397857</course><hAcc>1.937041</hAcc><vAcc>1.024869</vAcc></extensions></trkpt>
      <trkpt lon="7.857547" lat="46.562058"><ele>2662.502045</ele><time>2025-06-24T15:12:34Z</time><extensions><speed>0.924702</speed><course>209.504469</course><hAcc>1.934525</hAcc><vAcc>1.022995</vAcc></extensions></trkpt>
      <trkpt lon="7.857541" lat="46.562051"><ele>2662.530924</ele><time>2025-06-24T15:12:35Z</time><extensions><speed>0.911122</speed><course>208.881214</course><hAcc>1.937921</hAcc><vAcc>1.020665</vAcc></extensions></trkpt>
      <trkpt lon="7.857535" lat="46.562044"><ele>2662.588718</ele><time>2025-06-24T15:12:36Z</time><extensions><speed>0.843330</speed><course>208.810125</course><hAcc>1.948307</hAcc><vAcc>1.020452</vAcc></extensions></trkpt>
      <trkpt lon="7.857530" lat="46.562037"><ele>2662.668401</ele><time>2025-06-24T15:12:37Z</time><extensions><speed>0.833436</speed><course>204.301850</course><hAcc>1.958074</hAcc><vAcc>1.020461</vAcc></extensions></trkpt>
      <trkpt lon="7.857527" lat="46.562031"><ele>2662.788233</ele><time>2025-06-24T15:12:38Z</time><extensions><speed>0.775193</speed><course>196.043887</course><hAcc>1.972524</hAcc><vAcc>1.022431</vAcc></extensions></trkpt>
      <trkpt lon="7.857524" lat="46.562024"><ele>2662.983826</ele><time>2025-06-24T15:12:39Z</time><extensions><speed>0.698896</speed><course>189.595957</course><hAcc>1.981247</hAcc><vAcc>1.024108</vAcc></extensions></trkpt>
      <trkpt lon="7.857523" lat="46.562018"><ele>2663.191256</ele><time>2025-06-24T15:12:40Z</time><extensions><speed>0.750745</speed><course>190.118691</course><hAcc>1.982065</hAcc><vAcc>1.027411</vAcc></extensions></trkpt>
      <trkpt lon="7.857520" lat="46.562012"><ele>2663.440084</ele><time>2025-06-24T15:12:41Z</time><extensions><speed>0.737822</speed><course>200.735393</course><hAcc>1.982838</hAcc><vAcc>1.032127</vAcc></extensions></trkpt>
      <trkpt lon="7.857516" lat="46.562005"><ele>2663.730063</ele><time>2025-06-24T15:12:42Z</time><extensions><speed>0.773647</speed><course>209.968723</course><hAcc>1.990169</hAcc><vAcc>1.037499</vAcc></extensions></trkpt>
      <trkpt lon="7.857511" lat="46.561999"><ele>2664.071522</ele><time>2025-06-24T15:12:43Z</time><extensions><speed>0.902979</speed><course>211.445420</course><hAcc>1.996045</hAcc><vAcc>1.043152</vAcc></extensions></trkpt>
      <trkpt lon="7.857504" lat="46.561992"><ele>2664.420693</ele><time>2025-06-24T15:12:44Z</time><extensions><speed>0.966911</speed><course>211.232111</course><hAcc>2.000470</hAcc><vAcc>1.051619</vAcc></extensions></trkpt>
      <trkpt lon="7.857498" lat="46.561984"><ele>2664.815892</ele><time>2025-06-24T15:12:45Z</time><extensions><speed>0.970036</speed><course>210.133856</course><hAcc>2.011845</hAcc><vAcc>1.060583</vAcc></extensions></trkpt>
      <trkpt lon="7.857493" lat="46.561977"><ele>2665.237496</ele><time>2025-06-24T15:12:46Z</time><extensions><speed>0.893064</speed><course>201.701804</course><hAcc>2.040187</hAcc><vAcc>1.069603</vAcc></extensions></trkpt>
      <trkpt lon="7.857490" lat="46.561970"><ele>2665.738803</ele><time>2025-06-24T15:12:47Z</time><extensions><speed>0.680569</speed><course>188.579343</course><hAcc>2.048283</hAcc><vAcc>1.077255</vAcc></extensions></trkpt>
      <trkpt lon="7.857490" lat="46.561964"><ele>2666.249631</ele><time>2025-06-24T15:12:48Z</time><extensions><speed>0.642344</speed><course>171.255068</course><hAcc>2.055108</hAcc><vAcc>1.086027</vAcc></extensions></trkpt>
      <trkpt lon="7.857492" lat="46.561958"><ele>2666.777163</ele><time>2025-06-24T15:12:49Z</time><extensions><speed>0.647467</speed><course>166.533335</course><hAcc>2.052289</hAcc><vAcc>1.096305</vAcc></extensions></trkpt>
      <trkpt lon="7.857494" lat="46.561953"><ele>2667.275465</ele><time>2025-06-24T15:12:50Z</time><extensions><speed>0.720212</speed><course>163.957798</course><hAcc>2.056362</hAcc><vAcc>1.107319</vAcc></extensions></trkpt>
      <trkpt lon="7.857497" lat="46.561946"><ele>2667.789191</ele><time>2025-06-24T15:12:51Z</time><extensions><speed>0.753207</speed><course>164.135237</course><hAcc>2.060836</hAcc><vAcc>1.120073</vAcc></extensions></trkpt>
      <trkpt lon="7.857500" lat="46.561940"><ele>2668.300704</ele><time>2025-06-24T15:12:52Z</time><extensions><speed>0.775647</speed><course>165.447459</course><hAcc>2.064675</hAcc><vAcc>1.133387</vAcc></extensions></trkpt>
      <trkpt lon="7.857503" lat="46.561933"><ele>2668.803455</ele><time>2025-06-24T15:12:53Z</time><extensions><speed>0.791595</speed><course>166.123052</course><hAcc>2.075438</hAcc><vAcc>1.146823</vAcc></extensions></trkpt>
      <trkpt lon="7.857506" lat="46.561926"><ele>2669.309307</ele><time>2025-06-24T15:12:54Z</time><extensions><speed>0.760931</speed><course>159.624731</course><hAcc>2.071786</hAcc><vAcc>1.159425</vAcc></extensions></trkpt>
      <trkpt lon="7.857510" lat="46.561920"><ele>2669.830420</ele><time>2025-06-24T15:12:55Z</time><extensions><speed>0.816247</speed><course>150.073386</course><hAcc>2.066314</hAcc><vAcc>1.172180</vAcc></extensions></trkpt>
      <trkpt lon="7.857517" lat="46.561913"><ele>2670.343654</ele><time>2025-06-24T15:12:55Z</time><extensions><speed>0.932421</speed><course>144.451031</course><hAcc>2.074803</hAcc><vAcc>1.180721</vAcc></extensions></trkpt>
      <trkpt lon="7.857525" lat="46.561907"><ele>2670.847285</ele><time>2025-06-24T15:12:56Z</time><extensions><speed>0.971314</speed><course>133.976403</course><hAcc>2.062399</hAcc><vAcc>1.184927</vAcc></extensions></trkpt>
      <trkpt lon="7.857535" lat="46.561901"><ele>2671.349020</ele><time>2025-06-24T15:12:57Z</time><extensions><speed>1.057695</speed><course>127.117077</course><hAcc>2.066357</hAcc><vAcc>1.181602</vAcc></extensions></trkpt>
      <trkpt lon="7.857546" lat="46.561895"><ele>2671.846797</ele><time>2025-06-24T15:12:58Z</time><extensions><speed>1.073611</speed><course>122.776131</course><hAcc>2.085847</hAcc><vAcc>1.170515</vAcc></extensions></trkpt>
      <trkpt lon="7.857558" lat="46.561890"><ele>2672.303104</ele><time>2025-06-24T15:12:59Z</time><extensions><speed>1.082457</speed><course>124.956432</course><hAcc>2.102345</hAcc><vAcc>1.165437</vAcc></extensions></trkpt>
      <trkpt lon="7.857568" lat="46.561885"><ele>2672.759037</ele><time>2025-06-24T15:13:00Z</time><extensions><speed>0.795730</speed><course>115.113733</course><hAcc>2.116310</hAcc><vAcc>1.153394</vAcc></extensions></trkpt>
      <trkpt lon="7.857577" lat="46.561884"><ele>2673.198481</ele><time>2025-06-24T15:13:01Z</time><extensions><speed>0.574878</speed><course>93.651866</course><hAcc>2.137935</hAcc><vAcc>1.133124</vAcc></extensions></trkpt>
      <trkpt lon="7.857584" lat="46.561884"><ele>2673.583652</ele><time>2025-06-24T15:13:02Z</time><extensions><speed>0.536072</speed><course>78.352495</course><hAcc>2.131127</hAcc><vAcc>1.112684</vAcc></extensions></trkpt>
      <trkpt lon="7.857590" lat="46.561885"><ele>2673.967613</ele><time>2025-06-24T15:13:03Z</time><extensions><speed>0.425409</speed><course>75.941099</course><hAcc>2.147148</hAcc><vAcc>1.090666</vAcc></extensions></trkpt>
      <trkpt lon="7.857594" lat="46.561885"><ele>2674.329201</ele><time>2025-06-24T15:13:04Z</time><extensions><speed>0.256395</speed><course>94.541865</course><hAcc>2.163709</hAcc><vAcc>1.067237</vAcc></extensions></trkpt>
      <trkpt lon="7.857597" lat="46.561885"><ele>2674.673446</ele><time>2025-06-24T15:13:05Z</time><extensions><speed>0.205991</speed><course>124.222741</course><hAcc>2.182934</hAcc><vAcc>1.041968</vAcc></extensions></trkpt>
      <trkpt lon="7.857599" lat="46.561883"><ele>2674.986612</ele><time>2025-06-24T15:13:06Z</time><extensions><speed>0.208977</speed><course>155.024756</course><hAcc>2.211217</hAcc><vAcc>1.014976</vAcc></extensions></trkpt>
      <trkpt lon="7.857599" lat="46.561881"><ele>2675.298732</ele><time>2025-06-24T15:13:07Z</time><extensions><speed>0.229810</speed><course>173.626286</course><hAcc>2.248896</hAcc><vAcc>0.987797</vAcc></extensions></trkpt>
      <trkpt lon="7.857599" lat="46.561879"><ele>2675.600227</ele><time>2025-06-24T15:13:08Z</time><extensions><speed>0.238072</speed><course>183.384362</course><hAcc>2.299491</hAcc><vAcc>0.960288</vAcc></extensions></trkpt>
      <trkpt lon="7.857599" lat="46.561877"><ele>2675.883446</ele><time>2025-06-24T15:13:09Z</time><extensions><speed>0.220194</speed><course>190.790484</course><hAcc>2.355357</hAcc><vAcc>0.933557</vAcc></extensions></trkpt>
      <trkpt lon="7.857598" lat="46.561875"><ele>2676.144562</ele><time>2025-06-24T15:13:10Z</time><extensions><speed>0.224296</speed><course>199.428422</course><hAcc>2.384998</hAcc><vAcc>0.907875</vAcc></extensions></trkpt>
      <trkpt lon="7.857597" lat="46.561873"><ele>2676.376296</ele><time>2025-06-24T15:13:11Z</time><extensions><speed>0.244516</speed><course>208.138756</course><hAcc>2.407318</hAcc><vAcc>0.884494</vAcc></extensions></trkpt>
      <trkpt lon="7.857595" lat="46.561871"><ele>2676.572335</ele><time>2025-06-24T15:13:12Z</time><extensions><speed>0.259324</speed><course>209.322854</course><hAcc>2.432240</hAcc><vAcc>0.864329</vAcc></extensions></trkpt>
      <trkpt lon="7.857593" lat="46.561869"><ele>2676.747781</ele><time>2025-06-24T15:13:13Z</time><extensions><speed>0.308723</speed><course>208.178085</course><hAcc>2.459397</hAcc><vAcc>0.847893</vAcc></extensions></trkpt>
      <trkpt lon="7.857591" lat="46.561866"><ele>2676.900820</ele><time>2025-06-24T15:13:14Z</time><extensions><speed>0.401480</speed><course>208.939646</course><hAcc>2.487727</hAcc><vAcc>0.835489</vAcc></extensions></trkpt>
      <trkpt lon="7.857588" lat="46.561862"><ele>2677.027976</ele><time>2025-06-24T15:13:15Z</time><extensions><speed>0.473709</speed><course>207.010338</course><hAcc>2.508505</hAcc><vAcc>0.827050</vAcc></extensions></trkpt>
      <trkpt lon="7.857586" lat="46.561858"><ele>2677.153219</ele><time>2025-06-24T15:13:16Z</time><extensions><speed>0.521359</speed><course>202.785712</course><hAcc>2.536921</hAcc><vAcc>0.828577</vAcc></extensions></trkpt>
      <trkpt lon="7.857584" lat="46.561854"><ele>2677.263712</ele><time>2025-06-24T15:13:17Z</time><extensions><speed>0.535014</speed><course>195.256039</course><hAcc>2.583225</hAcc><vAcc>0.837671</vAcc></extensions></trkpt>
      <trkpt lon="7.857582" lat="46.561849"><ele>2677.360210</ele><time>2025-06-24T15:13:18Z</time><extensions><speed>0.517945</speed><course>183.276957</course><hAcc>2.647846</hAcc><vAcc>0.855956</vAcc></extensions></trkpt>
      <trkpt lon="7.857583" lat="46.561845"><ele>2677.443676</ele><time>2025-06-24T15:13:19Z</time><extensions><speed>0.510270</speed><course>168.102590</course><hAcc>2.752662</hAcc><vAcc>0.885637</vAcc></extensions></trkpt>
      <trkpt lon="7.857585" lat="46.561840"><ele>2677.515577</ele><time>2025-06-24T15:13:20Z</time><extensions><speed>0.539433</speed><course>149.570832</course><hAcc>2.931369</hAcc><vAcc>0.929474</vAcc></extensions></trkpt>
      <trkpt lon="7.857590" lat="46.561836"><ele>2677.577915</ele><time>2025-06-24T15:13:21Z</time><extensions><speed>0.608469</speed><course>131.517786</course><hAcc>3.234830</hAcc><vAcc>0.990498</vAcc></extensions></trkpt>
      <trkpt lon="7.857597" lat="46.561833"><ele>2677.633065</ele><time>2025-06-24T15:13:22Z</time><extensions><speed>0.661421</speed><course>120.903558</course><hAcc>3.728805</hAcc><vAcc>1.071601</vAcc></extensions></trkpt>
      <trkpt lon="7.857605" lat="46.561830"><ele>2677.683398</ele><time>2025-06-24T15:13:23Z</time><extensions><speed>0.682589</speed><course>114.246144</course><hAcc>4.469805</hAcc><vAcc>1.175156</vAcc></extensions></trkpt>
      <trkpt lon="7.857613" lat="46.561828"><ele>2677.730902</ele><time>2025-06-24T15:13:24Z</time><extensions><speed>0.687452</speed><course>109.696348</course><hAcc>5.511225</hAcc><vAcc>1.302805</vAcc></extensions></trkpt>
      <trkpt lon="7.857621" lat="46.561826"><ele>2677.777078</ele><time>2025-06-24T15:13:25Z</time><extensions><speed>0.686875</speed><course>106.949424</course><hAcc>6.907402</hAcc><vAcc>1.455380</vAcc></extensions></trkpt>
    </trkseg>
  </trk>
</gpx>