<?xml version="1.0" encoding="UTF-8"?>
<gpx version="1.1" creator="Apple Health Export" xmlns="http://www.topografix.com/GPX/1/1" xmlns:xsi="http://www.w3.org/2001/XMLSchema-instance" xsi:schemaLocation="http://www.topografix.com/GPX/1/1 http://www.topografix.com/GPX/1/1/gpx.xsd">
  <metadata>
    <time>2026-06-04T15:24:54Z</time>
  </metadata>
  <trk>
    <name>Route 2025-03-20 10:40pm</name>
    <trkseg>
      <trkpt lon="12.477378" lat="41.894851"><ele>15.134191</ele><time>2025-03-20T20:36:07Z</time><extensions><speed>1.335923</speed><course>174.105493</course><hAcc>4.800290</hAcc><vAcc>2.227754</vAcc></extensions></trkpt>
      <trkpt lon="12.477396" lat="41.894711"><ele>15.250996</ele><time>2025-03-20T20:36:18Z</time><extensions><speed>1.270747</speed><course>175.287905</course><hAcc>3.157675</hAcc><vAcc>1.402266</vAcc></extensions></trkpt>
      <trkpt lon="12.477397" lat="41.894699"><ele>15.264107</ele><time>2025-03-20T20:36:19Z</time><extensions><speed>1.267195</speed><course>175.313133</course><hAcc>3.059943</hAcc><vAcc>1.307702</vAcc></extensions></trkpt>
      <trkpt lon="12.477399" lat="41.894688"><ele>15.277285</ele><time>2025-03-20T20:36:20Z</time><extensions><speed>1.264051</speed><course>175.340613</course><hAcc>2.968380</hAcc><vAcc>1.232765</vAcc></extensions></trkpt>
      <trkpt lon="12.477400" lat="41.894677"><ele>15.290452</ele><time>2025-03-20T20:36:21Z</time><extensions><speed>1.260959</speed><course>175.366993</course><hAcc>2.882784</hAcc><vAcc>1.176104</vAcc></extensions></trkpt>
      <trkpt lon="12.477401" lat="41.894666"><ele>15.303351</ele><time>2025-03-20T20:36:22Z</time><extensions><speed>1.257801</speed><course>175.392002</course><hAcc>2.802914</hAcc><vAcc>1.135577</vAcc></extensions></trkpt>
      <trkpt lon="12.477402" lat="41.894655"><ele>15.315718</ele><time>2025-03-20T20:36:23Z</time><extensions><speed>1.254829</speed><course>175.418473</course><hAcc>2.728273</hAcc><vAcc>1.108517</vAcc></extensions></trkpt>
      <trkpt lon="12.477404" lat="41.894644"><ele>15.327311</ele><time>2025-03-20T20:36:24Z</time><extensions><speed>1.251783</speed><course>175.441597</course><hAcc>2.659000</hAcc><vAcc>1.092085</vAcc></extensions></trkpt>
      <trkpt lon="12.477405" lat="41.894633"><ele>15.337881</ele><time>2025-03-20T20:36:25Z</time><extensions><speed>1.248285</speed><course>175.455029</course><hAcc>2.595132</hAcc><vAcc>1.083565</vAcc></extensions></trkpt>
      <trkpt lon="12.477406" lat="41.894622"><ele>15.347244</ele><time>2025-03-20T20:36:26Z</time><extensions><speed>1.248574</speed><course>175.491471</course><hAcc>2.535896</hAcc><vAcc>1.080564</vAcc></extensions></trkpt>
      <trkpt lon="12.477407" lat="41.894612"><ele>15.355093</ele><time>2025-03-20T20:36:27Z</time><extensions><speed>1.248680</speed><course>175.529102</course><hAcc>2.481431</hAcc><vAcc>1.081087</vAcc></extensions></trkpt>
      <trkpt lon="12.477408" lat="41.894601"><ele>15.361488</ele><time>2025-03-20T20:36:28Z</time><extensions><speed>1.248795</speed><course>175.572241</course><hAcc>2.431455</hAcc><vAcc>1.083559</vAcc></extensions></trkpt>
      <trkpt lon="12.477410" lat="41.894591"><ele>15.366495</ele><time>2025-03-20T20:36:29Z</time><extensions><speed>1.248702</speed><course>175.616851</course><hAcc>2.385787</hAcc><vAcc>1.086786</vAcc></extensions></trkpt>
      <trkpt lon="12.477411" lat="41.894580"><ele>15.369860</ele><time>2025-03-20T20:36:30Z</time><extensions><speed>1.248012</speed><course>175.669904</course><hAcc>2.344222</hAcc><vAcc>1.089918</vAcc></extensions></trkpt>
      <trkpt lon="12.477412" lat="41.894569"><ele>15.371531</ele><time>2025-03-20T20:36:31Z</time><extensions><speed>1.247062</speed><course>175.716411</course><hAcc>2.306513</hAcc><vAcc>1.092374</vAcc></extensions></trkpt>
      <trkpt lon="12.477413" lat="41.894558"><ele>15.371529</ele><time>2025-03-20T20:36:32Z</time><extensions><speed>1.247592</speed><course>175.750362</course><hAcc>2.271768</hAcc><vAcc>1.093771</vAcc></extensions></trkpt>
      <trkpt lon="12.477414" lat="41.894547"><ele>15.370000</ele><time>2025-03-20T20:36:33Z</time><extensions><speed>1.248175</speed><course>175.867616</course><hAcc>2.240244</hAcc><vAcc>1.093881</vAcc></extensions></trkpt>
      <trkpt lon="12.477415" lat="41.894537"><ele>15.366961</ele><time>2025-03-20T20:36:34Z</time><extensions><speed>1.248690</speed><course>175.986301</course><hAcc>2.211828</hAcc><vAcc>1.092604</vAcc></extensions></trkpt>
      <trkpt lon="12.477416" lat="41.894526"><ele>15.362428</ele><time>2025-03-20T20:36:35Z</time><extensions><speed>1.248395</speed><course>176.109451</course><hAcc>2.186218</hAcc><vAcc>1.089948</vAcc></extensions></trkpt>
      <trkpt lon="12.477417" lat="41.894514"><ele>15.356440</ele><time>2025-03-20T20:36:36Z</time><extensions><speed>1.246958</speed><course>176.235343</course><hAcc>2.162897</hAcc><vAcc>1.086009</vAcc></extensions></trkpt>
      <trkpt lon="12.477418" lat="41.894503"><ele>15.349257</ele><time>2025-03-20T20:36:37Z</time><extensions><speed>1.245624</speed><course>176.357607</course><hAcc>2.142499</hAcc><vAcc>1.080963</vAcc></extensions></trkpt>
      <trkpt lon="12.477419" lat="41.894492"><ele>15.340527</ele><time>2025-03-20T20:36:38Z</time><extensions><speed>1.244518</speed><course>176.479391</course><hAcc>2.124322</hAcc><vAcc>1.075065</vAcc></extensions></trkpt>
      <trkpt lon="12.477420" lat="41.894481"><ele>15.330077</ele><time>2025-03-20T20:36:39Z</time><extensions><speed>1.243407</speed><course>176.603514</course><hAcc>2.108088</hAcc><vAcc>1.068636</vAcc></extensions></trkpt>
      <trkpt lon="12.477421" lat="41.894469"><ele>15.317852</ele><time>2025-03-20T20:36:40Z</time><extensions><speed>1.242607</speed><course>176.732607</course><hAcc>2.093181</hAcc><vAcc>1.062039</vAcc></extensions></trkpt>
      <trkpt lon="12.477422" lat="41.894458"><ele>15.303843</ele><time>2025-03-20T20:36:41Z</time><extensions><speed>1.241864</speed><course>176.860064</course><hAcc>2.080327</hAcc><vAcc>1.055604</vAcc></extensions></trkpt>
      <trkpt lon="12.477423" lat="41.894447"><ele>15.287770</ele><time>2025-03-20T20:36:42Z</time><extensions><speed>1.241049</speed><course>176.988855</course><hAcc>2.069212</hAcc><vAcc>1.049583</vAcc></extensions></trkpt>
      <trkpt lon="12.477424" lat="41.894435"><ele>15.269528</ele><time>2025-03-20T20:36:43Z</time><extensions><speed>1.239908</speed><course>177.117844</course><hAcc>2.059523</hAcc><vAcc>1.044188</vAcc></extensions></trkpt>
      <trkpt lon="12.477425" lat="41.894424"><ele>15.248948</ele><time>2025-03-20T20:36:44Z</time><extensions><speed>1.238813</speed><course>177.246817</course><hAcc>2.050889</hAcc><vAcc>1.039630</vAcc></extensions></trkpt>
      <trkpt lon="12.477425" lat="41.894412"><ele>15.225907</ele><time>2025-03-20T20:36:45Z</time><extensions><speed>1.237607</speed><course>177.368922</course><hAcc>2.043324</hAcc><vAcc>1.036105</vAcc></extensions></trkpt>
      <trkpt lon="12.477426" lat="41.894401"><ele>15.200341</ele><time>2025-03-20T20:36:46Z</time><extensions><speed>1.236242</speed><course>177.485310</course><hAcc>2.036730</hAcc><vAcc>1.033748</vAcc></extensions></trkpt>
      <trkpt lon="12.477427" lat="41.894389"><ele>15.172283</ele><time>2025-03-20T20:36:47Z</time><extensions><speed>1.234867</speed><course>177.595623</course><hAcc>2.030920</hAcc><vAcc>1.032575</vAcc></extensions></trkpt>
      <trkpt lon="12.477427" lat="41.894378"><ele>15.141905</ele><time>2025-03-20T20:36:48Z</time><extensions><speed>1.233122</speed><course>177.707573</course><hAcc>2.026113</hAcc><vAcc>1.032429</vAcc></extensions></trkpt>
      <trkpt lon="12.477428" lat="41.894366"><ele>15.109459</ele><time>2025-03-20T20:36:49Z</time><extensions><speed>1.231445</speed><course>177.827102</course><hAcc>2.021694</hAcc><vAcc>1.032957</vAcc></extensions></trkpt>
      <trkpt lon="12.477428" lat="41.894355"><ele>15.075362</ele><time>2025-03-20T20:36:50Z</time><extensions><speed>1.229701</speed><course>177.934984</course><hAcc>2.017723</hAcc><vAcc>1.033653</vAcc></extensions></trkpt>
      <trkpt lon="12.477429" lat="41.894343"><ele>15.040132</ele><time>2025-03-20T20:36:51Z</time><extensions><speed>1.228016</speed><course>178.050583</course><hAcc>2.014105</hAcc><vAcc>1.033956</vAcc></extensions></trkpt>
      <trkpt lon="12.477429" lat="41.894332"><ele>15.004403</ele><time>2025-03-20T20:36:52Z</time><extensions><speed>1.225827</speed><course>178.171088</course><hAcc>2.011431</hAcc><vAcc>1.033331</vAcc></extensions></trkpt>
      <trkpt lon="12.477430" lat="41.894320"><ele>14.968680</ele><time>2025-03-20T20:36:53Z</time><extensions><speed>1.223444</speed><course>178.289491</course><hAcc>2.009237</hAcc><vAcc>1.031291</vAcc></extensions></trkpt>
      <trkpt lon="12.477430" lat="41.894309"><ele>14.933663</ele><time>2025-03-20T20:36:54Z</time><extensions><speed>1.220881</speed><course>178.405746</course><hAcc>2.007380</hAcc><vAcc>1.027418</vAcc></extensions></trkpt>
      <trkpt lon="12.477431" lat="41.894298"><ele>14.899782</ele><time>2025-03-20T20:36:55Z</time><extensions><speed>1.218354</speed><course>178.512713</course><hAcc>2.005659</hAcc><vAcc>1.021381</vAcc></extensions></trkpt>
      <trkpt lon="12.477431" lat="41.894286"><ele>14.867490</ele><time>2025-03-20T20:36:56Z</time><extensions><speed>1.215780</speed><course>178.610210</course><hAcc>2.004119</hAcc><vAcc>1.012949</vAcc></extensions></trkpt>
      <trkpt lon="12.477431" lat="41.894275"><ele>14.837134</ele><time>2025-03-20T20:36:57Z</time><extensions><speed>1.212922</speed><course>178.696955</course><hAcc>2.002724</hAcc><vAcc>1.001994</vAcc></extensions></trkpt>
      <trkpt lon="12.477432" lat="41.894264"><ele>14.808944</ele><time>2025-03-20T20:36:58Z</time><extensions><speed>1.209719</speed><course>178.771888</course><hAcc>2.001488</hAcc><vAcc>0.988477</vAcc></extensions></trkpt>
      <trkpt lon="12.477432" lat="41.894252"><ele>14.783053</ele><time>2025-03-20T20:36:59Z</time><extensions><speed>1.205857</speed><course>178.833464</course><hAcc>2.000351</hAcc><vAcc>0.972440</vAcc></extensions></trkpt>
      <trkpt lon="12.477432" lat="41.894241"><ele>14.759508</ele><time>2025-03-20T20:37:00Z</time><extensions><speed>1.201406</speed><course>178.896858</course><hAcc>1.999276</hAcc><vAcc>0.954021</vAcc></extensions></trkpt>
      <trkpt lon="12.477432" lat="41.894230"><ele>14.738294</ele><time>2025-03-20T20:37:01Z</time><extensions><speed>1.196572</speed><course>178.955309</course><hAcc>1.998251</hAcc><vAcc>0.933480</vAcc></extensions></trkpt>
      <trkpt lon="12.477433" lat="41.894219"><ele>14.719689</ele><time>2025-03-20T20:37:02Z</time><extensions><speed>1.191798</speed><course>179.016919</course><hAcc>1.997509</hAcc><vAcc>0.911260</vAcc></extensions></trkpt>
      <trkpt lon="12.477433" lat="41.894208"><ele>14.703251</ele><time>2025-03-20T20:37:03Z</time><extensions><speed>1.186672</speed><course>179.087104</course><hAcc>1.996892</hAcc><vAcc>0.888046</vAcc></extensions></trkpt>
      <trkpt lon="12.477433" lat="41.894197"><ele>14.689866</ele><time>2025-03-20T20:37:04Z</time><extensions><speed>1.181283</speed><course>179.163953</course><hAcc>1.996422</hAcc><vAcc>0.864744</vAcc></extensions></trkpt>
      <trkpt lon="12.477433" lat="41.894186"><ele>14.679682</ele><time>2025-03-20T20:37:05Z</time><extensions><speed>1.175886</speed><course>179.235869</course><hAcc>1.996051</hAcc><vAcc>0.842355</vAcc></extensions></trkpt>
      <trkpt lon="12.477434" lat="41.894176"><ele>14.672916</ele><time>2025-03-20T20:37:06Z</time><extensions><speed>1.170184</speed><course>179.304017</course><hAcc>1.995786</hAcc><vAcc>0.821775</vAcc></extensions></trkpt>
      <trkpt lon="12.477434" lat="41.894165"><ele>14.669338</ele><time>2025-03-20T20:37:07Z</time><extensions><speed>1.163656</speed><course>179.371004</course><hAcc>1.995630</hAcc><vAcc>0.803622</vAcc></extensions></trkpt>
      <trkpt lon="12.477434" lat="41.894154"><ele>14.667784</ele><time>2025-03-20T20:37:08Z</time><extensions><speed>1.155881</speed><course>179.439973</course><hAcc>1.995572</hAcc><vAcc>0.788202</vAcc></extensions></trkpt>
      <trkpt lon="12.477434" lat="41.894144"><ele>14.669583</ele><time>2025-03-20T20:37:09Z</time><extensions><speed>1.147356</speed><course>179.510164</course><hAcc>1.994855</hAcc><vAcc>0.775554</vAcc></extensions></trkpt>
      <trkpt lon="12.477434" lat="41.894133"><ele>14.674442</ele><time>2025-03-20T20:37:10Z</time><extensions><speed>1.137622</speed><course>179.579693</course><hAcc>1.994561</hAcc><vAcc>0.765521</vAcc></extensions></trkpt>
      <trkpt lon="12.477434" lat="41.894123"><ele>14.681705</ele><time>2025-03-20T20:37:11Z</time><extensions><speed>1.126911</speed><course>179.646987</course><hAcc>1.994637</hAcc><vAcc>0.757815</vAcc></extensions></trkpt>
      <trkpt lon="12.477434" lat="41.894112"><ele>14.691429</ele><time>2025-03-20T20:37:12Z</time><extensions><speed>1.115362</speed><course>179.629052</course><hAcc>1.994823</hAcc><vAcc>0.752085</vAcc></extensions></trkpt>
      <trkpt lon="12.477434" lat="41.894102"><ele>14.702627</ele><time>2025-03-20T20:37:13Z</time><extensions><speed>1.102919</speed><course>179.614557</course><hAcc>1.994961</hAcc><vAcc>0.747961</vAcc></extensions></trkpt>
      <trkpt lon="12.477434" lat="41.894092"><ele>14.715032</ele><time>2025-03-20T20:37:14Z</time><extensions><speed>1.089628</speed><course>179.589673</course><hAcc>1.995279</hAcc><vAcc>0.745093</vAcc></extensions></trkpt>
      <trkpt lon="12.477434" lat="41.894083"><ele>14.728216</ele><time>2025-03-20T20:37:15Z</time><extensions><speed>1.075666</speed><course>179.561094</course><hAcc>1.995548</hAcc><vAcc>0.743171</vAcc></extensions></trkpt>
      <trkpt lon="12.477434" lat="41.894073"><ele>14.741685</ele><time>2025-03-20T20:37:16Z</time><extensions><speed>1.060759</speed><course>179.523237</course><hAcc>1.995987</hAcc><vAcc>0.741936</vAcc></extensions></trkpt>
      <trkpt lon="12.477434" lat="41.894064"><ele>14.754670</ele><time>2025-03-20T20:37:17Z</time><extensions><speed>1.044922</speed><course>179.485941</course><hAcc>1.996444</hAcc><vAcc>0.741179</vAcc></extensions></trkpt>
      <trkpt lon="12.477434" lat="41.894054"><ele>14.767034</ele><time>2025-03-20T20:37:18Z</time><extensions><speed>1.028156</speed><course>179.448766</course><hAcc>1.996973</hAcc><vAcc>0.740744</vAcc></extensions></trkpt>
      <trkpt lon="12.477434" lat="41.894045"><ele>14.777420</ele><time>2025-03-20T20:37:19Z</time><extensions><speed>1.010768</speed><course>179.409130</course><hAcc>1.997557</hAcc><vAcc>0.740512</vAcc></extensions></trkpt>
      <trkpt lon="12.477434" lat="41.894036"><ele>14.784958</ele><time>2025-03-20T20:37:20Z</time><extensions><speed>0.991326</speed><course>179.294050</course><hAcc>1.997974</hAcc><vAcc>0.740402</vAcc></extensions></trkpt>
      <trkpt lon="12.477434" lat="41.894027"><ele>14.789893</ele><time>2025-03-20T20:37:21Z</time><extensions><speed>0.970960</speed><course>179.166059</course><hAcc>1.998137</hAcc><vAcc>0.740358</vAcc></extensions></trkpt>
      <trkpt lon="12.477434" lat="41.894018"><ele>14.793256</ele><time>2025-03-20T20:37:22Z</time><extensions><speed>0.949962</speed><course>179.029108</course><hAcc>1.998262</hAcc><vAcc>0.740346</vAcc></extensions></trkpt>
      <trkpt lon="12.477435" lat="41.894010"><ele>14.796681</ele><time>2025-03-20T20:37:23Z</time><extensions><speed>0.928144</speed><course>178.863116</course><hAcc>1.998333</hAcc><vAcc>0.740344</vAcc></extensions></trkpt>
      <trkpt lon="12.477435" lat="41.894002"><ele>14.801155</ele><time>2025-03-20T20:37:24Z</time><extensions><speed>0.905586</speed><course>178.673171</course><hAcc>1.998462</hAcc><vAcc>0.740342</vAcc></extensions></trkpt>
      <trkpt lon="12.477435" lat="41.893994"><ele>14.807802</ele><time>2025-03-20T20:37:25Z</time><extensions><speed>0.882915</speed><course>178.475321</course><hAcc>1.998599</hAcc><vAcc>0.740336</vAcc></extensions></trkpt>
      <trkpt lon="12.477435" lat="41.893986"><ele>14.817015</ele><time>2025-03-20T20:37:26Z</time><extensions><speed>0.859974</speed><course>178.266255</course><hAcc>1.998831</hAcc><vAcc>0.740323</vAcc></extensions></trkpt>
      <trkpt lon="12.477435" lat="41.893978"><ele>14.829367</ele><time>2025-03-20T20:37:27Z</time><extensions><speed>0.836887</speed><course>178.047210</course><hAcc>1.999064</hAcc><vAcc>0.740305</vAcc></extensions></trkpt>
      <trkpt lon="12.477436" lat="41.893971"><ele>14.843578</ele><time>2025-03-20T20:37:28Z</time><extensions><speed>0.813579</speed><course>177.817956</course><hAcc>1.999285</hAcc><vAcc>0.740285</vAcc></extensions></trkpt>
      <trkpt lon="12.477436" lat="41.893964"><ele>14.859513</ele><time>2025-03-20T20:37:29Z</time><extensions><speed>0.790417</speed><course>177.572141</course><hAcc>1.999541</hAcc><vAcc>0.740263</vAcc></extensions></trkpt>
      <trkpt lon="12.477437" lat="41.893957"><ele>14.876612</ele><time>2025-03-20T20:37:30Z</time><extensions><speed>0.767462</speed><course>177.310699</course><hAcc>1.999827</hAcc><vAcc>0.740242</vAcc></extensions></trkpt>
      <trkpt lon="12.477437" lat="41.893950"><ele>14.894701</ele><time>2025-03-20T20:37:31Z</time><extensions><speed>0.742963</speed><course>176.990452</course><hAcc>1.999813</hAcc><vAcc>0.740223</vAcc></extensions></trkpt>
      <trkpt lon="12.477437" lat="41.893943"><ele>14.913347</ele><time>2025-03-20T20:37:32Z</time><extensions><speed>0.718964</speed><course>176.652828</course><hAcc>1.999941</hAcc><vAcc>0.740207</vAcc></extensions></trkpt>
      <trkpt lon="12.477438" lat="41.893937"><ele>14.932358</ele><time>2025-03-20T20:37:33Z</time><extensions><speed>0.695643</speed><course>176.295213</course><hAcc>2.000147</hAcc><vAcc>0.740194</vAcc></extensions></trkpt>
      <trkpt lon="12.477439" lat="41.893930"><ele>14.951547</ele><time>2025-03-20T20:37:34Z</time><extensions><speed>0.673044</speed><course>175.915879</course><hAcc>2.000414</hAcc><vAcc>0.740186</vAcc></extensions></trkpt>
      <trkpt lon="12.477439" lat="41.893924"><ele>14.970925</ele><time>2025-03-20T20:37:35Z</time><extensions><speed>0.651312</speed><course>175.517964</course><hAcc>2.000727</hAcc><vAcc>0.740181</vAcc></extensions></trkpt>
      <trkpt lon="12.477440" lat="41.893918"><ele>14.990125</ele><time>2025-03-20T20:37:36Z</time><extensions><speed>0.629929</speed><course>175.091116</course><hAcc>2.000579</hAcc><vAcc>0.740180</vAcc></extensions></trkpt>
      <trkpt lon="12.477441" lat="41.893913"><ele>15.008612</ele><time>2025-03-20T20:37:37Z</time><extensions><speed>0.609176</speed><course>174.641535</course><hAcc>2.000137</hAcc><vAcc>0.740184</vAcc></extensions></trkpt>
      <trkpt lon="12.477441" lat="41.893908"><ele>15.026861</ele><time>2025-03-20T20:37:38Z</time><extensions><speed>0.591311</speed><course>174.238619</course><hAcc>1.999716</hAcc><vAcc>0.740192</vAcc></extensions></trkpt>
      <trkpt lon="12.477442" lat="41.893903"><ele>15.044724</ele><time>2025-03-20T20:37:39Z</time><extensions><speed>0.574370</speed><course>173.830532</course><hAcc>1.999337</hAcc><vAcc>0.740208</vAcc></extensions></trkpt>
      <trkpt lon="12.477443" lat="41.893898"><ele>15.062150</ele><time>2025-03-20T20:37:41Z</time><extensions><speed>0.558426</speed><course>173.403346</course><hAcc>1.998969</hAcc><vAcc>0.740206</vAcc></extensions></trkpt>
      <trkpt lon="12.477444" lat="41.893893"><ele>15.078958</ele><time>2025-03-20T20:37:42Z</time><extensions><speed>0.543653</speed><course>172.968916</course><hAcc>1.998501</hAcc><vAcc>0.740187</vAcc></extensions></trkpt>
      <trkpt lon="12.477445" lat="41.893888"><ele>15.095025</ele><time>2025-03-20T20:37:43Z</time><extensions><speed>0.530013</speed><course>172.535569</course><hAcc>1.997906</hAcc><vAcc>0.740173</vAcc></extensions></trkpt>
      <trkpt lon="12.477446" lat="41.893884"><ele>15.110222</ele><time>2025-03-20T20:37:44Z</time><extensions><speed>0.517358</speed><course>172.114771</course><hAcc>1.997793</hAcc><vAcc>0.740163</vAcc></extensions></trkpt>
      <trkpt lon="12.477448" lat="41.893880"><ele>15.124567</ele><time>2025-03-20T20:37:45Z</time><extensions><speed>0.508538</speed><course>171.899704</course><hAcc>1.996856</hAcc><vAcc>0.740155</vAcc></extensions></trkpt>
      <trkpt lon="12.477449" lat="41.893876"><ele>15.137858</ele><time>2025-03-20T20:37:46Z</time><extensions><speed>0.500933</speed><course>171.724628</course><hAcc>1.996137</hAcc><vAcc>0.740149</vAcc></extensions></trkpt>
      <trkpt lon="12.477450" lat="41.893872"><ele>15.150038</ele><time>2025-03-20T20:37:47Z</time><extensions><speed>0.494670</speed><course>171.604159</course><hAcc>1.996255</hAcc><vAcc>0.740144</vAcc></extensions></trkpt>
      <trkpt lon="12.477451" lat="41.893868"><ele>15.160897</ele><time>2025-03-20T20:37:48Z</time><extensions><speed>0.489555</speed><course>171.521397</course><hAcc>1.996593</hAcc><vAcc>0.740141</vAcc></extensions></trkpt>
      <trkpt lon="12.477452" lat="41.893863"><ele>15.171061</ele><time>2025-03-20T20:37:49Z</time><extensions><speed>0.485535</speed><course>171.478469</course><hAcc>1.997018</hAcc><vAcc>0.740137</vAcc></extensions></trkpt>
      <trkpt lon="12.477453" lat="41.893859"><ele>15.180702</ele><time>2025-03-20T20:37:50Z</time><extensions><speed>0.482487</speed><course>171.465786</course><hAcc>1.997565</hAcc><vAcc>0.740135</vAcc></extensions></trkpt>
      <trkpt lon="12.477454" lat="41.893856"><ele>15.190378</ele><time>2025-03-20T20:37:51Z</time><extensions><speed>0.482467</speed><course>171.593283</course><hAcc>1.997972</hAcc><vAcc>0.740132</vAcc></extensions></trkpt>
      <trkpt lon="12.477455" lat="41.893852"><ele>15.200394</ele><time>2025-03-20T20:37:52Z</time><extensions><speed>0.483767</speed><course>171.774330</course><hAcc>1.998628</hAcc><vAcc>0.740131</vAcc></extensions></trkpt>
      <trkpt lon="12.477456" lat="41.893848"><ele>15.211453</ele><time>2025-03-20T20:37:53Z</time><extensions><speed>0.486290</speed><course>172.002389</course><hAcc>1.999290</hAcc><vAcc>0.740129</vAcc></extensions></trkpt>
      <trkpt lon="12.477457" lat="41.893844"><ele>15.223963</ele><time>2025-03-20T20:37:54Z</time><extensions><speed>0.490039</speed><course>172.287098</course><hAcc>2.000278</hAcc><vAcc>0.740127</vAcc></extensions></trkpt>
      <trkpt lon="12.477458" lat="41.893840"><ele>15.238423</ele><time>2025-03-20T20:37:55Z</time><extensions><speed>0.494403</speed><course>172.590763</course><hAcc>2.001509</hAcc><vAcc>0.740125</vAcc></extensions></trkpt>
      <trkpt lon="12.477459" lat="41.893836"><ele>15.255283</ele><time>2025-03-20T20:37:56Z</time><extensions><speed>0.500771</speed><course>172.983253</course><hAcc>2.002317</hAcc><vAcc>0.740124</vAcc></extensions></trkpt>
      <trkpt lon="12.477460" lat="41.893832"><ele>15.274779</ele><time>2025-03-20T20:37:57Z</time><extensions><speed>0.508779</speed><course>173.443702</course><hAcc>2.003574</hAcc><vAcc>0.740123</vAcc></extensions></trkpt>
      <trkpt lon="12.477461" lat="41.893828"><ele>15.297114</ele><time>2025-03-20T20:37:58Z</time><extensions><speed>0.518252</speed><course>173.953088</course><hAcc>2.005090</hAcc><vAcc>0.740122</vAcc></extensions></trkpt>
      <trkpt lon="12.477462" lat="41.893823"><ele>15.323336</ele><time>2025-03-20T20:37:59Z</time><extensions><speed>0.528601</speed><course>174.486863</course><hAcc>2.006845</hAcc><vAcc>0.740122</vAcc></extensions></trkpt>
      <trkpt lon="12.477462" lat="41.893819"><ele>15.355599</ele><time>2025-03-20T20:38:00Z</time><extensions><speed>0.539794</speed><course>175.046145</course><hAcc>2.008588</hAcc><vAcc>0.740121</vAcc></extensions></trkpt>
      <trkpt lon="12.477463" lat="41.893814"><ele>15.395595</ele><time>2025-03-20T20:38:01Z</time><extensions><speed>0.551852</speed><course>175.629809</course><hAcc>2.010383</hAcc><vAcc>0.740121</vAcc></extensions></trkpt>
      <trkpt lon="12.477464" lat="41.893810"><ele>15.443953</ele><time>2025-03-20T20:38:02Z</time><extensions><speed>0.564802</speed><course>176.237837</course><hAcc>2.012155</hAcc><vAcc>0.740121</vAcc></extensions></trkpt>
      <trkpt lon="12.477464" lat="41.893805"><ele>15.501739</ele><time>2025-03-20T20:38:03Z</time><extensions><speed>0.580598</speed><course>176.948702</course><hAcc>2.014041</hAcc><vAcc>0.740120</vAcc></extensions></trkpt>
      <trkpt lon="12.477465" lat="41.893800"><ele>15.570157</ele><time>2025-03-20T20:38:04Z</time><extensions><speed>0.597296</speed><course>177.667222</course><hAcc>2.016153</hAcc><vAcc>0.740120</vAcc></extensions></trkpt>
      <trkpt lon="12.477465" lat="41.893795"><ele>15.650899</ele><time>2025-03-20T20:38:05Z</time><extensions><speed>0.614392</speed><course>178.375859</course><hAcc>2.018412</hAcc><vAcc>0.740120</vAcc></extensions></trkpt>
      <trkpt lon="12.477466" lat="41.893790"><ele>15.745327</ele><time>2025-03-20T20:38:06Z</time><extensions><speed>0.631943</speed><course>179.080467</course><hAcc>2.020430</hAcc><vAcc>0.740120</vAcc></extensions></trkpt>
      <trkpt lon="12.477466" lat="41.893785"><ele>15.853280</ele><time>2025-03-20T20:38:07Z</time><extensions><speed>0.650019</speed><course>179.785810</course><hAcc>2.022649</hAcc><vAcc>0.740120</vAcc></extensions></trkpt>
      <trkpt lon="12.477466" lat="41.893779"><ele>15.972185</ele><time>2025-03-20T20:38:08Z</time><extensions><speed>0.669243</speed><course>180.491997</course><hAcc>2.024949</hAcc><vAcc>0.740120</vAcc></extensions></trkpt>
      <trkpt lon="12.477466" lat="41.893773"><ele>16.096932</ele><time>2025-03-20T20:38:09Z</time><extensions><speed>0.691369</speed><course>181.249072</course><hAcc>2.027300</hAcc><vAcc>0.740120</vAcc></extensions></trkpt>
      <trkpt lon="12.477466" lat="41.893767"><ele>16.221222</ele><time>2025-03-20T20:38:10Z</time><extensions><speed>0.714021</speed><course>181.980562</course><hAcc>2.029878</hAcc><vAcc>0.740120</vAcc></extensions></trkpt>
      <trkpt lon="12.477466" lat="41.893761"><ele>16.338693</ele><time>2025-03-20T20:38:11Z</time><extensions><speed>0.737311</speed><course>182.688911</course><hAcc>2.032285</hAcc><vAcc>0.740120</vAcc></extensions></trkpt>
      <trkpt lon="12.477466" lat="41.893755"><ele>16.444533</ele><time>2025-03-20T20:38:12Z</time><extensions><speed>0.761370</speed><course>183.383317</course><hAcc>2.034887</hAcc><vAcc>0.740120</vAcc></extensions></trkpt>
      <trkpt lon="12.477465" lat="41.893748"><ele>16.534425</ele><time>2025-03-20T20:38:13Z</time><extensions><speed>0.786159</speed><course>184.054838</course><hAcc>2.037214</hAcc><vAcc>0.740120</vAcc></extensions></trkpt>
      <trkpt lon="12.477465" lat="41.893741"><ele>16.604050</ele><time>2025-03-20T20:38:14Z</time><extensions><speed>0.812770</speed><course>184.721761</course><hAcc>2.039290</hAcc><vAcc>0.740120</vAcc></extensions></trkpt>
      <trkpt lon="12.477464" lat="41.893734"><ele>16.649751</ele><time>2025-03-20T20:38:15Z</time><extensions><speed>0.840106</speed><course>185.364350</course><hAcc>2.041357</hAcc><vAcc>0.740120</vAcc></extensions></trkpt>
      <trkpt lon="12.477463" lat="41.893726"><ele>16.669484</ele><time>2025-03-20T20:38:16Z</time><extensions><speed>0.868069</speed><course>185.981933</course><hAcc>2.043663</hAcc><vAcc>0.740120</vAcc></extensions></trkpt>
      <trkpt lon="12.477462" lat="41.893719"><ele>16.663694</ele><time>2025-03-20T20:38:17Z</time><extensions><speed>0.896422</speed><course>186.570383</course><hAcc>2.046203</hAcc><vAcc>0.740120</vAcc></extensions></trkpt>
      <trkpt lon="12.477461" lat="41.893710"><ele>16.634376</ele><time>2025-03-20T20:38:18Z</time><extensions><speed>0.925290</speed><course>187.131241</course><hAcc>2.049026</hAcc><vAcc>0.740120</vAcc></extensions></trkpt>
      <trkpt lon="12.477459" lat="41.893702"><ele>16.584668</ele><time>2025-03-20T20:38:19Z</time><extensions><speed>0.954503</speed><course>187.661220</course><hAcc>2.051857</hAcc><vAcc>0.740120</vAcc></extensions></trkpt>
      <trkpt lon="12.477458" lat="41.893693"><ele>16.518549</ele><time>2025-03-20T20:38:20Z</time><extensions><speed>0.983438</speed><course>188.155706</course><hAcc>2.054630</hAcc><vAcc>0.740120</vAcc></extensions></trkpt>
      <trkpt lon="12.477456" lat="41.893684"><ele>16.439920</ele><time>2025-03-20T20:38:21Z</time><extensions><speed>1.010932</speed><course>188.609377</course><hAcc>2.056853</hAcc><vAcc>0.740120</vAcc></extensions></trkpt>
      <trkpt lon="12.477454" lat="41.893675"><ele>16.352233</ele><time>2025-03-20T20:38:21Z</time><extensions><speed>1.037586</speed><course>189.030812</course><hAcc>2.059275</hAcc><vAcc>0.740120</vAcc></extensions></trkpt>
      <trkpt lon="12.477452" lat="41.893665"><ele>16.258590</ele><time>2025-03-20T20:38:22Z</time><extensions><speed>1.064271</speed><course>189.426990</course><hAcc>2.061496</hAcc><vAcc>0.740120</vAcc></extensions></trkpt>
      <trkpt lon="12.477449" lat="41.893655"><ele>16.161589</ele><time>2025-03-20T20:38:23Z</time><extensions><speed>1.090654</speed><course>189.797768</course><hAcc>2.063607</hAcc><vAcc>0.740120</vAcc></extensions></trkpt>
      <trkpt lon="12.477447" lat="41.893645"><ele>16.063302</ele><time>2025-03-20T20:38:24Z</time><extensions><speed>1.116686</speed><course>190.142634</course><hAcc>2.065527</hAcc><vAcc>0.740120</vAcc></extensions></trkpt>
      <trkpt lon="12.477444" lat="41.893634"><ele>15.965375</ele><time>2025-03-20T20:38:25Z</time><extensions><speed>1.142172</speed><course>190.466215</course><hAcc>2.067295</hAcc><vAcc>0.740120</vAcc></extensions></trkpt>
      <trkpt lon="12.477442" lat="41.893623"><ele>15.869541</ele><time>2025-03-20T20:38:26Z</time><extensions><speed>1.165611</speed><course>190.758627</course><hAcc>2.068809</hAcc><vAcc>0.740120</vAcc></extensions></trkpt>
      <trkpt lon="12.477439" lat="41.893612"><ele>15.778291</ele><time>2025-03-20T20:38:27Z</time><extensions><speed>1.188473</speed><course>191.032366</course><hAcc>2.070069</hAcc><vAcc>0.740120</vAcc></extensions></trkpt>
      <trkpt lon="12.477436" lat="41.893601"><ele>15.694609</ele><time>2025-03-20T20:38:28Z</time><extensions><speed>1.210626</speed><course>191.288654</course><hAcc>2.071059</hAcc><vAcc>0.740120</vAcc></extensions></trkpt>
      <trkpt lon="12.477433" lat="41.893590"><ele>15.620820</ele><time>2025-03-20T20:38:29Z</time><extensions><speed>1.231337</speed><course>191.527162</course><hAcc>2.072311</hAcc><vAcc>0.740120</vAcc></extensions></trkpt>
      <trkpt lon="12.477429" lat="41.893579"><ele>15.558193</ele><time>2025-03-20T20:38:30Z</time><extensions><speed>1.250958</speed><course>191.749509</course><hAcc>2.073519</hAcc><vAcc>0.740120</vAcc></extensions></trkpt>
      <trkpt lon="12.477426" lat="41.893567"><ele>15.507111</ele><time>2025-03-20T20:38:31Z</time><extensions><speed>1.269686</speed><course>191.954243</course><hAcc>2.074453</hAcc><vAcc>0.740120</vAcc></extensions></trkpt>
      <trkpt lon="12.477423" lat="41.893556"><ele>15.467175</ele><time>2025-03-20T20:38:32Z</time><extensions><speed>1.287375</speed><course>192.140716</course><hAcc>2.075222</hAcc><vAcc>0.740120</vAcc></extensions></trkpt>
      <trkpt lon="12.477419" lat="41.893544"><ele>15.437327</ele><time>2025-03-20T20:38:33Z</time><extensions><speed>1.304017</speed><course>192.309671</course><hAcc>2.075846</hAcc><vAcc>0.740120</vAcc></extensions></trkpt>
      <trkpt lon="12.477416" lat="41.893532"><ele>15.415873</ele><time>2025-03-20T20:38:34Z</time><extensions><speed>1.319317</speed><course>192.462872</course><hAcc>2.076391</hAcc><vAcc>0.740120</vAcc></extensions></trkpt>
      <trkpt lon="12.477412" lat="41.893520"><ele>15.400680</ele><time>2025-03-20T20:38:35Z</time><extensions><speed>1.333374</speed><course>192.602797</course><hAcc>2.076827</hAcc><vAcc>0.740120</vAcc></extensions></trkpt>
      <trkpt lon="12.477408" lat="41.893507"><ele>15.389677</ele><time>2025-03-20T20:38:36Z</time><extensions><speed>1.346194</speed><course>192.730319</course><hAcc>2.077167</hAcc><vAcc>0.740120</vAcc></extensions></trkpt>
      <trkpt lon="12.477405" lat="41.893495"><ele>15.381312</ele><time>2025-03-20T20:38:37Z</time><extensions><speed>1.357196</speed><course>192.858812</course><hAcc>2.077480</hAcc><vAcc>0.740120</vAcc></extensions></trkpt>
      <trkpt lon="12.477401" lat="41.893483"><ele>15.374348</ele><time>2025-03-20T20:38:38Z</time><extensions><speed>1.366412</speed><course>192.977601</course><hAcc>2.077978</hAcc><vAcc>0.740120</vAcc></extensions></trkpt>
      <trkpt lon="12.477397" lat="41.893470"><ele>15.367393</ele><time>2025-03-20T20:38:39Z</time><extensions><speed>1.374049</speed><course>193.088449</course><hAcc>2.078564</hAcc><vAcc>0.740120</vAcc></extensions></trkpt>
      <trkpt lon="12.477393" lat="41.893458"><ele>15.359266</ele><time>2025-03-20T20:38:40Z</time><extensions><speed>1.380053</speed><course>193.192374</course><hAcc>2.079227</hAcc><vAcc>0.740120</vAcc></extensions></trkpt>
      <trkpt lon="12.477389" lat="41.893446"><ele>15.348397</ele><time>2025-03-20T20:38:41Z</time><extensions><speed>1.384513</speed><course>193.290274</course><hAcc>2.079963</hAcc><vAcc>0.740120</vAcc></extensions></trkpt>
      <trkpt lon="12.477386" lat="41.893433"><ele>15.334031</ele><time>2025-03-20T20:38:42Z</time><extensions><speed>1.387661</speed><course>193.393613</course><hAcc>2.080741</hAcc><vAcc>0.740120</vAcc></extensions></trkpt>
      <trkpt lon="12.477382" lat="41.893421"><ele>15.316403</ele><time>2025-03-20T20:38:43Z</time><extensions><speed>1.389315</speed><course>193.495618</course><hAcc>2.081578</hAcc><vAcc>0.740120</vAcc></extensions></trkpt>
      <trkpt lon="12.477378" lat="41.893409"><ele>15.296772</ele><time>2025-03-20T20:38:44Z</time><extensions><speed>1.389048</speed><course>193.548769</course><hAcc>2.082387</hAcc><vAcc>0.740120</vAcc></extensions></trkpt>
      <trkpt lon="12.477374" lat="41.893396"><ele>15.277411</ele><time>2025-03-20T20:38:45Z</time><extensions><speed>1.386300</speed><course>193.642738</course><hAcc>2.083003</hAcc><vAcc>0.740120</vAcc></extensions></trkpt>
      <trkpt lon="12.477370" lat="41.893384"><ele>15.260266</ele><time>2025-03-20T20:38:46Z</time><extensions><speed>1.381408</speed><course>193.749744</course><hAcc>2.083485</hAcc><vAcc>0.740120</vAcc></extensions></trkpt>
      <trkpt lon="12.477366" lat="41.893371"><ele>15.245700</ele><time>2025-03-20T20:38:47Z</time><extensions><speed>1.374606</speed><course>193.855829</course><hAcc>2.083783</hAcc><vAcc>0.740120</vAcc></extensions></trkpt>
      <trkpt lon="12.477361" lat="41.893359"><ele>15.233079</ele><time>2025-03-20T20:38:48Z</time><extensions><speed>1.365819</speed><course>193.961478</course><hAcc>2.084079</hAcc><vAcc>0.740120</vAcc></extensions></trkpt>
      <trkpt lon="12.477357" lat="41.893347"><ele>15.221743</ele><time>2025-03-20T20:38:49Z</time><extensions><speed>1.355170</speed><course>194.067175</course><hAcc>2.084296</hAcc><vAcc>0.740120</vAcc></extensions></trkpt>
      <trkpt lon="12.477353" lat="41.893335"><ele>15.211141</ele><time>2025-03-20T20:38:50Z</time><extensions><speed>1.342583</speed><course>194.173168</course><hAcc>2.084471</hAcc><vAcc>0.740120</vAcc></extensions></trkpt>
      <trkpt lon="12.477349" lat="41.893323"><ele>15.200599</ele><time>2025-03-20T20:38:51Z</time><extensions><speed>1.329642</speed><course>194.283321</course><hAcc>2.084842</hAcc><vAcc>0.740120</vAcc></extensions></trkpt>
      <trkpt lon="12.477346" lat="41.893311"><ele>15.189067</ele><time>2025-03-20T20:38:52Z</time><extensions><speed>1.314843</speed><course>194.396077</course><hAcc>2.085193</hAcc><vAcc>0.740120</vAcc></extensions></trkpt>
      <trkpt lon="12.477342" lat="41.893300"><ele>15.175583</ele><time>2025-03-20T20:38:53Z</time><extensions><speed>1.298232</speed><course>194.522420</course><hAcc>2.085534</hAcc><vAcc>0.740120</vAcc></extensions></trkpt>
      <trkpt lon="12.477338" lat="41.893288"><ele>15.160019</ele><time>2025-03-20T20:38:54Z</time><extensions><speed>1.280191</speed><course>194.664477</course><hAcc>2.085867</hAcc><vAcc>0.740120</vAcc></extensions></trkpt>
      <trkpt lon="12.477334" lat="41.893277"><ele>15.142407</ele><time>2025-03-20T20:38:55Z</time><extensions><speed>1.260752</speed><course>194.802486</course><hAcc>2.085827</hAcc><vAcc>0.740120</vAcc></extensions></trkpt>
      <trkpt lon="12.477330" lat="41.893267"><ele>15.122802</ele><time>2025-03-20T20:38:56Z</time><extensions><speed>1.239355</speed><course>194.912333</course><hAcc>2.085479</hAcc><vAcc>0.740120</vAcc></extensions></trkpt>
      <trkpt lon="12.477326" lat="41.893256"><ele>15.101195</ele><time>2025-03-20T20:38:57Z</time><extensions><speed>1.216258</speed><course>195.010209</course><hAcc>2.085087</hAcc><vAcc>0.740120</vAcc></extensions></trkpt>
      <trkpt lon="12.477322" lat="41.893245"><ele>15.080163</ele><time>2025-03-20T20:38:58Z</time><extensions><speed>1.191670</speed><course>195.105447</course><hAcc>2.084570</hAcc><vAcc>0.740120</vAcc></extensions></trkpt>
      <trkpt lon="12.477318" lat="41.893235"><ele>15.062008</ele><time>2025-03-20T20:38:59Z</time><extensions><speed>1.165800</speed><course>195.180151</course><hAcc>2.083933</hAcc><vAcc>0.740120</vAcc></extensions></trkpt>
      <trkpt lon="12.477314" lat="41.893225"><ele>15.049554</ele><time>2025-03-20T20:39:00Z</time><extensions><speed>1.138539</speed><course>195.232530</course><hAcc>2.083026</hAcc><vAcc>0.740120</vAcc></extensions></trkpt>
      <trkpt lon="12.477310" lat="41.893215"><ele>15.044549</ele><time>2025-03-20T20:39:01Z</time><extensions><speed>1.109736</speed><course>195.256877</course><hAcc>2.081930</hAcc><vAcc>0.740120</vAcc></extensions></trkpt>
      <trkpt lon="12.477307" lat="41.893206"><ele>15.047343</ele><time>2025-03-20T20:39:02Z</time><extensions><speed>1.079957</speed><course>195.250466</course><hAcc>2.080597</hAcc><vAcc>0.740120</vAcc></extensions></trkpt>
      <trkpt lon="12.477303" lat="41.893196"><ele>15.056870</ele><time>2025-03-20T20:39:03Z</time><extensions><speed>1.047998</speed><course>195.230770</course><hAcc>2.079049</hAcc><vAcc>0.740120</vAcc></extensions></trkpt>
      <trkpt lon="12.477299" lat="41.893187"><ele>15.071737</ele><time>2025-03-20T20:39:04Z</time><extensions><speed>1.014887</speed><course>195.178944</course><hAcc>2.077237</hAcc><vAcc>0.740120</vAcc></extensions></trkpt>
      <trkpt lon="12.477295" lat="41.893179"><ele>15.089254</ele><time>2025-03-20T20:39:05Z</time><extensions><speed>0.980819</speed><course>195.108601</course><hAcc>2.075293</hAcc><vAcc>0.740120</vAcc></extensions></trkpt>
      <trkpt lon="12.477292" lat="41.893170"><ele>15.108359</ele><time>2025-03-20T20:39:06Z</time><extensions><speed>0.946561</speed><course>195.018873</course><hAcc>2.072912</hAcc><vAcc>0.740120</vAcc></extensions></trkpt>
      <trkpt lon="12.477289" lat="41.893162"><ele>15.127633</ele><time>2025-03-20T20:39:07Z</time><extensions><speed>0.912608</speed><course>194.897969</course><hAcc>2.070606</hAcc><vAcc>0.740120</vAcc></extensions></trkpt>
      <trkpt lon="12.477285" lat="41.893154"><ele>15.145460</ele><time>2025-03-20T20:39:08Z</time><extensions><speed>0.879029</speed><course>194.731194</course><hAcc>2.068101</hAcc><vAcc>0.740120</vAcc></extensions></trkpt>
      <trkpt lon="12.477282" lat="41.893147"><ele>15.160925</ele><time>2025-03-20T20:39:09Z</time><extensions><speed>0.846295</speed><course>194.551332</course><hAcc>2.064877</hAcc><vAcc>0.740120</vAcc></extensions></trkpt>
      <trkpt lon="12.477279" lat="41.893139"><ele>15.173921</ele><time>2025-03-20T20:39:10Z</time><extensions><speed>0.814057</speed><course>194.334218</course><hAcc>2.061964</hAcc><vAcc>0.740120</vAcc></extensions></trkpt>
      <trkpt lon="12.477276" lat="41.893132"><ele>15.183848</ele><time>2025-03-20T20:39:11Z</time><extensions><speed>0.782806</speed><course>194.080048</course><hAcc>2.059066</hAcc><vAcc>0.740120</vAcc></extensions></trkpt>
      <trkpt lon="12.477274" lat="41.893126"><ele>15.190204</ele><time>2025-03-20T20:39:12Z</time><extensions><speed>0.752353</speed><course>193.787033</course><hAcc>2.056423</hAcc><vAcc>0.740120</vAcc></extensions></trkpt>
      <trkpt lon="12.477272" lat="41.893119"><ele>15.193595</ele><time>2025-03-20T20:39:13Z</time><extensions><speed>0.723229</speed><course>193.439323</course><hAcc>2.053814</hAcc><vAcc>0.740120</vAcc></extensions></trkpt>
      <trkpt lon="12.477269" lat="41.893113"><ele>15.194057</ele><time>2025-03-20T20:39:14Z</time><extensions><speed>0.695424</speed><course>193.013625</course><hAcc>2.051025</hAcc><vAcc>0.740120</vAcc></extensions></trkpt>
      <trkpt lon="12.477267" lat="41.893107"><ele>15.191594</ele><time>2025-03-20T20:39:15Z</time><extensions><speed>0.669023</speed><course>192.533597</course><hAcc>2.048405</hAcc><vAcc>0.740120</vAcc></extensions></trkpt>
      <trkpt lon="12.477265" lat="41.893101"><ele>15.186306</ele><time>2025-03-20T20:39:16Z</time><extensions><speed>0.644042</speed><course>192.016521</course><hAcc>2.045626</hAcc><vAcc>0.740120</vAcc></extensions></trkpt>
      <trkpt lon="12.477263" lat="41.893096"><ele>15.178780</ele><time>2025-03-20T20:39:17Z</time><extensions><speed>0.620323</speed><course>191.447403</course><hAcc>2.043012</hAcc><vAcc>0.740120</vAcc></extensions></trkpt>
      <trkpt lon="12.477262" lat="41.893091"><ele>15.169042</ele><time>2025-03-20T20:39:18Z</time><extensions><speed>0.597978</speed><course>190.796549</course><hAcc>2.040225</hAcc><vAcc>0.740120</vAcc></extensions></trkpt>
      <trkpt lon="12.477260" lat="41.893086"><ele>15.157053</ele><time>2025-03-20T20:39:19Z</time><extensions><speed>0.577343</speed><course>190.036085</course><hAcc>2.037791</hAcc><vAcc>0.740120</vAcc></extensions></trkpt>
      <trkpt lon="12.477259" lat="41.893081"><ele>15.143435</ele><time>2025-03-20T20:39:20Z</time><extensions><speed>0.558014</speed><course>189.160985</course><hAcc>2.035133</hAcc><vAcc>0.740120</vAcc></extensions></trkpt>
      <trkpt lon="12.477257" lat="41.893076"><ele>15.128899</ele><time>2025-03-20T20:39:21Z</time><extensions><speed>0.539876</speed><course>188.169748</course><hAcc>2.032598</hAcc><vAcc>0.740120</vAcc></extensions></trkpt>
      <trkpt lon="12.477256" lat="41.893071"><ele>15.114221</ele><time>2025-03-20T20:39:22Z</time><extensions><speed>0.523064</speed><course>187.061757</course><hAcc>2.029958</hAcc><vAcc>0.740120</vAcc></extensions></trkpt>
      <trkpt lon="12.477255" lat="41.893067"><ele>15.100023</ele><time>2025-03-20T20:39:23Z</time><extensions><speed>0.507892</speed><course>185.824933</course><hAcc>2.027798</hAcc><vAcc>0.740120</vAcc></extensions></trkpt>
      <trkpt lon="12.477254" lat="41.893062"><ele>15.086558</ele><time>2025-03-20T20:39:24Z</time><extensions><speed>0.494326</speed><course>184.463593</course><hAcc>2.025653</hAcc><vAcc>0.740120</vAcc></extensions></trkpt>
      <trkpt lon="12.477253" lat="41.893058"><ele>15.074793</ele><time>2025-03-20T20:39:25Z</time><extensions><speed>0.482175</speed><course>183.005694</course><hAcc>2.023225</hAcc><vAcc>0.740120</vAcc></extensions></trkpt>
      <trkpt lon="12.477253" lat="41.893054"><ele>15.064988</ele><time>2025-03-20T20:39:26Z</time><extensions><speed>0.471607</speed><course>181.378316</course><hAcc>2.021375</hAcc><vAcc>0.740121</vAcc></extensions></trkpt>
      <trkpt lon="12.477252" lat="41.893050"><ele>15.057915</ele><time>2025-03-20T20:39:27Z</time><extensions><speed>0.462116</speed><course>179.699619</course><hAcc>2.018506</hAcc><vAcc>0.740121</vAcc></extensions></trkpt>
      <trkpt lon="12.477251" lat="41.893045"><ele>15.054132</ele><time>2025-03-20T20:39:28Z</time><extensions><speed>0.454047</speed><course>177.852735</course><hAcc>2.016397</hAcc><vAcc>0.740121</vAcc></extensions></trkpt>
      <trkpt lon="12.477251" lat="41.893041"><ele>15.054639</ele><time>2025-03-20T20:39:29Z</time><extensions><speed>0.447474</speed><course>175.873870</course><hAcc>2.014602</hAcc><vAcc>0.740122</vAcc></extensions></trkpt>
      <trkpt lon="12.477251" lat="41.893038"><ele>15.060159</ele><time>2025-03-20T20:39:30Z</time><extensions><speed>0.442371</speed><course>173.882556</course><hAcc>2.011183</hAcc><vAcc>0.740123</vAcc></extensions></trkpt>
      <trkpt lon="12.477251" lat="41.893034"><ele>15.070588</ele><time>2025-03-20T20:39:31Z</time><extensions><speed>0.438820</speed><course>171.760576</course><hAcc>2.007966</hAcc><vAcc>0.740124</vAcc></extensions></trkpt>
      <trkpt lon="12.477252" lat="41.893030"><ele>15.086032</ele><time>2025-03-20T20:39:32Z</time><extensions><speed>0.436816</speed><course>169.523028</course><hAcc>2.005477</hAcc><vAcc>0.740125</vAcc></extensions></trkpt>
      <trkpt lon="12.477252" lat="41.893026"><ele>15.106345</ele><time>2025-03-20T20:39:33Z</time><extensions><speed>0.436262</speed><course>167.216599</course><hAcc>2.003025</hAcc><vAcc>0.740126</vAcc></extensions></trkpt>
      <trkpt lon="12.477253" lat="41.893022"><ele>15.131799</ele><time>2025-03-20T20:39:34Z</time><extensions><speed>0.437077</speed><course>164.853230</course><hAcc>2.001382</hAcc><vAcc>0.740128</vAcc></extensions></trkpt>
      <trkpt lon="12.477255" lat="41.893018"><ele>15.163227</ele><time>2025-03-20T20:39:35Z</time><extensions><speed>0.439418</speed><course>162.466816</course><hAcc>1.998716</hAcc><vAcc>0.740130</vAcc></extensions></trkpt>
      <trkpt lon="12.477257" lat="41.893014"><ele>15.202201</ele><time>2025-03-20T20:39:36Z</time><extensions><speed>0.443004</speed><course>160.095150</course><hAcc>1.997206</hAcc><vAcc>0.740132</vAcc></extensions></trkpt>
      <trkpt lon="12.477258" lat="41.893011"><ele>15.250203</ele><time>2025-03-20T20:39:37Z</time><extensions><speed>0.448184</speed><course>157.732318</course><hAcc>1.994375</hAcc><vAcc>0.740134</vAcc></extensions></trkpt>
      <trkpt lon="12.477261" lat="41.893007"><ele>15.308447</ele><time>2025-03-20T20:39:38Z</time><extensions><speed>0.455076</speed><course>155.378646</course><hAcc>1.992709</hAcc><vAcc>0.740137</vAcc></extensions></trkpt>
      <trkpt lon="12.477263" lat="41.893003"><ele>15.377024</ele><time>2025-03-20T20:39:39Z</time><extensions><speed>0.463427</speed><course>153.079638</course><hAcc>1.991356</hAcc><vAcc>0.740141</vAcc></extensions></trkpt>
      <trkpt lon="12.477265" lat="41.892999"><ele>15.455631</ele><time>2025-03-20T20:39:40Z</time><extensions><speed>0.473136</speed><course>150.856170</course><hAcc>1.989198</hAcc><vAcc>0.740146</vAcc></extensions></trkpt>
      <trkpt lon="12.477268" lat="41.892996"><ele>15.543189</ele><time>2025-03-20T20:39:41Z</time><extensions><speed>0.484223</speed><course>148.705885</course><hAcc>1.986833</hAcc><vAcc>0.740152</vAcc></extensions></trkpt>
      <trkpt lon="12.477271" lat="41.892992"><ele>15.638412</ele><time>2025-03-20T20:39:42Z</time><extensions><speed>0.496634</speed><course>146.626261</course><hAcc>1.985480</hAcc><vAcc>0.740160</vAcc></extensions></trkpt>
      <trkpt lon="12.477275" lat="41.892988"><ele>15.738541</ele><time>2025-03-20T20:39:43Z</time><extensions><speed>0.510086</speed><course>144.636881</course><hAcc>1.984202</hAcc><vAcc>0.740173</vAcc></extensions></trkpt>
      <trkpt lon="12.477278" lat="41.892985"><ele>15.840219</ele><time>2025-03-20T20:39:44Z</time><extensions><speed>0.524402</speed><course>142.747951</course><hAcc>1.982497</hAcc><vAcc>0.740191</vAcc></extensions></trkpt>
      <trkpt lon="12.477282" lat="41.892981"><ele>15.938406</ele><time>2025-03-20T20:39:45Z</time><extensions><speed>0.539769</speed><course>140.956459</course><hAcc>1.981221</hAcc><vAcc>0.740218</vAcc></extensions></trkpt>
      <trkpt lon="12.477286" lat="41.892977"><ele>16.028150</ele><time>2025-03-20T20:39:47Z</time><extensions><speed>0.555779</speed><course>139.245037</course><hAcc>1.980236</hAcc><vAcc>0.740232</vAcc></extensions></trkpt>
      <trkpt lon="12.477290" lat="41.892973"><ele>16.105823</ele><time>2025-03-20T20:39:48Z</time><extensions><speed>0.572466</speed><course>137.628599</course><hAcc>1.979156</hAcc><vAcc>0.740237</vAcc></extensions></trkpt>
      <trkpt lon="12.477295" lat="41.892970"><ele>16.169742</ele><time>2025-03-20T20:39:49Z</time><extensions><speed>0.589669</speed><course>136.121195</course><hAcc>1.978344</hAcc><vAcc>0.740258</vAcc></extensions></trkpt>
      <trkpt lon="12.477300" lat="41.892966"><ele>16.220432</ele><time>2025-03-20T20:39:50Z</time><extensions><speed>0.607095</speed><course>134.722342</course><hAcc>1.977580</hAcc><vAcc>0.740298</vAcc></extensions></trkpt>
      <trkpt lon="12.477305" lat="41.892962"><ele>16.258763</ele><time>2025-03-20T20:39:51Z</time><extensions><speed>0.624154</speed><course>133.439241</course><hAcc>1.976872</hAcc><vAcc>0.740361</vAcc></extensions></trkpt>
      <trkpt lon="12.477311" lat="41.892958"><ele>16.286237</ele><time>2025-03-20T20:39:52Z</time><extensions><speed>0.641245</speed><course>132.255515</course><hAcc>1.976262</hAcc><vAcc>0.740450</vAcc></extensions></trkpt>
      <trkpt lon="12.477317" lat="41.892954"><ele>16.304733</ele><time>2025-03-20T20:39:53Z</time><extensions><speed>0.658521</speed><course>131.170094</course><hAcc>1.975755</hAcc><vAcc>0.740571</vAcc></extensions></trkpt>
      <trkpt lon="12.477323" lat="41.892950"><ele>16.316498</ele><time>2025-03-20T20:39:54Z</time><extensions><speed>0.675712</speed><course>130.176833</course><hAcc>1.975337</hAcc><vAcc>0.740727</vAcc></extensions></trkpt>
      <trkpt lon="12.477329" lat="41.892946"><ele>16.323880</ele><time>2025-03-20T20:39:55Z</time><extensions><speed>0.692983</speed><course>129.269884</course><hAcc>1.975001</hAcc><vAcc>0.740918</vAcc></extensions></trkpt>
      <trkpt lon="12.477336" lat="41.892942"><ele>16.329898</ele><time>2025-03-20T20:39:56Z</time><extensions><speed>0.710528</speed><course>128.427777</course><hAcc>1.974262</hAcc><vAcc>0.741146</vAcc></extensions></trkpt>
      <trkpt lon="12.477343" lat="41.892938"><ele>16.337642</ele><time>2025-03-20T20:39:57Z</time><extensions><speed>0.726960</speed><course>127.663786</course><hAcc>1.973528</hAcc><vAcc>0.741403</vAcc></extensions></trkpt>
      <trkpt lon="12.477351" lat="41.892934"><ele>16.349238</ele><time>2025-03-20T20:39:58Z</time><extensions><speed>0.742661</speed><course>126.971567</course><hAcc>1.973098</hAcc><vAcc>0.741678</vAcc></extensions></trkpt>
      <trkpt lon="12.477358" lat="41.892930"><ele>16.365051</ele><time>2025-03-20T20:39:59Z</time><extensions><speed>0.758987</speed><course>126.328094</course><hAcc>1.973019</hAcc><vAcc>0.741951</vAcc></extensions></trkpt>
      <trkpt lon="12.477365" lat="41.892926"><ele>16.384183</ele><time>2025-03-20T20:40:00Z</time><extensions><speed>0.775023</speed><course>125.731724</course><hAcc>1.972997</hAcc><vAcc>0.742194</vAcc></extensions></trkpt>
      <trkpt lon="12.477373" lat="41.892922"><ele>16.404750</ele><time>2025-03-20T20:40:01Z</time><extensions><speed>0.790897</speed><course>125.180318</course><hAcc>1.973046</hAcc><vAcc>0.742370</vAcc></extensions></trkpt>
      <trkpt lon="12.477381" lat="41.892918"><ele>16.424374</ele><time>2025-03-20T20:40:02Z</time><extensions><speed>0.806445</speed><course>124.669241</course><hAcc>1.973187</hAcc><vAcc>0.742436</vAcc></extensions></trkpt>
      <trkpt lon="12.477389" lat="41.892914"><ele>16.441300</ele><time>2025-03-20T20:40:03Z</time><extensions><speed>0.821790</speed><course>124.192868</course><hAcc>1.973450</hAcc><vAcc>0.742369</vAcc></extensions></trkpt>
      <trkpt lon="12.477397" lat="41.892909"><ele>16.454571</ele><time>2025-03-20T20:40:04Z</time><extensions><speed>0.836884</speed><course>123.745056</course><hAcc>1.973868</hAcc><vAcc>0.742192</vAcc></extensions></trkpt>
      <trkpt lon="12.477406" lat="41.892905"><ele>16.463183</ele><time>2025-03-20T20:40:05Z</time><extensions><speed>0.851600</speed><course>123.322358</course><hAcc>1.974480</hAcc><vAcc>0.741948</vAcc></extensions></trkpt>
      <trkpt lon="12.477414" lat="41.892901"><ele>16.465915</ele><time>2025-03-20T20:40:06Z</time><extensions><speed>0.865780</speed><course>122.919508</course><hAcc>1.975325</hAcc><vAcc>0.741674</vAcc></extensions></trkpt>
      <trkpt lon="12.477423" lat="41.892897"><ele>16.461598</ele><time>2025-03-20T20:40:07Z</time><extensions><speed>0.879510</speed><course>122.537151</course><hAcc>1.976448</hAcc><vAcc>0.741398</vAcc></extensions></trkpt>
      <trkpt lon="12.477432" lat="41.892892"><ele>16.449028</ele><time>2025-03-20T20:40:08Z</time><extensions><speed>0.892863</speed><course>122.173278</course><hAcc>1.977898</hAcc><vAcc>0.741139</vAcc></extensions></trkpt>
      <trkpt lon="12.477441" lat="41.892888"><ele>16.427178</ele><time>2025-03-20T20:40:09Z</time><extensions><speed>0.905721</speed><course>121.827621</course><hAcc>1.979730</hAcc><vAcc>0.740909</vAcc></extensions></trkpt>
      <trkpt lon="12.477451" lat="41.892884"><ele>16.396177</ele><time>2025-03-20T20:40:10Z</time><extensions><speed>0.917951</speed><course>121.496121</course><hAcc>1.982007</hAcc><vAcc>0.740715</vAcc></extensions></trkpt>
      <trkpt lon="12.477460" lat="41.892879"><ele>16.357737</ele><time>2025-03-20T20:40:11Z</time><extensions><speed>0.929599</speed><course>121.183074</course><hAcc>1.984796</hAcc><vAcc>0.740557</vAcc></extensions></trkpt>
      <trkpt lon="12.477470" lat="41.892875"><ele>16.314250</ele><time>2025-03-20T20:40:12Z</time><extensions><speed>0.940570</speed><course>120.884185</course><hAcc>1.988175</hAcc><vAcc>0.740434</vAcc></extensions></trkpt>
      <trkpt lon="12.477480" lat="41.892871"><ele>16.267651</ele><time>2025-03-20T20:40:13Z</time><extensions><speed>0.950867</speed><course>120.601577</course><hAcc>1.992228</hAcc><vAcc>0.740342</vAcc></extensions></trkpt>
      <trkpt lon="12.477490" lat="41.892866"><ele>16.218914</ele><time>2025-03-20T20:40:14Z</time><extensions><speed>0.960541</speed><course>120.334266</course><hAcc>1.997052</hAcc><vAcc>0.740279</vAcc></extensions></trkpt>
      <trkpt lon="12.477500" lat="41.892862"><ele>16.168366</ele><time>2025-03-20T20:40:15Z</time><extensions><speed>0.969625</speed><course>120.083860</course><hAcc>2.002755</hAcc><vAcc>0.740241</vAcc></extensions></trkpt>
      <trkpt lon="12.477510" lat="41.892858"><ele>16.116098</ele><time>2025-03-20T20:40:16Z</time><extensions><speed>0.978097</speed><course>119.848663</course><hAcc>2.009450</hAcc><vAcc>0.740228</vAcc></extensions></trkpt>
      <trkpt lon="12.477520" lat="41.892853"><ele>16.062251</ele><time>2025-03-20T20:40:17Z</time><extensions><speed>0.985855</speed><course>119.634298</course><hAcc>2.017264</hAcc><vAcc>0.740238</vAcc></extensions></trkpt>
      <trkpt lon="12.477531" lat="41.892849"><ele>16.007470</ele><time>2025-03-20T20:40:18Z</time><extensions><speed>0.992958</speed><course>119.438759</course><hAcc>2.026333</hAcc><vAcc>0.740273</vAcc></extensions></trkpt>
      <trkpt lon="12.477541" lat="41.892845"><ele>15.953065</ele><time>2025-03-20T20:40:19Z</time><extensions><speed>0.999303</speed><course>119.263210</course><hAcc>2.036809</hAcc><vAcc>0.740339</vAcc></extensions></trkpt>
      <trkpt lon="12.477552" lat="41.892840"><ele>15.900621</ele><time>2025-03-20T20:40:20Z</time><extensions><speed>1.004915</speed><course>119.104807</course><hAcc>2.048860</hAcc><vAcc>0.740441</vAcc></extensions></trkpt>
      <trkpt lon="12.477562" lat="41.892836"><ele>15.851300</ele><time>2025-03-20T20:40:21Z</time><extensions><speed>1.009809</speed><course>118.961599</course><hAcc>2.062667</hAcc><vAcc>0.740588</vAcc></extensions></trkpt>
      <trkpt lon="12.477573" lat="41.892831"><ele>15.805486</ele><time>2025-03-20T20:40:22Z</time><extensions><speed>1.013881</speed><course>118.835243</course><hAcc>2.078432</hAcc><vAcc>0.740791</vAcc></extensions></trkpt>
      <trkpt lon="12.477584" lat="41.892827"><ele>15.762866</ele><time>2025-03-20T20:40:23Z</time><extensions><speed>1.017217</speed><course>118.723017</course><hAcc>2.096397</hAcc><vAcc>0.741062</vAcc></extensions></trkpt>
      <trkpt lon="12.477594" lat="41.892823"><ele>15.722618</ele><time>2025-03-20T20:40:24Z</time><extensions><speed>1.020056</speed><course>118.623321</course><hAcc>2.116835</hAcc><vAcc>0.741414</vAcc></extensions></trkpt>
      <trkpt lon="12.477605" lat="41.892818"><ele>15.683930</ele><time>2025-03-20T20:40:25Z</time><extensions><speed>1.022345</speed><course>118.535498</course><hAcc>2.140036</hAcc><vAcc>0.741859</vAcc></extensions></trkpt>
      <trkpt lon="12.477616" lat="41.892814"><ele>15.646650</ele><time>2025-03-20T20:40:26Z</time><extensions><speed>1.024118</speed><course>118.458207</course><hAcc>2.166303</hAcc><vAcc>0.742408</vAcc></extensions></trkpt>
      <trkpt lon="12.477627" lat="41.892809"><ele>15.611525</ele><time>2025-03-20T20:40:27Z</time><extensions><speed>1.025954</speed><course>118.391038</course><hAcc>2.195951</hAcc><vAcc>0.743066</vAcc></extensions></trkpt>
      <trkpt lon="12.477638" lat="41.892805"><ele>15.579884</ele><time>2025-03-20T20:40:28Z</time><extensions><speed>1.027453</speed><course>118.332871</course><hAcc>2.229307</hAcc><vAcc>0.743832</vAcc></extensions></trkpt>
      <trkpt lon="12.477649" lat="41.892801"><ele>15.553128</ele><time>2025-03-20T20:40:28Z</time><extensions><speed>1.029006</speed><course>118.281780</course><hAcc>2.266709</hAcc><vAcc>0.744697</vAcc></extensions></trkpt>
      <trkpt lon="12.477660" lat="41.892796"><ele>15.532630</ele><time>2025-03-20T20:40:29Z</time><extensions><speed>1.030279</speed><course>118.237770</course><hAcc>2.308509</hAcc><vAcc>0.745642</vAcc></extensions></trkpt>
      <trkpt lon="12.477670" lat="41.892792"><ele>15.519933</ele><time>2025-03-20T20:40:30Z</time><extensions><speed>1.031203</speed><course>118.200404</course><hAcc>2.355027</hAcc><vAcc>0.746640</vAcc></extensions></trkpt>
      <trkpt lon="12.477681" lat="41.892787"><ele>15.516466</ele><time>2025-03-20T20:40:31Z</time><extensions><speed>1.031849</speed><course>118.168334</course><hAcc>2.406578</hAcc><vAcc>0.747659</vAcc></extensions></trkpt>
      <trkpt lon="12.477692" lat="41.892783"><ele>15.522688</ele><time>2025-03-20T20:40:32Z</time><extensions><speed>1.032314</speed><course>118.140792</course><hAcc>2.463499</hAcc><vAcc>0.748673</vAcc></extensions></trkpt>
      <trkpt lon="12.477703" lat="41.892779"><ele>15.537588</ele><time>2025-03-20T20:40:33Z</time><extensions><speed>1.034286</speed><course>117.889448</course><hAcc>2.516242</hAcc><vAcc>0.749681</vAcc></extensions></trkpt>
      <trkpt lon="12.477714" lat="41.892774"><ele>15.558997</ele><time>2025-03-20T20:40:34Z</time><extensions><speed>1.032951</speed><course>117.685016</course><hAcc>2.559953</hAcc><vAcc>0.750741</vAcc></extensions></trkpt>
      <trkpt lon="12.477725" lat="41.892770"><ele>15.584164</ele><time>2025-03-20T20:40:35Z</time><extensions><speed>1.026710</speed><course>117.508233</course><hAcc>2.601051</hAcc><vAcc>0.752011</vAcc></extensions></trkpt>
      <trkpt lon="12.477736" lat="41.892766"><ele>15.610342</ele><time>2025-03-20T20:40:36Z</time><extensions><speed>1.016569</speed><course>117.359015</course><hAcc>2.645209</hAcc><vAcc>0.753827</vAcc></extensions></trkpt>
      <trkpt lon="12.477747" lat="41.892762"><ele>15.635197</ele><time>2025-03-20T20:40:37Z</time><extensions><speed>1.003499</speed><course>117.237655</course><hAcc>2.697385</hAcc><vAcc>0.756793</vAcc></extensions></trkpt>
      <trkpt lon="12.477758" lat="41.892757"><ele>15.657291</ele><time>2025-03-20T20:40:38Z</time><extensions><speed>0.986261</speed><course>117.124385</course><hAcc>2.761990</hAcc><vAcc>0.761905</vAcc></extensions></trkpt>
      <trkpt lon="12.477768" lat="41.892753"><ele>15.676345</ele><time>2025-03-20T20:40:39Z</time><extensions><speed>0.967139</speed><course>117.028807</course><hAcc>2.842955</hAcc><vAcc>0.770680</vAcc></extensions></trkpt>
      <trkpt lon="12.477779" lat="41.892750"><ele>15.692633</ele><time>2025-03-20T20:40:40Z</time><extensions><speed>0.946994</speed><course>116.948437</course><hAcc>2.943550</hAcc><vAcc>0.785282</vAcc></extensions></trkpt>
      <trkpt lon="12.477789" lat="41.892746"><ele>15.706545</ele><time>2025-03-20T20:40:41Z</time><extensions><speed>0.927155</speed><course>116.883358</course><hAcc>3.066411</hAcc><vAcc>0.808577</vAcc></extensions></trkpt>
      <trkpt lon="12.477798" lat="41.892742"><ele>15.718616</ele><time>2025-03-20T20:40:42Z</time><extensions><speed>0.907750</speed><course>116.831733</course><hAcc>3.213497</hAcc><vAcc>0.844050</vAcc></extensions></trkpt>
      <trkpt lon="12.477808" lat="41.892738"><ele>15.729469</ele><time>2025-03-20T20:40:43Z</time><extensions><speed>0.889040</speed><course>116.792667</course><hAcc>3.386007</hAcc><vAcc>0.895540</vAcc></extensions></trkpt>
      <trkpt lon="12.477818" lat="41.892735"><ele>15.739690</ele><time>2025-03-20T20:40:44Z</time><extensions><speed>0.871202</speed><course>116.764584</course><hAcc>3.584403</hAcc><vAcc>0.966794</vAcc></extensions></trkpt>
      <trkpt lon="12.477827" lat="41.892731"><ele>15.749658</ele><time>2025-03-20T20:40:45Z</time><extensions><speed>0.854431</speed><course>116.746704</course><hAcc>3.808529</hAcc><vAcc>1.060979</vAcc></extensions></trkpt>
      <trkpt lon="12.477836" lat="41.892728"><ele>15.759678</ele><time>2025-03-20T20:40:47Z</time><extensions><speed>0.843306</speed><course>116.737696</course><hAcc>4.063212</hAcc><vAcc>1.182685</vAcc></extensions></trkpt>
      <trkpt lon="12.477845" lat="41.892724"><ele>15.769417</ele><time>2025-03-20T20:40:48Z</time><extensions><speed>0.839682</speed><course>116.735717</course><hAcc>4.340092</hAcc><vAcc>1.328637</vAcc></extensions></trkpt>
    </trkseg>
  </trk>
</gpx>