<?xml version="1.0" encoding="UTF-8"?>
<gpx version="1.1" creator="Apple Health Export" xmlns="http://www.topografix.com/GPX/1/1" xmlns:xsi="http://www.w3.org/2001/XMLSchema-instance" xsi:schemaLocation="http://www.topografix.com/GPX/1/1 http://www.topografix.com/GPX/1/1/gpx.xsd">
  <metadata>
    <time>2026-06-04T15:24:53Z</time>
  </metadata>
  <trk>
    <name>Route 2022-11-25 9:31am</name>
    <trkseg>
      <trkpt lon="35.013547" lat="31.900307"><ele>258.108375</ele><time>2022-11-25T07:25:24Z</time><extensions><speed>2.113451</speed><course>72.603427</course><hAcc>2.911871</hAcc><vAcc>1.214621</vAcc></extensions></trkpt>
      <trkpt lon="35.013568" lat="31.900313"><ele>258.124189</ele><time>2022-11-25T07:25:25Z</time><extensions><speed>2.082897</speed><course>71.569930</course><hAcc>2.448416</hAcc><vAcc>1.058907</vAcc></extensions></trkpt>
      <trkpt lon="35.013588" lat="31.900320"><ele>258.109720</ele><time>2022-11-25T07:25:26Z</time><extensions><speed>2.048628</speed><course>68.286401</course><hAcc>2.175028</hAcc><vAcc>0.945192</vAcc></extensions></trkpt>
      <trkpt lon="35.013608" lat="31.900326"><ele>258.098158</ele><time>2022-11-25T07:25:27Z</time><extensions><speed>1.929658</speed><course>67.120271</course><hAcc>2.023761</hAcc><vAcc>0.866471</vAcc></extensions></trkpt>
      <trkpt lon="35.013626" lat="31.900333"><ele>258.115009</ele><time>2022-11-25T07:25:28Z</time><extensions><speed>1.783637</speed><course>66.747702</course><hAcc>1.932489</hAcc><vAcc>0.815727</vAcc></extensions></trkpt>
      <trkpt lon="35.013642" lat="31.900339"><ele>258.151999</ele><time>2022-11-25T07:25:29Z</time><extensions><speed>1.599232</speed><course>66.322137</course><hAcc>1.888708</hAcc><vAcc>0.785975</vAcc></extensions></trkpt>
      <trkpt lon="35.013657" lat="31.900345"><ele>258.199834</ele><time>2022-11-25T07:25:30Z</time><extensions><speed>1.475330</speed><course>63.851283</course><hAcc>1.856640</hAcc><vAcc>0.770975</vAcc></extensions></trkpt>
      <trkpt lon="35.013671" lat="31.900351"><ele>258.248889</ele><time>2022-11-25T07:25:31Z</time><extensions><speed>1.497055</speed><course>63.624269</course><hAcc>1.840544</hAcc><vAcc>0.765733</vAcc></extensions></trkpt>
      <trkpt lon="35.013686" lat="31.900357"><ele>258.311231</ele><time>2022-11-25T07:25:32Z</time><extensions><speed>1.590870</speed><course>64.227931</course><hAcc>1.834786</hAcc><vAcc>0.766571</vAcc></extensions></trkpt>
      <trkpt lon="35.013701" lat="31.900362"><ele>258.394193</ele><time>2022-11-25T07:25:33Z</time><extensions><speed>1.621729</speed><course>65.982876</course><hAcc>1.816841</hAcc><vAcc>0.770935</vAcc></extensions></trkpt>
      <trkpt lon="35.013717" lat="31.900367"><ele>258.476333</ele><time>2022-11-25T07:25:34Z</time><extensions><speed>1.666132</speed><course>69.158808</course><hAcc>1.769998</hAcc><vAcc>0.777146</vAcc></extensions></trkpt>
      <trkpt lon="35.013734" lat="31.900371"><ele>258.550888</ele><time>2022-11-25T07:25:35Z</time><extensions><speed>1.611103</speed><course>75.747671</course><hAcc>1.710267</hAcc><vAcc>0.784150</vAcc></extensions></trkpt>
      <trkpt lon="35.013751" lat="31.900373"><ele>258.635839</ele><time>2022-11-25T07:25:36Z</time><extensions><speed>1.720441</speed><course>82.284556</course><hAcc>1.655450</hAcc><vAcc>0.791256</vAcc></extensions></trkpt>
      <trkpt lon="35.013769" lat="31.900375"><ele>258.751775</ele><time>2022-11-25T07:25:37Z</time><extensions><speed>1.758805</speed><course>78.680272</course><hAcc>1.620275</hAcc><vAcc>0.798016</vAcc></extensions></trkpt>
      <trkpt lon="35.013787" lat="31.900380"><ele>258.846084</ele><time>2022-11-25T07:25:38Z</time><extensions><speed>1.929856</speed><course>65.249467</course><hAcc>1.592068</hAcc><vAcc>0.804152</vAcc></extensions></trkpt>
      <trkpt lon="35.013806" lat="31.900387"><ele>258.916288</ele><time>2022-11-25T07:25:39Z</time><extensions><speed>1.923942</speed><course>64.428154</course><hAcc>1.555750</hAcc><vAcc>0.809562</vAcc></extensions></trkpt>
      <trkpt lon="35.013824" lat="31.900393"><ele>258.971283</ele><time>2022-11-25T07:25:40Z</time><extensions><speed>1.846515</speed><course>73.953773</course><hAcc>1.526342</hAcc><vAcc>0.814195</vAcc></extensions></trkpt>
      <trkpt lon="35.013842" lat="31.900396"><ele>259.003022</ele><time>2022-11-25T07:25:41Z</time><extensions><speed>1.703118</speed><course>83.848741</course><hAcc>1.506876</hAcc><vAcc>0.818069</vAcc></extensions></trkpt>
      <trkpt lon="35.013860" lat="31.900395"><ele>259.017809</ele><time>2022-11-25T07:25:42Z</time><extensions><speed>1.702577</speed><course>104.423049</course><hAcc>1.489677</hAcc><vAcc>0.821240</vAcc></extensions></trkpt>
      <trkpt lon="35.013877" lat="31.900387"><ele>259.022593</ele><time>2022-11-25T07:25:43Z</time><extensions><speed>1.989644</speed><course>129.917869</course><hAcc>1.481194</hAcc><vAcc>0.823824</vAcc></extensions></trkpt>
      <trkpt lon="35.013891" lat="31.900374"><ele>259.015585</ele><time>2022-11-25T07:25:44Z</time><extensions><speed>2.155653</speed><course>146.179750</course><hAcc>1.473670</hAcc><vAcc>0.825865</vAcc></extensions></trkpt>
      <trkpt lon="35.013902" lat="31.900357"><ele>258.990024</ele><time>2022-11-25T07:25:45Z</time><extensions><speed>2.152066</speed><course>153.821567</course><hAcc>1.476384</hAcc><vAcc>0.827463</vAcc></extensions></trkpt>
      <trkpt lon="35.013912" lat="31.900340"><ele>258.953447</ele><time>2022-11-25T07:25:46Z</time><extensions><speed>2.077919</speed><course>156.321672</course><hAcc>1.484176</hAcc><vAcc>0.828689</vAcc></extensions></trkpt>
      <trkpt lon="35.013920" lat="31.900324"><ele>258.895782</ele><time>2022-11-25T07:25:47Z</time><extensions><speed>1.957809</speed><course>156.526659</course><hAcc>1.494589</hAcc><vAcc>0.829611</vAcc></extensions></trkpt>
      <trkpt lon="35.013928" lat="31.900308"><ele>258.820858</ele><time>2022-11-25T07:25:48Z</time><extensions><speed>1.777562</speed><course>157.673481</course><hAcc>1.511068</hAcc><vAcc>0.830298</vAcc></extensions></trkpt>
      <trkpt lon="35.013934" lat="31.900294"><ele>258.736936</ele><time>2022-11-25T07:25:49Z</time><extensions><speed>1.576050</speed><course>161.800195</course><hAcc>1.531104</hAcc><vAcc>0.830797</vAcc></extensions></trkpt>
      <trkpt lon="35.013938" lat="31.900282"><ele>258.665308</ele><time>2022-11-25T07:25:50Z</time><extensions><speed>1.274626</speed><course>166.769609</course><hAcc>1.534353</hAcc><vAcc>0.831139</vAcc></extensions></trkpt>
      <trkpt lon="35.013942" lat="31.900272"><ele>258.588285</ele><time>2022-11-25T07:25:51Z</time><extensions><speed>1.048499</speed><course>158.334062</course><hAcc>1.556781</hAcc><vAcc>0.831343</vAcc></extensions></trkpt>
      <trkpt lon="35.013947" lat="31.900265"><ele>258.498566</ele><time>2022-11-25T07:25:52Z</time><extensions><speed>0.751430</speed><course>131.279333</course><hAcc>1.573723</hAcc><vAcc>0.831462</vAcc></extensions></trkpt>
      <trkpt lon="35.013953" lat="31.900262"><ele>258.392012</ele><time>2022-11-25T07:25:53Z</time><extensions><speed>0.587104</speed><course>100.111743</course><hAcc>1.587324</hAcc><vAcc>0.831525</vAcc></extensions></trkpt>
      <trkpt lon="35.013959" lat="31.900262"><ele>258.277167</ele><time>2022-11-25T07:25:54Z</time><extensions><speed>0.681652</speed><course>81.015434</course><hAcc>1.594850</hAcc><vAcc>0.831560</vAcc></extensions></trkpt>
      <trkpt lon="35.013967" lat="31.900263"><ele>258.142985</ele><time>2022-11-25T07:25:55Z</time><extensions><speed>0.885595</speed><course>76.592619</course><hAcc>1.588539</hAcc><vAcc>0.831586</vAcc></extensions></trkpt>
      <trkpt lon="35.013977" lat="31.900265"><ele>258.003918</ele><time>2022-11-25T07:25:56Z</time><extensions><speed>1.087329</speed><course>77.163370</course><hAcc>1.565523</hAcc><vAcc>0.831631</vAcc></extensions></trkpt>
      <trkpt lon="35.013989" lat="31.900266"><ele>257.890404</ele><time>2022-11-25T07:25:57Z</time><extensions><speed>1.333709</speed><course>84.825060</course><hAcc>1.543798</hAcc><vAcc>0.831693</vAcc></extensions></trkpt>
      <trkpt lon="35.014004" lat="31.900267"><ele>257.765787</ele><time>2022-11-25T07:25:58Z</time><extensions><speed>1.546351</speed><course>89.839887</course><hAcc>1.546207</hAcc><vAcc>0.831790</vAcc></extensions></trkpt>
      <trkpt lon="35.014020" lat="31.900267"><ele>257.632095</ele><time>2022-11-25T07:25:59Z</time><extensions><speed>1.604963</speed><course>85.245933</course><hAcc>1.527370</hAcc><vAcc>0.831915</vAcc></extensions></trkpt>
      <trkpt lon="35.014036" lat="31.900268"><ele>257.499496</ele><time>2022-11-25T07:26:00Z</time><extensions><speed>1.545884</speed><course>87.870142</course><hAcc>1.496275</hAcc><vAcc>0.832071</vAcc></extensions></trkpt>
      <trkpt lon="35.014051" lat="31.900267"><ele>257.367085</ele><time>2022-11-25T07:26:01Z</time><extensions><speed>1.513562</speed><course>100.467467</course><hAcc>1.476220</hAcc><vAcc>0.832263</vAcc></extensions></trkpt>
      <trkpt lon="35.014066" lat="31.900262"><ele>257.251869</ele><time>2022-11-25T07:26:02Z</time><extensions><speed>1.516536</speed><course>120.440154</course><hAcc>1.462015</hAcc><vAcc>0.832497</vAcc></extensions></trkpt>
      <trkpt lon="35.014078" lat="31.900252"><ele>257.150824</ele><time>2022-11-25T07:26:03Z</time><extensions><speed>1.725408</speed><course>141.822693</course><hAcc>1.456162</hAcc><vAcc>0.832762</vAcc></extensions></trkpt>
      <trkpt lon="35.014087" lat="31.900238"><ele>257.070899</ele><time>2022-11-25T07:26:04Z</time><extensions><speed>1.862579</speed><course>156.408491</course><hAcc>1.449141</hAcc><vAcc>0.833028</vAcc></extensions></trkpt>
      <trkpt lon="35.014094" lat="31.900223"><ele>257.008897</ele><time>2022-11-25T07:26:05Z</time><extensions><speed>1.834106</speed><course>164.137506</course><hAcc>1.439610</hAcc><vAcc>0.833274</vAcc></extensions></trkpt>
      <trkpt lon="35.014098" lat="31.900207"><ele>256.943864</ele><time>2022-11-25T07:26:06Z</time><extensions><speed>1.875707</speed><course>171.625151</course><hAcc>1.433389</hAcc><vAcc>0.833511</vAcc></extensions></trkpt>
      <trkpt lon="35.014101" lat="31.900190"><ele>256.886444</ele><time>2022-11-25T07:26:07Z</time><extensions><speed>1.933508</speed><course>174.392620</course><hAcc>1.434587</hAcc><vAcc>0.833722</vAcc></extensions></trkpt>
      <trkpt lon="35.014103" lat="31.900173"><ele>256.813059</ele><time>2022-11-25T07:26:08Z</time><extensions><speed>1.886029</speed><course>172.904757</course><hAcc>1.428609</hAcc><vAcc>0.833900</vAcc></extensions></trkpt>
      <trkpt lon="35.014105" lat="31.900156"><ele>256.741994</ele><time>2022-11-25T07:26:09Z</time><extensions><speed>1.892048</speed><course>175.147700</course><hAcc>1.424581</hAcc><vAcc>0.834057</vAcc></extensions></trkpt>
      <trkpt lon="35.014106" lat="31.900139"><ele>256.680746</ele><time>2022-11-25T07:26:10Z</time><extensions><speed>1.886493</speed><course>177.453689</course><hAcc>1.418539</hAcc><vAcc>0.834189</vAcc></extensions></trkpt>
      <trkpt lon="35.014106" lat="31.900123"><ele>256.644020</ele><time>2022-11-25T07:26:11Z</time><extensions><speed>1.835709</speed><course>186.387075</course><hAcc>1.418528</hAcc><vAcc>0.834298</vAcc></extensions></trkpt>
      <trkpt lon="35.014103" lat="31.900107"><ele>256.621317</ele><time>2022-11-25T07:26:12Z</time><extensions><speed>1.765296</speed><course>188.833328</course><hAcc>1.418125</hAcc><vAcc>0.834384</vAcc></extensions></trkpt>
      <trkpt lon="35.014101" lat="31.900091"><ele>256.585402</ele><time>2022-11-25T07:26:13Z</time><extensions><speed>1.641214</speed><course>185.517203</course><hAcc>1.412974</hAcc><vAcc>0.834436</vAcc></extensions></trkpt>
      <trkpt lon="35.014100" lat="31.900077"><ele>256.550808</ele><time>2022-11-25T07:26:14Z</time><extensions><speed>1.471489</speed><course>175.867734</course><hAcc>1.406461</hAcc><vAcc>0.834449</vAcc></extensions></trkpt>
      <trkpt lon="35.014103" lat="31.900064"><ele>256.499090</ele><time>2022-11-25T07:26:15Z</time><extensions><speed>1.507257</speed><course>162.431226</course><hAcc>1.405874</hAcc><vAcc>0.834462</vAcc></extensions></trkpt>
      <trkpt lon="35.014109" lat="31.900051"><ele>256.443073</ele><time>2022-11-25T07:26:16Z</time><extensions><speed>1.637605</speed><course>158.839531</course><hAcc>1.413276</hAcc><vAcc>0.834493</vAcc></extensions></trkpt>
      <trkpt lon="35.014115" lat="31.900037"><ele>256.382723</ele><time>2022-11-25T07:26:17Z</time><extensions><speed>1.701613</speed><course>160.798508</course><hAcc>1.415546</hAcc><vAcc>0.834536</vAcc></extensions></trkpt>
      <trkpt lon="35.014121" lat="31.900023"><ele>256.334717</ele><time>2022-11-25T07:26:18Z</time><extensions><speed>1.633217</speed><course>160.290673</course><hAcc>1.410140</hAcc><vAcc>0.834633</vAcc></extensions></trkpt>
      <trkpt lon="35.014127" lat="31.900009"><ele>256.272605</ele><time>2022-11-25T07:26:19Z</time><extensions><speed>1.620631</speed><course>160.868111</course><hAcc>1.411146</hAcc><vAcc>0.834708</vAcc></extensions></trkpt>
      <trkpt lon="35.014133" lat="31.899995"><ele>256.204873</ele><time>2022-11-25T07:26:20Z</time><extensions><speed>1.643905</speed><course>161.276872</course><hAcc>1.413306</hAcc><vAcc>0.834794</vAcc></extensions></trkpt>
      <trkpt lon="35.014137" lat="31.899981"><ele>256.139814</ele><time>2022-11-25T07:26:21Z</time><extensions><speed>1.672868</speed><course>169.399122</course><hAcc>1.423478</hAcc><vAcc>0.834876</vAcc></extensions></trkpt>
      <trkpt lon="35.014139" lat="31.899966"><ele>256.084212</ele><time>2022-11-25T07:26:22Z</time><extensions><speed>1.755593</speed><course>178.948715</course><hAcc>1.431632</hAcc><vAcc>0.834998</vAcc></extensions></trkpt>
      <trkpt lon="35.014139" lat="31.899949"><ele>256.000671</ele><time>2022-11-25T07:26:23Z</time><extensions><speed>1.886068</speed><course>182.524209</course><hAcc>1.431777</hAcc><vAcc>0.835141</vAcc></extensions></trkpt>
      <trkpt lon="35.014138" lat="31.899932"><ele>255.933720</ele><time>2022-11-25T07:26:24Z</time><extensions><speed>1.818142</speed><course>178.357078</course><hAcc>1.433219</hAcc><vAcc>0.835277</vAcc></extensions></trkpt>
      <trkpt lon="35.014139" lat="31.899916"><ele>255.871684</ele><time>2022-11-25T07:26:25Z</time><extensions><speed>1.730141</speed><course>174.147193</course><hAcc>1.438827</hAcc><vAcc>0.835408</vAcc></extensions></trkpt>
      <trkpt lon="35.014140" lat="31.899901"><ele>255.789469</ele><time>2022-11-25T07:26:26Z</time><extensions><speed>1.753709</speed><course>181.103308</course><hAcc>1.446794</hAcc><vAcc>0.835532</vAcc></extensions></trkpt>
      <trkpt lon="35.014140" lat="31.899885"><ele>255.727692</ele><time>2022-11-25T07:26:27Z</time><extensions><speed>1.769840</speed><course>177.110568</course><hAcc>1.451541</hAcc><vAcc>0.835652</vAcc></extensions></trkpt>
      <trkpt lon="35.014143" lat="31.899869"><ele>255.655389</ele><time>2022-11-25T07:26:28Z</time><extensions><speed>1.730485</speed><course>166.666980</course><hAcc>1.459930</hAcc><vAcc>0.835761</vAcc></extensions></trkpt>
      <trkpt lon="35.014149" lat="31.899855"><ele>255.593845</ele><time>2022-11-25T07:26:29Z</time><extensions><speed>1.716206</speed><course>155.429867</course><hAcc>1.466149</hAcc><vAcc>0.835839</vAcc></extensions></trkpt>
      <trkpt lon="35.014158" lat="31.899841"><ele>255.528257</ele><time>2022-11-25T07:26:30Z</time><extensions><speed>1.791629</speed><course>147.586433</course><hAcc>1.466461</hAcc><vAcc>0.835898</vAcc></extensions></trkpt>
      <trkpt lon="35.014167" lat="31.899827"><ele>255.489505</ele><time>2022-11-25T07:26:31Z</time><extensions><speed>1.841143</speed><course>155.307753</course><hAcc>1.470628</hAcc><vAcc>0.835914</vAcc></extensions></trkpt>
      <trkpt lon="35.014173" lat="31.899811"><ele>255.456296</ele><time>2022-11-25T07:26:32Z</time><extensions><speed>1.940846</speed><course>168.294859</course><hAcc>1.473135</hAcc><vAcc>0.835890</vAcc></extensions></trkpt>
      <trkpt lon="35.014175" lat="31.899794"><ele>255.433536</ele><time>2022-11-25T07:26:33Z</time><extensions><speed>1.856083</speed><course>179.752867</course><hAcc>1.480515</hAcc><vAcc>0.835827</vAcc></extensions></trkpt>
      <trkpt lon="35.014174" lat="31.899777"><ele>255.402214</ele><time>2022-11-25T07:26:34Z</time><extensions><speed>1.780239</speed><course>185.374502</course><hAcc>1.487168</hAcc><vAcc>0.835710</vAcc></extensions></trkpt>
      <trkpt lon="35.014173" lat="31.899762"><ele>255.341248</ele><time>2022-11-25T07:26:35Z</time><extensions><speed>1.757323</speed><course>178.078555</course><hAcc>1.484829</hAcc><vAcc>0.835541</vAcc></extensions></trkpt>
      <trkpt lon="35.014175" lat="31.899746"><ele>255.269914</ele><time>2022-11-25T07:26:36Z</time><extensions><speed>1.706543</speed><course>173.412238</course><hAcc>1.474736</hAcc><vAcc>0.835353</vAcc></extensions></trkpt>
      <trkpt lon="35.014178" lat="31.899731"><ele>255.218956</ele><time>2022-11-25T07:26:37Z</time><extensions><speed>1.718833</speed><course>167.929885</course><hAcc>1.482183</hAcc><vAcc>0.835190</vAcc></extensions></trkpt>
      <trkpt lon="35.014182" lat="31.899716"><ele>255.225580</ele><time>2022-11-25T07:26:38Z</time><extensions><speed>1.721526</speed><course>165.654643</course><hAcc>1.488058</hAcc><vAcc>0.835063</vAcc></extensions></trkpt>
      <trkpt lon="35.014186" lat="31.899701"><ele>255.235866</ele><time>2022-11-25T07:26:39Z</time><extensions><speed>1.736221</speed><course>168.248055</course><hAcc>1.489546</hAcc><vAcc>0.834992</vAcc></extensions></trkpt>
      <trkpt lon="35.014190" lat="31.899686"><ele>255.228635</ele><time>2022-11-25T07:26:40Z</time><extensions><speed>1.759843</speed><course>165.997510</course><hAcc>1.493155</hAcc><vAcc>0.834930</vAcc></extensions></trkpt>
      <trkpt lon="35.014195" lat="31.899670"><ele>255.224334</ele><time>2022-11-25T07:26:41Z</time><extensions><speed>1.820967</speed><course>168.013985</course><hAcc>1.504285</hAcc><vAcc>0.834869</vAcc></extensions></trkpt>
      <trkpt lon="35.014198" lat="31.899654"><ele>255.229367</ele><time>2022-11-25T07:26:42Z</time><extensions><speed>1.819566</speed><course>173.756740</course><hAcc>1.517641</hAcc><vAcc>0.834856</vAcc></extensions></trkpt>
      <trkpt lon="35.014200" lat="31.899638"><ele>255.262130</ele><time>2022-11-25T07:26:43Z</time><extensions><speed>1.768666</speed><course>176.989370</course><hAcc>1.526461</hAcc><vAcc>0.834920</vAcc></extensions></trkpt>
      <trkpt lon="35.014201" lat="31.899622"><ele>255.306818</ele><time>2022-11-25T07:26:44Z</time><extensions><speed>1.670987</speed><course>175.113042</course><hAcc>1.522201</hAcc><vAcc>0.834998</vAcc></extensions></trkpt>
      <trkpt lon="35.014204" lat="31.899608"><ele>255.335368</ele><time>2022-11-25T07:26:45Z</time><extensions><speed>1.568132</speed><course>169.417810</course><hAcc>1.529904</hAcc><vAcc>0.835096</vAcc></extensions></trkpt>
      <trkpt lon="35.014207" lat="31.899594"><ele>255.355391</ele><time>2022-11-25T07:26:46Z</time><extensions><speed>1.572555</speed><course>164.962812</course><hAcc>1.552319</hAcc><vAcc>0.835229</vAcc></extensions></trkpt>
      <trkpt lon="35.014212" lat="31.899581"><ele>255.390664</ele><time>2022-11-25T07:26:47Z</time><extensions><speed>1.532505</speed><course>164.507161</course><hAcc>1.574288</hAcc><vAcc>0.835383</vAcc></extensions></trkpt>
      <trkpt lon="35.014216" lat="31.899569"><ele>255.421427</ele><time>2022-11-25T07:26:48Z</time><extensions><speed>1.364238</speed><course>161.950865</course><hAcc>1.593253</hAcc><vAcc>0.835556</vAcc></extensions></trkpt>
      <trkpt lon="35.014223" lat="31.899558"><ele>255.456177</ele><time>2022-11-25T07:26:49Z</time><extensions><speed>1.336022</speed><course>142.282460</course><hAcc>1.594240</hAcc><vAcc>0.835726</vAcc></extensions></trkpt>
      <trkpt lon="35.014234" lat="31.899550"><ele>255.478335</ele><time>2022-11-25T07:26:50Z</time><extensions><speed>1.485993</speed><course>119.942591</course><hAcc>1.567435</hAcc><vAcc>0.835839</vAcc></extensions></trkpt>
      <trkpt lon="35.014249" lat="31.899544"><ele>255.495701</ele><time>2022-11-25T07:26:51Z</time><extensions><speed>1.723329</speed><course>110.275764</course><hAcc>1.545886</hAcc><vAcc>0.835897</vAcc></extensions></trkpt>
      <trkpt lon="35.014267" lat="31.899538"><ele>255.516876</ele><time>2022-11-25T07:26:52Z</time><extensions><speed>1.905802</speed><course>105.803063</course><hAcc>1.543034</hAcc><vAcc>0.835900</vAcc></extensions></trkpt>
      <trkpt lon="35.014287" lat="31.899533"><ele>255.549673</ele><time>2022-11-25T07:26:53Z</time><extensions><speed>1.950909</speed><course>106.873699</course><hAcc>1.556912</hAcc><vAcc>0.835844</vAcc></extensions></trkpt>
      <trkpt lon="35.014306" lat="31.899528"><ele>255.581687</ele><time>2022-11-25T07:26:54Z</time><extensions><speed>1.935249</speed><course>102.686824</course><hAcc>1.526522</hAcc><vAcc>0.835769</vAcc></extensions></trkpt>
      <trkpt lon="35.014327" lat="31.899525"><ele>255.594827</ele><time>2022-11-25T07:26:55Z</time><extensions><speed>1.988728</speed><course>94.651895</course><hAcc>1.512643</hAcc><vAcc>0.835693</vAcc></extensions></trkpt>
      <trkpt lon="35.014347" lat="31.899525"><ele>255.592313</ele><time>2022-11-25T07:26:56Z</time><extensions><speed>1.967778</speed><course>87.102542</course><hAcc>1.502837</hAcc><vAcc>0.835585</vAcc></extensions></trkpt>
      <trkpt lon="35.014367" lat="31.899525"><ele>255.591328</ele><time>2022-11-25T07:26:57Z</time><extensions><speed>1.885883</speed><course>86.991601</course><hAcc>1.484089</hAcc><vAcc>0.835425</vAcc></extensions></trkpt>
      <trkpt lon="35.014386" lat="31.899525"><ele>255.595336</ele><time>2022-11-25T07:26:58Z</time><extensions><speed>1.778498</speed><course>93.719259</course><hAcc>1.469387</hAcc><vAcc>0.835241</vAcc></extensions></trkpt>
      <trkpt lon="35.014405" lat="31.899524"><ele>255.616436</ele><time>2022-11-25T07:26:59Z</time><extensions><speed>1.712148</speed><course>98.935001</course><hAcc>1.462067</hAcc><vAcc>0.835041</vAcc></extensions></trkpt>
      <trkpt lon="35.014421" lat="31.899519"><ele>255.654608</ele><time>2022-11-25T07:27:00Z</time><extensions><speed>1.715234</speed><course>116.957994</course><hAcc>1.461791</hAcc><vAcc>0.834807</vAcc></extensions></trkpt>
      <trkpt lon="35.014436" lat="31.899510"><ele>255.687325</ele><time>2022-11-25T07:27:01Z</time><extensions><speed>1.878145</speed><course>134.077671</course><hAcc>1.461306</hAcc><vAcc>0.834542</vAcc></extensions></trkpt>
      <trkpt lon="35.014450" lat="31.899498"><ele>255.716058</ele><time>2022-11-25T07:27:02Z</time><extensions><speed>1.867234</speed><course>135.491871</course><hAcc>1.454147</hAcc><vAcc>0.834245</vAcc></extensions></trkpt>
      <trkpt lon="35.014464" lat="31.899486"><ele>255.746612</ele><time>2022-11-25T07:27:03Z</time><extensions><speed>1.801418</speed><course>133.458179</course><hAcc>1.451951</hAcc><vAcc>0.833934</vAcc></extensions></trkpt>
      <trkpt lon="35.014477" lat="31.899476"><ele>255.784641</ele><time>2022-11-25T07:27:04Z</time><extensions><speed>1.725659</speed><course>130.586694</course><hAcc>1.453821</hAcc><vAcc>0.833614</vAcc></extensions></trkpt>
      <trkpt lon="35.014490" lat="31.899465"><ele>255.810435</ele><time>2022-11-25T07:27:05Z</time><extensions><speed>1.651681</speed><course>136.360513</course><hAcc>1.454241</hAcc><vAcc>0.833267</vAcc></extensions></trkpt>
      <trkpt lon="35.014501" lat="31.899455"><ele>255.830015</ele><time>2022-11-25T07:27:06Z</time><extensions><speed>1.619499</speed><course>140.640438</course><hAcc>1.456937</hAcc><vAcc>0.832884</vAcc></extensions></trkpt>
      <trkpt lon="35.014511" lat="31.899444"><ele>255.847323</ele><time>2022-11-25T07:27:07Z</time><extensions><speed>1.536040</speed><course>140.810763</course><hAcc>1.448750</hAcc><vAcc>0.832479</vAcc></extensions></trkpt>
      <trkpt lon="35.014522" lat="31.899434"><ele>255.867857</ele><time>2022-11-25T07:27:08Z</time><extensions><speed>1.480834</speed><course>134.201189</course><hAcc>1.452754</hAcc><vAcc>0.832088</vAcc></extensions></trkpt>
      <trkpt lon="35.014533" lat="31.899426"><ele>255.879914</ele><time>2022-11-25T07:27:09Z</time><extensions><speed>1.431157</speed><course>124.737002</course><hAcc>1.455980</hAcc><vAcc>0.831753</vAcc></extensions></trkpt>
      <trkpt lon="35.014546" lat="31.899419"><ele>255.887729</ele><time>2022-11-25T07:27:10Z</time><extensions><speed>1.378747</speed><course>117.132110</course><hAcc>1.451067</hAcc><vAcc>0.831416</vAcc></extensions></trkpt>
      <trkpt lon="35.014558" lat="31.899415"><ele>255.897874</ele><time>2022-11-25T07:27:11Z</time><extensions><speed>1.319996</speed><course>109.399953</course><hAcc>1.449532</hAcc><vAcc>0.831104</vAcc></extensions></trkpt>
      <trkpt lon="35.014571" lat="31.899412"><ele>255.906664</ele><time>2022-11-25T07:27:12Z</time><extensions><speed>1.304596</speed><course>106.437752</course><hAcc>1.451025</hAcc><vAcc>0.830827</vAcc></extensions></trkpt>
      <trkpt lon="35.014584" lat="31.899409"><ele>255.928369</ele><time>2022-11-25T07:27:13Z</time><extensions><speed>1.330004</speed><course>106.869411</course><hAcc>1.449577</hAcc><vAcc>0.830577</vAcc></extensions></trkpt>
      <trkpt lon="35.014597" lat="31.899406"><ele>255.940200</ele><time>2022-11-25T07:27:14Z</time><extensions><speed>1.311988</speed><course>102.645122</course><hAcc>1.433432</hAcc><vAcc>0.830366</vAcc></extensions></trkpt>
      <trkpt lon="35.014611" lat="31.899403"><ele>255.928424</ele><time>2022-11-25T07:27:15Z</time><extensions><speed>1.435865</speed><course>99.668663</course><hAcc>1.436344</hAcc><vAcc>0.830201</vAcc></extensions></trkpt>
      <trkpt lon="35.014626" lat="31.899401"><ele>255.917351</ele><time>2022-11-25T07:27:16Z</time><extensions><speed>1.456983</speed><course>100.285759</course><hAcc>1.426419</hAcc><vAcc>0.830072</vAcc></extensions></trkpt>
      <trkpt lon="35.014641" lat="31.899399"><ele>255.908180</ele><time>2022-11-25T07:27:17Z</time><extensions><speed>1.462010</speed><course>97.482237</course><hAcc>1.411872</hAcc><vAcc>0.829974</vAcc></extensions></trkpt>
      <trkpt lon="35.014657" lat="31.899397"><ele>255.890459</ele><time>2022-11-25T07:27:18Z</time><extensions><speed>1.545449</speed><course>95.451305</course><hAcc>1.409898</hAcc><vAcc>0.829901</vAcc></extensions></trkpt>
      <trkpt lon="35.014673" lat="31.899396"><ele>255.882821</ele><time>2022-11-25T07:27:19Z</time><extensions><speed>1.572195</speed><course>88.568816</course><hAcc>1.401279</hAcc><vAcc>0.829844</vAcc></extensions></trkpt>
      <trkpt lon="35.014689" lat="31.899398"><ele>255.860701</ele><time>2022-11-25T07:27:20Z</time><extensions><speed>1.605274</speed><course>77.374879</course><hAcc>1.390551</hAcc><vAcc>0.829775</vAcc></extensions></trkpt>
      <trkpt lon="35.014705" lat="31.899403"><ele>255.837646</ele><time>2022-11-25T07:27:21Z</time><extensions><speed>1.620371</speed><course>66.753103</course><hAcc>1.379506</hAcc><vAcc>0.829679</vAcc></extensions></trkpt>
      <trkpt lon="35.014720" lat="31.899409"><ele>255.809774</ele><time>2022-11-25T07:27:22Z</time><extensions><speed>1.661709</speed><course>58.001666</course><hAcc>1.376035</hAcc><vAcc>0.829568</vAcc></extensions></trkpt>
      <trkpt lon="35.014734" lat="31.899417"><ele>255.786190</ele><time>2022-11-25T07:27:23Z</time><extensions><speed>1.630613</speed><course>54.671466</course><hAcc>1.368451</hAcc><vAcc>0.829446</vAcc></extensions></trkpt>
      <trkpt lon="35.014749" lat="31.899423"><ele>255.783835</ele><time>2022-11-25T07:27:24Z</time><extensions><speed>1.619585</speed><course>71.990280</course><hAcc>1.363673</hAcc><vAcc>0.829294</vAcc></extensions></trkpt>
      <trkpt lon="35.014765" lat="31.899425"><ele>255.820248</ele><time>2022-11-25T07:27:25Z</time><extensions><speed>1.607147</speed><course>90.114043</course><hAcc>1.360093</hAcc><vAcc>0.829077</vAcc></extensions></trkpt>
      <trkpt lon="35.014782" lat="31.899425"><ele>255.892454</ele><time>2022-11-25T07:27:26Z</time><extensions><speed>1.648703</speed><course>92.924271</course><hAcc>1.361163</hAcc><vAcc>0.828812</vAcc></extensions></trkpt>
      <trkpt lon="35.014799" lat="31.899424"><ele>256.001038</ele><time>2022-11-25T07:27:27Z</time><extensions><speed>1.657225</speed><course>91.275066</course><hAcc>1.361846</hAcc><vAcc>0.828499</vAcc></extensions></trkpt>
      <trkpt lon="35.014815" lat="31.899423"><ele>256.111373</ele><time>2022-11-25T07:27:28Z</time><extensions><speed>1.637995</speed><course>93.230177</course><hAcc>1.361191</hAcc><vAcc>0.828169</vAcc></extensions></trkpt>
      <trkpt lon="35.014832" lat="31.899422"><ele>256.236306</ele><time>2022-11-25T07:27:29Z</time><extensions><speed>1.575567</speed><course>91.089544</course><hAcc>1.360330</hAcc><vAcc>0.827830</vAcc></extensions></trkpt>
      <trkpt lon="35.014848" lat="31.899422"><ele>256.329715</ele><time>2022-11-25T07:27:30Z</time><extensions><speed>1.573692</speed><course>89.697666</course><hAcc>1.369796</hAcc><vAcc>0.827451</vAcc></extensions></trkpt>
      <trkpt lon="35.014864" lat="31.899422"><ele>256.429310</ele><time>2022-11-25T07:27:31Z</time><extensions><speed>1.510682</speed><course>89.845950</course><hAcc>1.377803</hAcc><vAcc>0.827000</vAcc></extensions></trkpt>
      <trkpt lon="35.014880" lat="31.899421"><ele>256.524430</ele><time>2022-11-25T07:27:32Z</time><extensions><speed>1.547858</speed><course>95.352175</course><hAcc>1.394741</hAcc><vAcc>0.826552</vAcc></extensions></trkpt>
      <trkpt lon="35.014895" lat="31.899419"><ele>256.621458</ele><time>2022-11-25T07:27:33Z</time><extensions><speed>1.406927</speed><course>102.182496</course><hAcc>1.400774</hAcc><vAcc>0.826063</vAcc></extensions></trkpt>
      <trkpt lon="35.014908" lat="31.899414"><ele>256.717782</ele><time>2022-11-25T07:27:34Z</time><extensions><speed>1.250437</speed><course>119.278357</course><hAcc>1.412843</hAcc><vAcc>0.825551</vAcc></extensions></trkpt>
      <trkpt lon="35.014918" lat="31.899407"><ele>256.809382</ele><time>2022-11-25T07:27:35Z</time><extensions><speed>1.166688</speed><course>142.869940</course><hAcc>1.423048</hAcc><vAcc>0.825021</vAcc></extensions></trkpt>
      <trkpt lon="35.014923" lat="31.899399"><ele>256.891917</ele><time>2022-11-25T07:27:36Z</time><extensions><speed>1.075291</speed><course>158.300122</course><hAcc>1.443823</hAcc><vAcc>0.824475</vAcc></extensions></trkpt>
      <trkpt lon="35.014926" lat="31.899390"><ele>256.961652</ele><time>2022-11-25T07:27:37Z</time><extensions><speed>0.840115</speed><course>173.690157</course><hAcc>1.494535</hAcc><vAcc>0.823934</vAcc></extensions></trkpt>
      <trkpt lon="35.014926" lat="31.899386"><ele>257.016149</ele><time>2022-11-25T07:27:38Z</time><extensions><speed>0.208303</speed><course>204.025065</course><hAcc>1.561786</hAcc><vAcc>0.823405</vAcc></extensions></trkpt>
      <trkpt lon="35.014924" lat="31.899384"><ele>257.017172</ele><time>2022-11-25T07:27:39Z</time><extensions><speed>0.358825</speed><course>220.665737</course><hAcc>1.540817</hAcc><vAcc>0.822930</vAcc></extensions></trkpt>
      <trkpt lon="35.014921" lat="31.899380"><ele>256.997126</ele><time>2022-11-25T07:27:40Z</time><extensions><speed>0.551158</speed><course>217.932534</course><hAcc>1.532964</hAcc><vAcc>0.822473</vAcc></extensions></trkpt>
      <trkpt lon="35.014918" lat="31.899377"><ele>256.956123</ele><time>2022-11-25T07:27:41Z</time><extensions><speed>0.426644</speed><course>219.974716</course><hAcc>1.597418</hAcc><vAcc>0.822047</vAcc></extensions></trkpt>
      <trkpt lon="35.014915" lat="31.899374"><ele>256.895229</ele><time>2022-11-25T07:27:42Z</time><extensions><speed>0.337627</speed><course>220.617490</course><hAcc>1.647820</hAcc><vAcc>0.821668</vAcc></extensions></trkpt>
      <trkpt lon="35.014913" lat="31.899372"><ele>256.819435</ele><time>2022-11-25T07:27:43Z</time><extensions><speed>0.271639</speed><course>221.965378</course><hAcc>1.674212</hAcc><vAcc>0.821326</vAcc></extensions></trkpt>
      <trkpt lon="35.014912" lat="31.899371"><ele>256.724300</ele><time>2022-11-25T07:27:44Z</time><extensions><speed>0.201668</speed><course>224.817367</course><hAcc>1.697202</hAcc><vAcc>0.821023</vAcc></extensions></trkpt>
      <trkpt lon="35.014910" lat="31.899370"><ele>256.617696</ele><time>2022-11-25T07:27:45Z</time><extensions><speed>0.146125</speed><course>230.880861</course><hAcc>1.714354</hAcc><vAcc>0.820758</vAcc></extensions></trkpt>
      <trkpt lon="35.014909" lat="31.899369"><ele>256.501576</ele><time>2022-11-25T07:27:46Z</time><extensions><speed>0.107427</speed><course>242.559676</course><hAcc>1.724444</hAcc><vAcc>0.820529</vAcc></extensions></trkpt>
      <trkpt lon="35.014908" lat="31.899369"><ele>256.378381</ele><time>2022-11-25T07:27:47Z</time><extensions><speed>0.092772</speed><course>259.912104</course><hAcc>1.721333</hAcc><vAcc>0.820364</vAcc></extensions></trkpt>
      <trkpt lon="35.014907" lat="31.899369"><ele>256.250452</ele><time>2022-11-25T07:27:48Z</time><extensions><speed>0.093153</speed><course>277.936012</course><hAcc>1.711360</hAcc><vAcc>0.820234</vAcc></extensions></trkpt>
      <trkpt lon="35.014906" lat="31.899369"><ele>256.120497</ele><time>2022-11-25T07:27:49Z</time><extensions><speed>0.097354</speed><course>294.084099</course><hAcc>1.701517</hAcc><vAcc>0.820136</vAcc></extensions></trkpt>
      <trkpt lon="35.014905" lat="31.899370"><ele>255.996250</ele><time>2022-11-25T07:27:50Z</time><extensions><speed>0.094097</speed><course>311.190895</course><hAcc>1.713616</hAcc><vAcc>0.820067</vAcc></extensions></trkpt>
      <trkpt lon="35.014905" lat="31.899370"><ele>255.876136</ele><time>2022-11-25T07:27:51Z</time><extensions><speed>0.079931</speed><course>326.644431</course><hAcc>1.737311</hAcc><vAcc>0.820019</vAcc></extensions></trkpt>
      <trkpt lon="35.014904" lat="31.899371"><ele>255.759814</ele><time>2022-11-25T07:27:52Z</time><extensions><speed>0.106208</speed><course>339.876112</course><hAcc>1.706972</hAcc><vAcc>0.819995</vAcc></extensions></trkpt>
      <trkpt lon="35.014904" lat="31.899372"><ele>255.652615</ele><time>2022-11-25T07:27:53Z</time><extensions><speed>0.119185</speed><course>350.376815</course><hAcc>1.696976</hAcc><vAcc>0.820006</vAcc></extensions></trkpt>
      <trkpt lon="35.014904" lat="31.899373"><ele>255.549592</ele><time>2022-11-25T07:27:54Z</time><extensions><speed>0.129309</speed><course>357.057659</course><hAcc>1.706009</hAcc><vAcc>0.820014</vAcc></extensions></trkpt>
      <trkpt lon="35.014904" lat="31.899374"><ele>255.465218</ele><time>2022-11-25T07:27:55Z</time><extensions><speed>0.131608</speed><course>0.911081</course><hAcc>1.724113</hAcc><vAcc>0.820063</vAcc></extensions></trkpt>
      <trkpt lon="35.014904" lat="31.899376"><ele>255.396034</ele><time>2022-11-25T07:27:56Z</time><extensions><speed>0.134944</speed><course>4.539863</course><hAcc>1.736911</hAcc><vAcc>0.820107</vAcc></extensions></trkpt>
      <trkpt lon="35.014904" lat="31.899377"><ele>255.328003</ele><time>2022-11-25T07:27:57Z</time><extensions><speed>0.163370</speed><course>7.654160</course><hAcc>1.730753</hAcc><vAcc>0.820168</vAcc></extensions></trkpt>
      <trkpt lon="35.014904" lat="31.899379"><ele>255.268946</ele><time>2022-11-25T07:27:58Z</time><extensions><speed>0.191673</speed><course>9.589683</course><hAcc>1.732294</hAcc><vAcc>0.820196</vAcc></extensions></trkpt>
      <trkpt lon="35.014905" lat="31.899380"><ele>255.218786</ele><time>2022-11-25T07:27:59Z</time><extensions><speed>0.215816</speed><course>9.983556</course><hAcc>1.740761</hAcc><vAcc>0.820219</vAcc></extensions></trkpt>
      <trkpt lon="35.014905" lat="31.899382"><ele>255.196342</ele><time>2022-11-25T07:28:00Z</time><extensions><speed>0.214984</speed><course>7.254190</course><hAcc>1.748503</hAcc><vAcc>0.820277</vAcc></extensions></trkpt>
      <trkpt lon="35.014905" lat="31.899384"><ele>255.189475</ele><time>2022-11-25T07:28:01Z</time><extensions><speed>0.194127</speed><course>1.151620</course><hAcc>1.752060</hAcc><vAcc>0.820369</vAcc></extensions></trkpt>
      <trkpt lon="35.014905" lat="31.899386"><ele>255.190143</ele><time>2022-11-25T07:28:02Z</time><extensions><speed>0.170171</speed><course>353.518209</course><hAcc>1.753174</hAcc><vAcc>0.820502</vAcc></extensions></trkpt>
      <trkpt lon="35.014905" lat="31.899387"><ele>255.179768</ele><time>2022-11-25T07:28:03Z</time><extensions><speed>0.149838</speed><course>346.059984</course><hAcc>1.748848</hAcc><vAcc>0.820711</vAcc></extensions></trkpt>
      <trkpt lon="35.014905" lat="31.899388"><ele>255.177527</ele><time>2022-11-25T07:28:04Z</time><extensions><speed>0.131454</speed><course>344.863461</course><hAcc>1.742424</hAcc><vAcc>0.820926</vAcc></extensions></trkpt>
      <trkpt lon="35.014905" lat="31.899389"><ele>255.179326</ele><time>2022-11-25T07:28:05Z</time><extensions><speed>0.109260</speed><course>3.588362</course><hAcc>1.746202</hAcc><vAcc>0.821204</vAcc></extensions></trkpt>
      <trkpt lon="35.014905" lat="31.899390"><ele>255.162839</ele><time>2022-11-25T07:28:06Z</time><extensions><speed>0.144405</speed><course>42.426154</course><hAcc>1.753936</hAcc><vAcc>0.821533</vAcc></extensions></trkpt>
      <trkpt lon="35.014907" lat="31.899392"><ele>255.147022</ele><time>2022-11-25T07:28:07Z</time><extensions><speed>0.318719</speed><course>58.691298</course><hAcc>1.734800</hAcc><vAcc>0.821921</vAcc></extensions></trkpt>
      <trkpt lon="35.014912" lat="31.899394"><ele>255.131729</ele><time>2022-11-25T07:28:08Z</time><extensions><speed>0.593220</speed><course>62.648883</course><hAcc>1.718285</hAcc><vAcc>0.822387</vAcc></extensions></trkpt>
      <trkpt lon="35.014919" lat="31.899397"><ele>255.103852</ele><time>2022-11-25T07:28:09Z</time><extensions><speed>1.011799</speed><course>64.245220</course><hAcc>1.708171</hAcc><vAcc>0.822928</vAcc></extensions></trkpt>
      <trkpt lon="35.014932" lat="31.899402"><ele>255.074784</ele><time>2022-11-25T07:28:10Z</time><extensions><speed>1.680406</speed><course>65.584900</course><hAcc>1.705008</hAcc><vAcc>0.823518</vAcc></extensions></trkpt>
      <trkpt lon="35.014951" lat="31.899408"><ele>255.067855</ele><time>2022-11-25T07:28:11Z</time><extensions><speed>2.034062</speed><course>71.225246</course><hAcc>1.705010</hAcc><vAcc>0.824156</vAcc></extensions></trkpt>
      <trkpt lon="35.014971" lat="31.899414"><ele>255.031573</ele><time>2022-11-25T07:28:12Z</time><extensions><speed>2.089531</speed><course>76.635217</course><hAcc>1.693641</hAcc><vAcc>0.824785</vAcc></extensions></trkpt>
      <trkpt lon="35.014993" lat="31.899418"><ele>254.995263</ele><time>2022-11-25T07:28:13Z</time><extensions><speed>2.047289</speed><course>79.467014</course><hAcc>1.679191</hAcc><vAcc>0.825392</vAcc></extensions></trkpt>
      <trkpt lon="35.015014" lat="31.899421"><ele>254.956825</ele><time>2022-11-25T07:28:14Z</time><extensions><speed>2.087065</speed><course>78.931766</course><hAcc>1.665589</hAcc><vAcc>0.825948</vAcc></extensions></trkpt>
      <trkpt lon="35.015036" lat="31.899425"><ele>254.928164</ele><time>2022-11-25T07:28:15Z</time><extensions><speed>2.152548</speed><course>75.559049</course><hAcc>1.657865</hAcc><vAcc>0.826461</vAcc></extensions></trkpt>
      <trkpt lon="35.015059" lat="31.899431"><ele>254.903861</ele><time>2022-11-25T07:28:16Z</time><extensions><speed>2.269799</speed><course>71.801346</course><hAcc>1.656072</hAcc><vAcc>0.826928</vAcc></extensions></trkpt>
      <trkpt lon="35.015083" lat="31.899438"><ele>254.885938</ele><time>2022-11-25T07:28:17Z</time><extensions><speed>2.559744</speed><course>69.780393</course><hAcc>1.661419</hAcc><vAcc>0.827330</vAcc></extensions></trkpt>
      <trkpt lon="35.015109" lat="31.899447"><ele>254.864943</ele><time>2022-11-25T07:28:18Z</time><extensions><speed>2.683672</speed><course>68.590043</course><hAcc>1.658261</hAcc><vAcc>0.827713</vAcc></extensions></trkpt>
      <trkpt lon="35.015134" lat="31.899455"><ele>254.844692</ele><time>2022-11-25T07:28:19Z</time><extensions><speed>2.452761</speed><course>68.075342</course><hAcc>1.651290</hAcc><vAcc>0.828071</vAcc></extensions></trkpt>
      <trkpt lon="35.015157" lat="31.899464"><ele>254.815261</ele><time>2022-11-25T07:28:20Z</time><extensions><speed>2.302786</speed><course>66.080198</course><hAcc>1.649549</hAcc><vAcc>0.828395</vAcc></extensions></trkpt>
      <trkpt lon="35.015179" lat="31.899472"><ele>254.784159</ele><time>2022-11-25T07:28:21Z</time><extensions><speed>2.182769</speed><course>67.073037</course><hAcc>1.650164</hAcc><vAcc>0.828686</vAcc></extensions></trkpt>
      <trkpt lon="35.015199" lat="31.899479"><ele>254.778222</ele><time>2022-11-25T07:28:22Z</time><extensions><speed>2.052902</speed><course>67.370587</course><hAcc>1.647994</hAcc><vAcc>0.828940</vAcc></extensions></trkpt>
      <trkpt lon="35.015219" lat="31.899486"><ele>254.777667</ele><time>2022-11-25T07:28:23Z</time><extensions><speed>1.968174</speed><course>69.276858</course><hAcc>1.640379</hAcc><vAcc>0.829196</vAcc></extensions></trkpt>
      <trkpt lon="35.015238" lat="31.899492"><ele>254.782217</ele><time>2022-11-25T07:28:24Z</time><extensions><speed>1.904715</speed><course>70.631357</course><hAcc>1.622370</hAcc><vAcc>0.829420</vAcc></extensions></trkpt>
      <trkpt lon="35.015256" lat="31.899497"><ele>254.791608</ele><time>2022-11-25T07:28:25Z</time><extensions><speed>1.824019</speed><course>71.568896</course><hAcc>1.590450</hAcc><vAcc>0.829628</vAcc></extensions></trkpt>
      <trkpt lon="35.015274" lat="31.899502"><ele>254.800351</ele><time>2022-11-25T07:28:26Z</time><extensions><speed>1.676663</speed><course>73.497522</course><hAcc>1.543537</hAcc><vAcc>0.829826</vAcc></extensions></trkpt>
      <trkpt lon="35.015291" lat="31.899506"><ele>254.803115</ele><time>2022-11-25T07:28:27Z</time><extensions><speed>1.693172</speed><course>76.074650</course><hAcc>1.506119</hAcc><vAcc>0.830019</vAcc></extensions></trkpt>
      <trkpt lon="35.015308" lat="31.899509"><ele>254.795802</ele><time>2022-11-25T07:28:28Z</time><extensions><speed>1.725685</speed><course>79.694917</course><hAcc>1.510239</hAcc><vAcc>0.830214</vAcc></extensions></trkpt>
      <trkpt lon="35.015325" lat="31.899511"><ele>254.791534</ele><time>2022-11-25T07:28:29Z</time><extensions><speed>1.699619</speed><course>81.760045</course><hAcc>1.493295</hAcc><vAcc>0.830408</vAcc></extensions></trkpt>
      <trkpt lon="35.015342" lat="31.899513"><ele>254.768955</ele><time>2022-11-25T07:28:30Z</time><extensions><speed>1.634437</speed><course>84.564509</course><hAcc>1.463145</hAcc><vAcc>0.830584</vAcc></extensions></trkpt>
      <trkpt lon="35.015358" lat="31.899514"><ele>254.720235</ele><time>2022-11-25T07:28:31Z</time><extensions><speed>1.573700</speed><course>88.613950</course><hAcc>1.441044</hAcc><vAcc>0.830740</vAcc></extensions></trkpt>
      <trkpt lon="35.015374" lat="31.899514"><ele>254.648050</ele><time>2022-11-25T07:28:32Z</time><extensions><speed>1.528536</speed><course>84.961800</course><hAcc>1.420864</hAcc><vAcc>0.830866</vAcc></extensions></trkpt>
      <trkpt lon="35.015389" lat="31.899516"><ele>254.571318</ele><time>2022-11-25T07:28:33Z</time><extensions><speed>1.460788</speed><course>80.814074</course><hAcc>1.415007</hAcc><vAcc>0.830963</vAcc></extensions></trkpt>
      <trkpt lon="35.015404" lat="31.899519"><ele>254.483850</ele><time>2022-11-25T07:28:34Z</time><extensions><speed>1.387333</speed><course>81.023705</course><hAcc>1.410500</hAcc><vAcc>0.831049</vAcc></extensions></trkpt>
      <trkpt lon="35.015419" lat="31.899521"><ele>254.407759</ele><time>2022-11-25T07:28:35Z</time><extensions><speed>1.430512</speed><course>84.385004</course><hAcc>1.413205</hAcc><vAcc>0.831103</vAcc></extensions></trkpt>
      <trkpt lon="35.015435" lat="31.899523"><ele>254.340923</ele><time>2022-11-25T07:28:36Z</time><extensions><speed>1.497689</speed><course>84.686220</course><hAcc>1.419880</hAcc><vAcc>0.831140</vAcc></extensions></trkpt>
      <trkpt lon="35.015450" lat="31.899524"><ele>254.275855</ele><time>2022-11-25T07:28:37Z</time><extensions><speed>1.433816</speed><course>88.390969</course><hAcc>1.425506</hAcc><vAcc>0.831146</vAcc></extensions></trkpt>
      <trkpt lon="35.015464" lat="31.899521"><ele>254.212682</ele><time>2022-11-25T07:28:38Z</time><extensions><speed>1.315506</speed><course>123.133256</course><hAcc>1.431595</hAcc><vAcc>0.831132</vAcc></extensions></trkpt>
      <trkpt lon="35.015472" lat="31.899512"><ele>254.148614</ele><time>2022-11-25T07:28:39Z</time><extensions><speed>1.316448</speed><course>158.812126</course><hAcc>1.436169</hAcc><vAcc>0.831088</vAcc></extensions></trkpt>
      <trkpt lon="35.015475" lat="31.899501"><ele>254.111159</ele><time>2022-11-25T07:28:40Z</time><extensions><speed>1.243921</speed><course>178.267226</course><hAcc>1.429670</hAcc><vAcc>0.831033</vAcc></extensions></trkpt>
      <trkpt lon="35.015476" lat="31.899491"><ele>254.072675</ele><time>2022-11-25T07:28:41Z</time><extensions><speed>1.012907</speed><course>166.462143</course><hAcc>1.426072</hAcc><vAcc>0.830964</vAcc></extensions></trkpt>
      <trkpt lon="35.015482" lat="31.899484"><ele>254.054046</ele><time>2022-11-25T07:28:42Z</time><extensions><speed>1.111570</speed><course>128.710066</course><hAcc>1.440069</hAcc><vAcc>0.830879</vAcc></extensions></trkpt>
      <trkpt lon="35.015495" lat="31.899480"><ele>254.039593</ele><time>2022-11-25T07:28:43Z</time><extensions><speed>1.522079</speed><course>99.824348</course><hAcc>1.454841</hAcc><vAcc>0.830772</vAcc></extensions></trkpt>
      <trkpt lon="35.015512" lat="31.899480"><ele>254.019701</ele><time>2022-11-25T07:28:44Z</time><extensions><speed>1.844552</speed><course>82.464491</course><hAcc>1.452099</hAcc><vAcc>0.830661</vAcc></extensions></trkpt>
      <trkpt lon="35.015532" lat="31.899483"><ele>254.022304</ele><time>2022-11-25T07:28:45Z</time><extensions><speed>1.963197</speed><course>76.777815</course><hAcc>1.437895</hAcc><vAcc>0.830552</vAcc></extensions></trkpt>
      <trkpt lon="35.015552" lat="31.899488"><ele>254.035695</ele><time>2022-11-25T07:28:46Z</time><extensions><speed>1.950359</speed><course>72.968502</course><hAcc>1.438021</hAcc><vAcc>0.830451</vAcc></extensions></trkpt>
      <trkpt lon="35.015572" lat="31.899492"><ele>254.051799</ele><time>2022-11-25T07:28:47Z</time><extensions><speed>1.934168</speed><course>76.704984</course><hAcc>1.439291</hAcc><vAcc>0.830362</vAcc></extensions></trkpt>
      <trkpt lon="35.015592" lat="31.899496"><ele>254.072012</ele><time>2022-11-25T07:28:48Z</time><extensions><speed>1.926719</speed><course>80.648042</course><hAcc>1.437909</hAcc><vAcc>0.830299</vAcc></extensions></trkpt>
      <trkpt lon="35.015612" lat="31.899498"><ele>254.085130</ele><time>2022-11-25T07:28:49Z</time><extensions><speed>1.937003</speed><course>85.200197</course><hAcc>1.435397</hAcc><vAcc>0.830255</vAcc></extensions></trkpt>
      <trkpt lon="35.015632" lat="31.899499"><ele>254.116118</ele><time>2022-11-25T07:28:50Z</time><extensions><speed>1.908490</speed><course>87.879849</course><hAcc>1.442473</hAcc><vAcc>0.830222</vAcc></extensions></trkpt>
      <trkpt lon="35.015652" lat="31.899499"><ele>254.161254</ele><time>2022-11-25T07:28:51Z</time><extensions><speed>1.891014</speed><course>91.045519</course><hAcc>1.452324</hAcc><vAcc>0.830208</vAcc></extensions></trkpt>
      <trkpt lon="35.015672" lat="31.899498"><ele>254.190779</ele><time>2022-11-25T07:28:52Z</time><extensions><speed>1.876931</speed><course>93.866783</course><hAcc>1.453389</hAcc><vAcc>0.830202</vAcc></extensions></trkpt>
      <trkpt lon="35.015691" lat="31.899496"><ele>254.186521</ele><time>2022-11-25T07:28:53Z</time><extensions><speed>1.874712</speed><course>98.016312</course><hAcc>1.455408</hAcc><vAcc>0.830210</vAcc></extensions></trkpt>
      <trkpt lon="35.015710" lat="31.899494"><ele>254.183427</ele><time>2022-11-25T07:28:54Z</time><extensions><speed>1.829022</speed><course>100.986390</course><hAcc>1.461081</hAcc><vAcc>0.830225</vAcc></extensions></trkpt>
      <trkpt lon="35.015729" lat="31.899492"><ele>254.189555</ele><time>2022-11-25T07:28:55Z</time><extensions><speed>1.773702</speed><course>95.253672</course><hAcc>1.466320</hAcc><vAcc>0.830254</vAcc></extensions></trkpt>
      <trkpt lon="35.015747" lat="31.899491"><ele>254.206026</ele><time>2022-11-25T07:28:56Z</time><extensions><speed>1.726973</speed><course>94.630098</course><hAcc>1.475086</hAcc><vAcc>0.830298</vAcc></extensions></trkpt>
      <trkpt lon="35.015765" lat="31.899490"><ele>254.228101</ele><time>2022-11-25T07:28:57Z</time><extensions><speed>1.649033</speed><course>93.690058</course><hAcc>1.481154</hAcc><vAcc>0.830345</vAcc></extensions></trkpt>
      <trkpt lon="35.015782" lat="31.899491"><ele>254.257008</ele><time>2022-11-25T07:28:58Z</time><extensions><speed>1.664916</speed><course>79.608299</course><hAcc>1.490439</hAcc><vAcc>0.830424</vAcc></extensions></trkpt>
      <trkpt lon="35.015799" lat="31.899495"><ele>254.286737</ele><time>2022-11-25T07:28:59Z</time><extensions><speed>1.630598</speed><course>74.354048</course><hAcc>1.489239</hAcc><vAcc>0.830496</vAcc></extensions></trkpt>
      <trkpt lon="35.015815" lat="31.899498"><ele>254.320079</ele><time>2022-11-25T07:29:00Z</time><extensions><speed>1.559051</speed><course>79.108199</course><hAcc>1.478619</hAcc><vAcc>0.830585</vAcc></extensions></trkpt>
      <trkpt lon="35.015831" lat="31.899499"><ele>254.347261</ele><time>2022-11-25T07:29:01Z</time><extensions><speed>1.504359</speed><course>90.930099</course><hAcc>1.475958</hAcc><vAcc>0.830701</vAcc></extensions></trkpt>
      <trkpt lon="35.015847" lat="31.899498"><ele>254.394283</ele><time>2022-11-25T07:29:02Z</time><extensions><speed>1.462892</speed><course>104.463190</course><hAcc>1.487111</hAcc><vAcc>0.830848</vAcc></extensions></trkpt>
      <trkpt lon="35.015861" lat="31.899495"><ele>254.435188</ele><time>2022-11-25T07:29:03Z</time><extensions><speed>1.371707</speed><course>98.839307</course><hAcc>1.488007</hAcc><vAcc>0.831001</vAcc></extensions></trkpt>
      <trkpt lon="35.015876" lat="31.899496"><ele>254.480913</ele><time>2022-11-25T07:29:04Z</time><extensions><speed>1.480673</speed><course>75.362131</course><hAcc>1.490844</hAcc><vAcc>0.831154</vAcc></extensions></trkpt>
      <trkpt lon="35.015891" lat="31.899502"><ele>254.541124</ele><time>2022-11-25T07:29:05Z</time><extensions><speed>1.705565</speed><course>54.489263</course><hAcc>1.482539</hAcc><vAcc>0.831327</vAcc></extensions></trkpt>
      <trkpt lon="35.015905" lat="31.899513"><ele>254.597003</ele><time>2022-11-25T07:29:06Z</time><extensions><speed>1.885147</speed><course>43.427311</course><hAcc>1.474568</hAcc><vAcc>0.831514</vAcc></extensions></trkpt>
      <trkpt lon="35.015918" lat="31.899525"><ele>254.662672</ele><time>2022-11-25T07:29:07Z</time><extensions><speed>1.955102</speed><course>40.433317</course><hAcc>1.473276</hAcc><vAcc>0.831709</vAcc></extensions></trkpt>
      <trkpt lon="35.015931" lat="31.899539"><ele>254.736743</ele><time>2022-11-25T07:29:08Z</time><extensions><speed>1.978286</speed><course>37.845776</course><hAcc>1.471099</hAcc><vAcc>0.831892</vAcc></extensions></trkpt>
      <trkpt lon="35.015944" lat="31.899553"><ele>254.838352</ele><time>2022-11-25T07:29:09Z</time><extensions><speed>1.984002</speed><course>35.734772</course><hAcc>1.469854</hAcc><vAcc>0.832055</vAcc></extensions></trkpt>
      <trkpt lon="35.015957" lat="31.899567"><ele>254.942131</ele><time>2022-11-25T07:29:10Z</time><extensions><speed>1.963609</speed><course>43.503724</course><hAcc>1.467396</hAcc><vAcc>0.832198</vAcc></extensions></trkpt>
      <trkpt lon="35.015972" lat="31.899579"><ele>255.039000</ele><time>2022-11-25T07:29:11Z</time><extensions><speed>1.934229</speed><course>49.167219</course><hAcc>1.466260</hAcc><vAcc>0.832331</vAcc></extensions></trkpt>
      <trkpt lon="35.015987" lat="31.899590"><ele>255.130699</ele><time>2022-11-25T07:29:12Z</time><extensions><speed>1.909562</speed><course>51.871321</course><hAcc>1.464834</hAcc><vAcc>0.832453</vAcc></extensions></trkpt>
      <trkpt lon="35.016003" lat="31.899600"><ele>255.242230</ele><time>2022-11-25T07:29:13Z</time><extensions><speed>1.844296</speed><course>59.001367</course><hAcc>1.463483</hAcc><vAcc>0.832566</vAcc></extensions></trkpt>
      <trkpt lon="35.016019" lat="31.899609"><ele>255.368258</ele><time>2022-11-25T07:29:14Z</time><extensions><speed>1.838266</speed><course>59.678195</course><hAcc>1.464497</hAcc><vAcc>0.832647</vAcc></extensions></trkpt>
      <trkpt lon="35.016036" lat="31.899617"><ele>255.497687</ele><time>2022-11-25T07:29:15Z</time><extensions><speed>1.850456</speed><course>57.910136</course><hAcc>1.467478</hAcc><vAcc>0.832701</vAcc></extensions></trkpt>
      <trkpt lon="35.016052" lat="31.899626"><ele>255.632177</ele><time>2022-11-25T07:29:16Z</time><extensions><speed>1.825747</speed><course>57.629667</course><hAcc>1.461529</hAcc><vAcc>0.832771</vAcc></extensions></trkpt>
      <trkpt lon="35.016068" lat="31.899634"><ele>255.775653</ele><time>2022-11-25T07:29:17Z</time><extensions><speed>1.768292</speed><course>61.110961</course><hAcc>1.457919</hAcc><vAcc>0.832846</vAcc></extensions></trkpt>
      <trkpt lon="35.016084" lat="31.899642"><ele>255.919431</ele><time>2022-11-25T07:29:18Z</time><extensions><speed>1.719337</speed><course>64.682568</course><hAcc>1.462129</hAcc><vAcc>0.832937</vAcc></extensions></trkpt>
      <trkpt lon="35.016100" lat="31.899649"><ele>256.077371</ele><time>2022-11-25T07:29:19Z</time><extensions><speed>1.654186</speed><course>57.455668</course><hAcc>1.457951</hAcc><vAcc>0.833034</vAcc></extensions></trkpt>
      <trkpt lon="35.016113" lat="31.899658"><ele>256.230113</ele><time>2022-11-25T07:29:20Z</time><extensions><speed>1.670228</speed><course>49.630124</course><hAcc>1.460237</hAcc><vAcc>0.833143</vAcc></extensions></trkpt>
      <trkpt lon="35.016126" lat="31.899668"><ele>256.374394</ele><time>2022-11-25T07:29:21Z</time><extensions><speed>1.706908</speed><course>43.953261</course><hAcc>1.469110</hAcc><vAcc>0.833261</vAcc></extensions></trkpt>
      <trkpt lon="35.016137" lat="31.899680"><ele>256.536365</ele><time>2022-11-25T07:29:22Z</time><extensions><speed>1.718562</speed><course>32.286000</course><hAcc>1.467714</hAcc><vAcc>0.833366</vAcc></extensions></trkpt>
      <trkpt lon="35.016146" lat="31.899694"><ele>256.693009</ele><time>2022-11-25T07:29:23Z</time><extensions><speed>1.749218</speed><course>23.424511</course><hAcc>1.460889</hAcc><vAcc>0.833472</vAcc></extensions></trkpt>
      <trkpt lon="35.016153" lat="31.899708"><ele>256.841273</ele><time>2022-11-25T07:29:24Z</time><extensions><speed>1.732900</speed><course>20.762682</course><hAcc>1.446902</hAcc><vAcc>0.833581</vAcc></extensions></trkpt>
      <trkpt lon="35.016160" lat="31.899723"><ele>256.980343</ele><time>2022-11-25T07:29:25Z</time><extensions><speed>1.797167</speed><course>23.613105</course><hAcc>1.452174</hAcc><vAcc>0.833689</vAcc></extensions></trkpt>
      <trkpt lon="35.016168" lat="31.899737"><ele>257.116792</ele><time>2022-11-25T07:29:26Z</time><extensions><speed>1.840317</speed><course>25.246569</course><hAcc>1.457267</hAcc><vAcc>0.833781</vAcc></extensions></trkpt>
      <trkpt lon="35.016176" lat="31.899752"><ele>257.252835</ele><time>2022-11-25T07:29:27Z</time><extensions><speed>1.844881</speed><course>26.850680</course><hAcc>1.454542</hAcc><vAcc>0.833831</vAcc></extensions></trkpt>
      <trkpt lon="35.016185" lat="31.899767"><ele>257.365062</ele><time>2022-11-25T07:29:28Z</time><extensions><speed>1.853650</speed><course>28.389285</course><hAcc>1.446008</hAcc><vAcc>0.833818</vAcc></extensions></trkpt>
      <trkpt lon="35.016195" lat="31.899781"><ele>257.460978</ele><time>2022-11-25T07:29:29Z</time><extensions><speed>1.849870</speed><course>31.839840</course><hAcc>1.443152</hAcc><vAcc>0.833734</vAcc></extensions></trkpt>
      <trkpt lon="35.016205" lat="31.899795"><ele>257.543752</ele><time>2022-11-25T07:29:30Z</time><extensions><speed>1.836867</speed><course>32.144244</course><hAcc>1.441584</hAcc><vAcc>0.833560</vAcc></extensions></trkpt>
      <trkpt lon="35.016216" lat="31.899808"><ele>257.620741</ele><time>2022-11-25T07:29:31Z</time><extensions><speed>1.792718</speed><course>39.985420</course><hAcc>1.435447</hAcc><vAcc>0.833274</vAcc></extensions></trkpt>
      <trkpt lon="35.016229" lat="31.899820"><ele>257.679905</ele><time>2022-11-25T07:29:32Z</time><extensions><speed>1.758017</speed><course>45.421471</course><hAcc>1.431152</hAcc><vAcc>0.832915</vAcc></extensions></trkpt>
      <trkpt lon="35.016242" lat="31.899831"><ele>257.725320</ele><time>2022-11-25T07:29:33Z</time><extensions><speed>1.763753</speed><course>46.551070</course><hAcc>1.430945</hAcc><vAcc>0.832538</vAcc></extensions></trkpt>
      <trkpt lon="35.016256" lat="31.899842"><ele>257.753292</ele><time>2022-11-25T07:29:34Z</time><extensions><speed>1.767290</speed><course>47.790480</course><hAcc>1.434957</hAcc><vAcc>0.832123</vAcc></extensions></trkpt>
      <trkpt lon="35.016270" lat="31.899852"><ele>257.753757</ele><time>2022-11-25T07:29:35Z</time><extensions><speed>1.758717</speed><course>47.550470</course><hAcc>1.431044</hAcc><vAcc>0.831623</vAcc></extensions></trkpt>
      <trkpt lon="35.016283" lat="31.899863"><ele>257.724454</ele><time>2022-11-25T07:29:36Z</time><extensions><speed>1.795339</speed><course>49.815347</course><hAcc>1.427974</hAcc><vAcc>0.831029</vAcc></extensions></trkpt>
      <trkpt lon="35.016298" lat="31.899874"><ele>257.683661</ele><time>2022-11-25T07:29:37Z</time><extensions><speed>1.842811</speed><course>50.974207</course><hAcc>1.431844</hAcc><vAcc>0.830370</vAcc></extensions></trkpt>
      <trkpt lon="35.016312" lat="31.899884"><ele>257.636052</ele><time>2022-11-25T07:29:38Z</time><extensions><speed>1.847020</speed><course>47.356038</course><hAcc>1.431842</hAcc><vAcc>0.829700</vAcc></extensions></trkpt>
      <trkpt lon="35.016326" lat="31.899896"><ele>257.599807</ele><time>2022-11-25T07:29:39Z</time><extensions><speed>1.804877</speed><course>43.158041</course><hAcc>1.431212</hAcc><vAcc>0.829056</vAcc></extensions></trkpt>
      <trkpt lon="35.016338" lat="31.899908"><ele>257.593220</ele><time>2022-11-25T07:29:40Z</time><extensions><speed>1.807606</speed><course>38.343191</course><hAcc>1.434174</hAcc><vAcc>0.828412</vAcc></extensions></trkpt>
      <trkpt lon="35.016349" lat="31.899921"><ele>257.593338</ele><time>2022-11-25T07:29:41Z</time><extensions><speed>1.786358</speed><course>37.626774</course><hAcc>1.434272</hAcc><vAcc>0.827797</vAcc></extensions></trkpt>
      <trkpt lon="35.016360" lat="31.899934"><ele>257.599794</ele><time>2022-11-25T07:29:42Z</time><extensions><speed>1.784517</speed><course>39.173781</course><hAcc>1.434807</hAcc><vAcc>0.827265</vAcc></extensions></trkpt>
      <trkpt lon="35.016373" lat="31.899946"><ele>257.633511</ele><time>2022-11-25T07:29:43Z</time><extensions><speed>1.770665</speed><course>44.908725</course><hAcc>1.440800</hAcc><vAcc>0.826808</vAcc></extensions></trkpt>
      <trkpt lon="35.016385" lat="31.899957"><ele>257.693595</ele><time>2022-11-25T07:29:44Z</time><extensions><speed>1.755901</speed><course>42.117616</course><hAcc>1.445358</hAcc><vAcc>0.826405</vAcc></extensions></trkpt>
      <trkpt lon="35.016396" lat="31.899970"><ele>257.780325</ele><time>2022-11-25T07:29:45Z</time><extensions><speed>1.770335</speed><course>32.519314</course><hAcc>1.447413</hAcc><vAcc>0.826062</vAcc></extensions></trkpt>
      <trkpt lon="35.016406" lat="31.899983"><ele>257.874076</ele><time>2022-11-25T07:29:46Z</time><extensions><speed>1.796551</speed><course>30.193310</course><hAcc>1.448905</hAcc><vAcc>0.825812</vAcc></extensions></trkpt>
      <trkpt lon="35.016416" lat="31.899997"><ele>257.968974</ele><time>2022-11-25T07:29:47Z</time><extensions><speed>1.769159</speed><course>34.595908</course><hAcc>1.455486</hAcc><vAcc>0.825656</vAcc></extensions></trkpt>
      <trkpt lon="35.016427" lat="31.900010"><ele>258.077796</ele><time>2022-11-25T07:29:48Z</time><extensions><speed>1.743172</speed><course>35.834292</course><hAcc>1.464996</hAcc><vAcc>0.825604</vAcc></extensions></trkpt>
      <trkpt lon="35.016437" lat="31.900023"><ele>258.219444</ele><time>2022-11-25T07:29:49Z</time><extensions><speed>1.715920</speed><course>31.462144</course><hAcc>1.469576</hAcc><vAcc>0.825631</vAcc></extensions></trkpt>
      <trkpt lon="35.016445" lat="31.900036"><ele>258.364804</ele><time>2022-11-25T07:29:50Z</time><extensions><speed>1.626734</speed><course>25.049938</course><hAcc>1.459453</hAcc><vAcc>0.825740</vAcc></extensions></trkpt>
      <trkpt lon="35.016452" lat="31.900049"><ele>258.524412</ele><time>2022-11-25T07:29:51Z</time><extensions><speed>1.665094</speed><course>23.508816</course><hAcc>1.462940</hAcc><vAcc>0.825923</vAcc></extensions></trkpt>
      <trkpt lon="35.016460" lat="31.900063"><ele>258.695269</ele><time>2022-11-25T07:29:52Z</time><extensions><speed>1.720659</speed><course>30.302418</course><hAcc>1.466265</hAcc><vAcc>0.826187</vAcc></extensions></trkpt>
      <trkpt lon="35.016470" lat="31.900075"><ele>258.854051</ele><time>2022-11-25T07:29:53Z</time><extensions><speed>1.756135</speed><course>39.558980</course><hAcc>1.460218</hAcc><vAcc>0.826536</vAcc></extensions></trkpt>
      <trkpt lon="35.016483" lat="31.900087"><ele>259.021729</ele><time>2022-11-25T07:29:54Z</time><extensions><speed>1.802280</speed><course>45.702378</course><hAcc>1.454221</hAcc><vAcc>0.826930</vAcc></extensions></trkpt>
      <trkpt lon="35.016496" lat="31.900098"><ele>259.188271</ele><time>2022-11-25T07:29:55Z</time><extensions><speed>1.823874</speed><course>46.909905</course><hAcc>1.449395</hAcc><vAcc>0.827369</vAcc></extensions></trkpt>
      <trkpt lon="35.016510" lat="31.900109"><ele>259.352307</ele><time>2022-11-25T07:29:56Z</time><extensions><speed>1.797917</speed><course>48.367605</course><hAcc>1.440815</hAcc><vAcc>0.827815</vAcc></extensions></trkpt>
      <trkpt lon="35.016524" lat="31.900120"><ele>259.521823</ele><time>2022-11-25T07:29:57Z</time><extensions><speed>1.793228</speed><course>45.360757</course><hAcc>1.439934</hAcc><vAcc>0.828241</vAcc></extensions></trkpt>
      <trkpt lon="35.016538" lat="31.900130"><ele>259.690990</ele><time>2022-11-25T07:29:58Z</time><extensions><speed>1.791212</speed><course>51.184184</course><hAcc>1.434501</hAcc><vAcc>0.828626</vAcc></extensions></trkpt>
      <trkpt lon="35.016553" lat="31.900139"><ele>259.850008</ele><time>2022-11-25T07:29:59Z</time><extensions><speed>1.749417</speed><course>53.341371</course><hAcc>1.425028</hAcc><vAcc>0.828969</vAcc></extensions></trkpt>
      <trkpt lon="35.016567" lat="31.900148"><ele>259.999532</ele><time>2022-11-25T07:30:00Z</time><extensions><speed>1.744669</speed><course>53.640804</course><hAcc>1.427647</hAcc><vAcc>0.829268</vAcc></extensions></trkpt>
      <trkpt lon="35.016582" lat="31.900157"><ele>260.125825</ele><time>2022-11-25T07:30:01Z</time><extensions><speed>1.703523</speed><course>53.316508</course><hAcc>1.420879</hAcc><vAcc>0.829517</vAcc></extensions></trkpt>
      <trkpt lon="35.016596" lat="31.900166"><ele>260.251692</ele><time>2022-11-25T07:30:02Z</time><extensions><speed>1.714052</speed><course>53.525102</course><hAcc>1.419935</hAcc><vAcc>0.829727</vAcc></extensions></trkpt>
      <trkpt lon="35.016611" lat="31.900174"><ele>260.401807</ele><time>2022-11-25T07:30:03Z</time><extensions><speed>1.686993</speed><course>59.036242</course><hAcc>1.423941</hAcc><vAcc>0.829895</vAcc></extensions></trkpt>
      <trkpt lon="35.016626" lat="31.900181"><ele>260.556299</ele><time>2022-11-25T07:30:04Z</time><extensions><speed>1.634122</speed><course>60.316789</course><hAcc>1.419481</hAcc><vAcc>0.830005</vAcc></extensions></trkpt>
      <trkpt lon="35.016640" lat="31.900188"><ele>260.689849</ele><time>2022-11-25T07:30:05Z</time><extensions><speed>1.589145</speed><course>59.808893</course><hAcc>1.417441</hAcc><vAcc>0.830053</vAcc></extensions></trkpt>
      <trkpt lon="35.016655" lat="31.900194"><ele>260.811561</ele><time>2022-11-25T07:30:06Z</time><extensions><speed>1.552035</speed><course>64.282537</course><hAcc>1.417152</hAcc><vAcc>0.830064</vAcc></extensions></trkpt>
      <trkpt lon="35.016670" lat="31.900199"><ele>260.919179</ele><time>2022-11-25T07:30:07Z</time><extensions><speed>1.586603</speed><course>68.483051</course><hAcc>1.420460</hAcc><vAcc>0.830054</vAcc></extensions></trkpt>
      <trkpt lon="35.016685" lat="31.900203"><ele>261.015523</ele><time>2022-11-25T07:30:08Z</time><extensions><speed>1.575301</speed><course>74.434848</course><hAcc>1.420717</hAcc><vAcc>0.830020</vAcc></extensions></trkpt>
      <trkpt lon="35.016701" lat="31.900206"><ele>261.097713</ele><time>2022-11-25T07:30:09Z</time><extensions><speed>1.607394</speed><course>79.347167</course><hAcc>1.426193</hAcc><vAcc>0.829995</vAcc></extensions></trkpt>
      <trkpt lon="35.016718" lat="31.900208"><ele>261.154223</ele><time>2022-11-25T07:30:10Z</time><extensions><speed>1.622290</speed><course>84.266857</course><hAcc>1.430635</hAcc><vAcc>0.829975</vAcc></extensions></trkpt>
      <trkpt lon="35.016734" lat="31.900208"><ele>261.192512</ele><time>2022-11-25T07:30:11Z</time><extensions><speed>1.566997</speed><course>91.369948</course><hAcc>1.431148</hAcc><vAcc>0.829998</vAcc></extensions></trkpt>
      <trkpt lon="35.016751" lat="31.900206"><ele>261.230982</ele><time>2022-11-25T07:30:12Z</time><extensions><speed>1.598700</speed><course>102.130512</course><hAcc>1.437594</hAcc><vAcc>0.830059</vAcc></extensions></trkpt>
      <trkpt lon="35.016766" lat="31.900202"><ele>261.264722</ele><time>2022-11-25T07:30:13Z</time><extensions><speed>1.542871</speed><course>110.669643</course><hAcc>1.433742</hAcc><vAcc>0.830155</vAcc></extensions></trkpt>
      <trkpt lon="35.016780" lat="31.900195"><ele>261.280252</ele><time>2022-11-25T07:30:14Z</time><extensions><speed>1.605840</speed><course>125.067711</course><hAcc>1.425447</hAcc><vAcc>0.830289</vAcc></extensions></trkpt>
      <trkpt lon="35.016794" lat="31.900186"><ele>261.279158</ele><time>2022-11-25T07:30:15Z</time><extensions><speed>1.696795</speed><course>126.133260</course><hAcc>1.441461</hAcc><vAcc>0.830455</vAcc></extensions></trkpt>
      <trkpt lon="35.016808" lat="31.900177"><ele>261.285817</ele><time>2022-11-25T07:30:16Z</time><extensions><speed>1.690817</speed><course>124.634311</course><hAcc>1.446418</hAcc><vAcc>0.830641</vAcc></extensions></trkpt>
      <trkpt lon="35.016822" lat="31.900169"><ele>261.277609</ele><time>2022-11-25T07:30:17Z</time><extensions><speed>1.645945</speed><course>122.588492</course><hAcc>1.443681</hAcc><vAcc>0.830827</vAcc></extensions></trkpt>
      <trkpt lon="35.016836" lat="31.900161"><ele>261.264434</ele><time>2022-11-25T07:30:18Z</time><extensions><speed>1.581300</speed><course>121.073067</course><hAcc>1.440974</hAcc><vAcc>0.831000</vAcc></extensions></trkpt>
      <trkpt lon="35.016850" lat="31.900154"><ele>261.244956</ele><time>2022-11-25T07:30:19Z</time><extensions><speed>1.595098</speed><course>123.317568</course><hAcc>1.443525</hAcc><vAcc>0.831181</vAcc></extensions></trkpt>
      <trkpt lon="35.016864" lat="31.900146"><ele>261.229575</ele><time>2022-11-25T07:30:20Z</time><extensions><speed>1.576275</speed><course>124.518927</course><hAcc>1.449135</hAcc><vAcc>0.831340</vAcc></extensions></trkpt>
      <trkpt lon="35.016877" lat="31.900137"><ele>261.213164</ele><time>2022-11-25T07:30:21Z</time><extensions><speed>1.575283</speed><course>127.940800</course><hAcc>1.458317</hAcc><vAcc>0.831486</vAcc></extensions></trkpt>
      <trkpt lon="35.016889" lat="31.900129"><ele>261.189187</ele><time>2022-11-25T07:30:22Z</time><extensions><speed>1.492404</speed><course>128.450704</course><hAcc>1.462025</hAcc><vAcc>0.831598</vAcc></extensions></trkpt>
      <trkpt lon="35.016901" lat="31.900121"><ele>261.167853</ele><time>2022-11-25T07:30:23Z</time><extensions><speed>1.372671</speed><course>125.375759</course><hAcc>1.470077</hAcc><vAcc>0.831661</vAcc></extensions></trkpt>
      <trkpt lon="35.016913" lat="31.900115"><ele>261.147938</ele><time>2022-11-25T07:30:24Z</time><extensions><speed>1.245450</speed><course>121.044372</course><hAcc>1.506885</hAcc><vAcc>0.831673</vAcc></extensions></trkpt>
      <trkpt lon="35.016923" lat="31.900109"><ele>261.120034</ele><time>2022-11-25T07:30:25Z</time><extensions><speed>1.079166</speed><course>126.580838</course><hAcc>1.534789</hAcc><vAcc>0.831634</vAcc></extensions></trkpt>
      <trkpt lon="35.016929" lat="31.900104"><ele>261.091162</ele><time>2022-11-25T07:30:26Z</time><extensions><speed>0.486338</speed><course>145.546889</course><hAcc>1.534014</hAcc><vAcc>0.831557</vAcc></extensions></trkpt>
      <trkpt lon="35.016928" lat="31.900102"><ele>261.054432</ele><time>2022-11-25T07:30:27Z</time><extensions><speed>0.316123</speed><course>249.311581</course><hAcc>1.558016</hAcc><vAcc>0.831468</vAcc></extensions></trkpt>
      <trkpt lon="35.016924" lat="31.900102"><ele>261.006382</ele><time>2022-11-25T07:30:28Z</time><extensions><speed>0.510018</speed><course>270.852348</course><hAcc>1.582826</hAcc><vAcc>0.831332</vAcc></extensions></trkpt>
      <trkpt lon="35.016918" lat="31.900102"><ele>260.951523</ele><time>2022-11-25T07:30:29Z</time><extensions><speed>0.561983</speed><course>277.881503</course><hAcc>1.611719</hAcc><vAcc>0.831185</vAcc></extensions></trkpt>
      <trkpt lon="35.016912" lat="31.900103"><ele>260.898724</ele><time>2022-11-25T07:30:30Z</time><extensions><speed>0.570070</speed><course>283.499504</course><hAcc>1.636328</hAcc><vAcc>0.831049</vAcc></extensions></trkpt>
      <trkpt lon="35.016906" lat="31.900104"><ele>260.836526</ele><time>2022-11-25T07:30:31Z</time><extensions><speed>0.581555</speed><course>288.653935</course><hAcc>1.652744</hAcc><vAcc>0.830921</vAcc></extensions></trkpt>
      <trkpt lon="35.016900" lat="31.900106"><ele>260.773346</ele><time>2022-11-25T07:30:32Z</time><extensions><speed>0.589287</speed><course>292.406502</course><hAcc>1.662559</hAcc><vAcc>0.830825</vAcc></extensions></trkpt>
      <trkpt lon="35.016895" lat="31.900108"><ele>260.706198</ele><time>2022-11-25T07:30:33Z</time><extensions><speed>0.587847</speed><course>295.049779</course><hAcc>1.667792</hAcc><vAcc>0.830762</vAcc></extensions></trkpt>
      <trkpt lon="35.016889" lat="31.900111"><ele>260.635186</ele><time>2022-11-25T07:30:34Z</time><extensions><speed>0.573015</speed><course>297.262382</course><hAcc>1.671385</hAcc><vAcc>0.830715</vAcc></extensions></trkpt>
      <trkpt lon="35.016884" lat="31.900113"><ele>260.572250</ele><time>2022-11-25T07:30:35Z</time><extensions><speed>0.539279</speed><course>299.205120</course><hAcc>1.676072</hAcc><vAcc>0.830695</vAcc></extensions></trkpt>
      <trkpt lon="35.016879" lat="31.900115"><ele>260.512628</ele><time>2022-11-25T07:30:36Z</time><extensions><speed>0.476932</speed><course>300.388261</course><hAcc>1.683619</hAcc><vAcc>0.830703</vAcc></extensions></trkpt>
      <trkpt lon="35.016876" lat="31.900117"><ele>260.463406</ele><time>2022-11-25T07:30:37Z</time><extensions><speed>0.374645</speed><course>300.095229</course><hAcc>1.695044</hAcc><vAcc>0.830723</vAcc></extensions></trkpt>
      <trkpt lon="35.016873" lat="31.900119"><ele>260.421018</ele><time>2022-11-25T07:30:38Z</time><extensions><speed>0.220987</speed><course>297.016263</course><hAcc>1.705587</hAcc><vAcc>0.830777</vAcc></extensions></trkpt>
      <trkpt lon="35.016872" lat="31.900119"><ele>260.386292</ele><time>2022-11-25T07:30:39Z</time><extensions><speed>0.039738</speed><course>213.125304</course><hAcc>1.704080</hAcc><vAcc>0.830808</vAcc></extensions></trkpt>
      <trkpt lon="35.016873" lat="31.900118"><ele>260.341749</ele><time>2022-11-25T07:30:40Z</time><extensions><speed>0.330836</speed><course>139.588141</course><hAcc>1.689445</hAcc><vAcc>0.830850</vAcc></extensions></trkpt>
      <trkpt lon="35.016876" lat="31.900114"><ele>260.306665</ele><time>2022-11-25T07:30:41Z</time><extensions><speed>0.613121</speed><course>139.728888</course><hAcc>1.714492</hAcc><vAcc>0.830882</vAcc></extensions></trkpt>
      <trkpt lon="35.016880" lat="31.900111"><ele>260.282255</ele><time>2022-11-25T07:30:42Z</time><extensions><speed>0.559792</speed><course>133.722274</course><hAcc>1.725441</hAcc><vAcc>0.830917</vAcc></extensions></trkpt>
      <trkpt lon="35.016885" lat="31.900108"><ele>260.257893</ele><time>2022-11-25T07:30:43Z</time><extensions><speed>0.499123</speed><course>125.697833</course><hAcc>1.712059</hAcc><vAcc>0.830915</vAcc></extensions></trkpt>
      <trkpt lon="35.016890" lat="31.900104"><ele>260.240651</ele><time>2022-11-25T07:30:44Z</time><extensions><speed>0.700843</speed><course>124.579412</course><hAcc>1.692257</hAcc><vAcc>0.830930</vAcc></extensions></trkpt>
      <trkpt lon="35.016898" lat="31.900099"><ele>260.216644</ele><time>2022-11-25T07:30:45Z</time><extensions><speed>1.150628</speed><course>127.093420</course><hAcc>1.674052</hAcc><vAcc>0.830949</vAcc></extensions></trkpt>
      <trkpt lon="35.016909" lat="31.900092"><ele>260.176542</ele><time>2022-11-25T07:30:46Z</time><extensions><speed>1.502565</speed><course>125.208250</course><hAcc>1.654235</hAcc><vAcc>0.830998</vAcc></extensions></trkpt>
      <trkpt lon="35.016923" lat="31.900085"><ele>260.128815</ele><time>2022-11-25T07:30:47Z</time><extensions><speed>1.671460</speed><course>120.828725</course><hAcc>1.636514</hAcc><vAcc>0.831062</vAcc></extensions></trkpt>
      <trkpt lon="35.016939" lat="31.900078"><ele>260.081760</ele><time>2022-11-25T07:30:48Z</time><extensions><speed>1.604928</speed><course>113.596773</course><hAcc>1.633024</hAcc><vAcc>0.831134</vAcc></extensions></trkpt>
      <trkpt lon="35.016955" lat="31.900073"><ele>260.036909</ele><time>2022-11-25T07:30:49Z</time><extensions><speed>1.646219</speed><course>109.260190</course><hAcc>1.613889</hAcc><vAcc>0.831212</vAcc></extensions></trkpt>
      <trkpt lon="35.016971" lat="31.900068"><ele>259.986151</ele><time>2022-11-25T07:30:50Z</time><extensions><speed>1.540782</speed><course>107.646747</course><hAcc>1.633444</hAcc><vAcc>0.831332</vAcc></extensions></trkpt>
      <trkpt lon="35.016986" lat="31.900063"><ele>259.934363</ele><time>2022-11-25T07:30:51Z</time><extensions><speed>1.584665</speed><course>115.109345</course><hAcc>1.585082</hAcc><vAcc>0.831470</vAcc></extensions></trkpt>
      <trkpt lon="35.017001" lat="31.900056"><ele>259.886125</ele><time>2022-11-25T07:30:52Z</time><extensions><speed>1.580243</speed><course>120.124808</course><hAcc>1.561352</hAcc><vAcc>0.831646</vAcc></extensions></trkpt>
      <trkpt lon="35.017016" lat="31.900049"><ele>259.845581</ele><time>2022-11-25T07:30:53Z</time><extensions><speed>1.611522</speed><course>122.707978</course><hAcc>1.557474</hAcc><vAcc>0.831833</vAcc></extensions></trkpt>
      <trkpt lon="35.017029" lat="31.900041"><ele>259.791590</ele><time>2022-11-25T07:30:54Z</time><extensions><speed>1.530680</speed><course>125.769649</course><hAcc>1.577078</hAcc><vAcc>0.832046</vAcc></extensions></trkpt>
      <trkpt lon="35.017043" lat="31.900033"><ele>259.733668</ele><time>2022-11-25T07:30:55Z</time><extensions><speed>1.531620</speed><course>126.600813</course><hAcc>1.573425</hAcc><vAcc>0.832244</vAcc></extensions></trkpt>
      <trkpt lon="35.017055" lat="31.900025"><ele>259.681945</ele><time>2022-11-25T07:30:56Z</time><extensions><speed>1.406758</speed><course>126.330080</course><hAcc>1.612691</hAcc><vAcc>0.832455</vAcc></extensions></trkpt>
      <trkpt lon="35.017068" lat="31.900017"><ele>259.600998</ele><time>2022-11-25T07:30:57Z</time><extensions><speed>1.542993</speed><course>122.231924</course><hAcc>1.561916</hAcc><vAcc>0.832633</vAcc></extensions></trkpt>
      <trkpt lon="35.017082" lat="31.900010"><ele>259.530817</ele><time>2022-11-25T07:30:58Z</time><extensions><speed>1.600382</speed><course>120.818230</course><hAcc>1.535289</hAcc><vAcc>0.832806</vAcc></extensions></trkpt>
      <trkpt lon="35.017097" lat="31.900003"><ele>259.489659</ele><time>2022-11-25T07:30:59Z</time><extensions><speed>1.598797</speed><course>119.435494</course><hAcc>1.544433</hAcc><vAcc>0.832919</vAcc></extensions></trkpt>
      <trkpt lon="35.017111" lat="31.899996"><ele>259.430065</ele><time>2022-11-25T07:31:00Z</time><extensions><speed>1.497442</speed><course>117.680328</course><hAcc>1.571011</hAcc><vAcc>0.832961</vAcc></extensions></trkpt>
      <trkpt lon="35.017125" lat="31.899989"><ele>259.359901</ele><time>2022-11-25T07:31:01Z</time><extensions><speed>1.552681</speed><course>125.198546</course><hAcc>1.557023</hAcc><vAcc>0.832976</vAcc></extensions></trkpt>
      <trkpt lon="35.017138" lat="31.899980"><ele>259.279015</ele><time>2022-11-25T07:31:02Z</time><extensions><speed>1.504057</speed><course>128.277991</course><hAcc>1.580391</hAcc><vAcc>0.832985</vAcc></extensions></trkpt>
      <trkpt lon="35.017151" lat="31.899971"><ele>259.211472</ele><time>2022-11-25T07:31:03Z</time><extensions><speed>1.602524</speed><course>131.441655</course><hAcc>1.550662</hAcc><vAcc>0.832955</vAcc></extensions></trkpt>
      <trkpt lon="35.017163" lat="31.899962"><ele>259.164454</ele><time>2022-11-25T07:31:04Z</time><extensions><speed>1.557025</speed><course>131.935866</course><hAcc>1.564918</hAcc><vAcc>0.832879</vAcc></extensions></trkpt>
      <trkpt lon="35.017176" lat="31.899952"><ele>259.120988</ele><time>2022-11-25T07:31:05Z</time><extensions><speed>1.614195</speed><course>129.963065</course><hAcc>1.556717</hAcc><vAcc>0.832785</vAcc></extensions></trkpt>
      <trkpt lon="35.017189" lat="31.899944"><ele>259.080975</ele><time>2022-11-25T07:31:06Z</time><extensions><speed>1.546322</speed><course>127.954187</course><hAcc>1.584505</hAcc><vAcc>0.832687</vAcc></extensions></trkpt>
      <trkpt lon="35.017202" lat="31.899935"><ele>259.043689</ele><time>2022-11-25T07:31:07Z</time><extensions><speed>1.569942</speed><course>126.796668</course><hAcc>1.574913</hAcc><vAcc>0.832622</vAcc></extensions></trkpt>
      <trkpt lon="35.017215" lat="31.899927"><ele>259.000989</ele><time>2022-11-25T07:31:08Z</time><extensions><speed>1.530733</speed><course>126.012570</course><hAcc>1.581176</hAcc><vAcc>0.832544</vAcc></extensions></trkpt>
      <trkpt lon="35.017228" lat="31.899918"><ele>258.967253</ele><time>2022-11-25T07:31:09Z</time><extensions><speed>1.556714</speed><course>127.434890</course><hAcc>1.553664</hAcc><vAcc>0.832485</vAcc></extensions></trkpt>
      <trkpt lon="35.017241" lat="31.899910"><ele>258.942950</ele><time>2022-11-25T07:31:10Z</time><extensions><speed>1.642783</speed><course>128.191925</course><hAcc>1.526670</hAcc><vAcc>0.832446</vAcc></extensions></trkpt>
      <trkpt lon="35.017255" lat="31.899900"><ele>258.919944</ele><time>2022-11-25T07:31:11Z</time><extensions><speed>1.746309</speed><course>128.449726</course><hAcc>1.511663</hAcc><vAcc>0.832436</vAcc></extensions></trkpt>
      <trkpt lon="35.017270" lat="31.899890"><ele>258.897393</ele><time>2022-11-25T07:31:12Z</time><extensions><speed>1.825793</speed><course>130.037639</course><hAcc>1.512839</hAcc><vAcc>0.832457</vAcc></extensions></trkpt>
      <trkpt lon="35.017284" lat="31.899879"><ele>258.871793</ele><time>2022-11-25T07:31:13Z</time><extensions><speed>1.829591</speed><course>132.326920</course><hAcc>1.491136</hAcc><vAcc>0.832535</vAcc></extensions></trkpt>
      <trkpt lon="35.017298" lat="31.899868"><ele>258.878314</ele><time>2022-11-25T07:31:14Z</time><extensions><speed>1.789001</speed><course>132.193594</course><hAcc>1.457309</hAcc><vAcc>0.832632</vAcc></extensions></trkpt>
      <trkpt lon="35.017311" lat="31.899857"><ele>258.879253</ele><time>2022-11-25T07:31:15Z</time><extensions><speed>1.755945</speed><course>132.986646</course><hAcc>1.433591</hAcc><vAcc>0.832750</vAcc></extensions></trkpt>
      <trkpt lon="35.017325" lat="31.899846"><ele>258.884419</ele><time>2022-11-25T07:31:16Z</time><extensions><speed>1.736952</speed><course>133.991588</course><hAcc>1.422367</hAcc><vAcc>0.832898</vAcc></extensions></trkpt>
      <trkpt lon="35.017337" lat="31.899835"><ele>258.877056</ele><time>2022-11-25T07:31:17Z</time><extensions><speed>1.717267</speed><course>135.290282</course><hAcc>1.406812</hAcc><vAcc>0.833054</vAcc></extensions></trkpt>
      <trkpt lon="35.017350" lat="31.899824"><ele>258.855279</ele><time>2022-11-25T07:31:18Z</time><extensions><speed>1.711363</speed><course>132.586703</course><hAcc>1.397438</hAcc><vAcc>0.833219</vAcc></extensions></trkpt>
      <trkpt lon="35.017363" lat="31.899814"><ele>258.829072</ele><time>2022-11-25T07:31:19Z</time><extensions><speed>1.702394</speed><course>134.504043</course><hAcc>1.388802</hAcc><vAcc>0.833392</vAcc></extensions></trkpt>
      <trkpt lon="35.017375" lat="31.899803"><ele>258.793044</ele><time>2022-11-25T07:31:20Z</time><extensions><speed>1.672821</speed><course>134.030874</course><hAcc>1.376953</hAcc><vAcc>0.833572</vAcc></extensions></trkpt>
      <trkpt lon="35.017388" lat="31.899793"><ele>258.754214</ele><time>2022-11-25T07:31:21Z</time><extensions><speed>1.661829</speed><course>127.170100</course><hAcc>1.372864</hAcc><vAcc>0.833762</vAcc></extensions></trkpt>
      <trkpt lon="35.017402" lat="31.899784"><ele>258.718203</ele><time>2022-11-25T07:31:22Z</time><extensions><speed>1.667116</speed><course>129.409643</course><hAcc>1.370011</hAcc><vAcc>0.833953</vAcc></extensions></trkpt>
      <trkpt lon="35.017415" lat="31.899774"><ele>258.685455</ele><time>2022-11-25T07:31:23Z</time><extensions><speed>1.699476</speed><course>134.167191</course><hAcc>1.370693</hAcc><vAcc>0.834148</vAcc></extensions></trkpt>
      <trkpt lon="35.017427" lat="31.899763"><ele>258.659780</ele><time>2022-11-25T07:31:24Z</time><extensions><speed>1.671260</speed><course>138.774714</course><hAcc>1.359520</hAcc><vAcc>0.834342</vAcc></extensions></trkpt>
      <trkpt lon="35.017437" lat="31.899751"><ele>258.625607</ele><time>2022-11-25T07:31:25Z</time><extensions><speed>1.732899</speed><course>146.079795</course><hAcc>1.361036</hAcc><vAcc>0.834524</vAcc></extensions></trkpt>
      <trkpt lon="35.017447" lat="31.899738"><ele>258.589691</ele><time>2022-11-25T07:31:26Z</time><extensions><speed>1.726844</speed><course>146.356683</course><hAcc>1.355901</hAcc><vAcc>0.834687</vAcc></extensions></trkpt>
      <trkpt lon="35.017457" lat="31.899725"><ele>258.543596</ele><time>2022-11-25T07:31:27Z</time><extensions><speed>1.715610</speed><course>145.725219</course><hAcc>1.357746</hAcc><vAcc>0.834808</vAcc></extensions></trkpt>
      <trkpt lon="35.017467" lat="31.899713"><ele>258.512327</ele><time>2022-11-25T07:31:28Z</time><extensions><speed>1.656915</speed><course>144.933784</course><hAcc>1.350396</hAcc><vAcc>0.834911</vAcc></extensions></trkpt>
      <trkpt lon="35.017477" lat="31.899701"><ele>258.464227</ele><time>2022-11-25T07:31:29Z</time><extensions><speed>1.653178</speed><course>143.574452</course><hAcc>1.356006</hAcc><vAcc>0.834987</vAcc></extensions></trkpt>
      <trkpt lon="35.017487" lat="31.899689"><ele>258.408788</ele><time>2022-11-25T07:31:30Z</time><extensions><speed>1.619325</speed><course>143.612513</course><hAcc>1.349459</hAcc><vAcc>0.835015</vAcc></extensions></trkpt>
      <trkpt lon="35.017497" lat="31.899677"><ele>258.359649</ele><time>2022-11-25T07:31:31Z</time><extensions><speed>1.635129</speed><course>142.744280</course><hAcc>1.351182</hAcc><vAcc>0.835026</vAcc></extensions></trkpt>
      <trkpt lon="35.017508" lat="31.899666"><ele>258.306363</ele><time>2022-11-25T07:31:32Z</time><extensions><speed>1.655954</speed><course>142.015742</course><hAcc>1.351984</hAcc><vAcc>0.835003</vAcc></extensions></trkpt>
      <trkpt lon="35.017519" lat="31.899654"><ele>258.250897</ele><time>2022-11-25T07:31:33Z</time><extensions><speed>1.655153</speed><course>142.461739</course><hAcc>1.350072</hAcc><vAcc>0.834953</vAcc></extensions></trkpt>
      <trkpt lon="35.017529" lat="31.899642"><ele>258.206336</ele><time>2022-11-25T07:31:34Z</time><extensions><speed>1.627803</speed><course>145.346175</course><hAcc>1.345851</hAcc><vAcc>0.834881</vAcc></extensions></trkpt>
      <trkpt lon="35.017538" lat="31.899630"><ele>258.171070</ele><time>2022-11-25T07:31:35Z</time><extensions><speed>1.654725</speed><course>149.885153</course><hAcc>1.354650</hAcc><vAcc>0.834815</vAcc></extensions></trkpt>
      <trkpt lon="35.017546" lat="31.899617"><ele>258.144044</ele><time>2022-11-25T07:31:36Z</time><extensions><speed>1.659247</speed><course>154.345458</course><hAcc>1.355494</hAcc><vAcc>0.834749</vAcc></extensions></trkpt>
      <trkpt lon="35.017554" lat="31.899604"><ele>258.122332</ele><time>2022-11-25T07:31:37Z</time><extensions><speed>1.609301</speed><course>151.743196</course><hAcc>1.347520</hAcc><vAcc>0.834693</vAcc></extensions></trkpt>
      <trkpt lon="35.017563" lat="31.899591"><ele>258.112266</ele><time>2022-11-25T07:31:38Z</time><extensions><speed>1.632525</speed><course>143.886625</course><hAcc>1.342359</hAcc><vAcc>0.834671</vAcc></extensions></trkpt>
      <trkpt lon="35.017573" lat="31.899579"><ele>258.104905</ele><time>2022-11-25T07:31:39Z</time><extensions><speed>1.692735</speed><course>145.472827</course><hAcc>1.348053</hAcc><vAcc>0.834671</vAcc></extensions></trkpt>
      <trkpt lon="35.017583" lat="31.899567"><ele>258.119516</ele><time>2022-11-25T07:31:40Z</time><extensions><speed>1.678697</speed><course>144.728576</course><hAcc>1.347665</hAcc><vAcc>0.834701</vAcc></extensions></trkpt>
      <trkpt lon="35.017594" lat="31.899555"><ele>258.140158</ele><time>2022-11-25T07:31:41Z</time><extensions><speed>1.683154</speed><course>139.131211</course><hAcc>1.348955</hAcc><vAcc>0.834752</vAcc></extensions></trkpt>
      <trkpt lon="35.017606" lat="31.899544"><ele>258.166271</ele><time>2022-11-25T07:31:42Z</time><extensions><speed>1.664960</speed><course>134.731877</course><hAcc>1.346120</hAcc><vAcc>0.834793</vAcc></extensions></trkpt>
      <trkpt lon="35.017619" lat="31.899534"><ele>258.211275</ele><time>2022-11-25T07:31:43Z</time><extensions><speed>1.671215</speed><course>132.873255</course><hAcc>1.347665</hAcc><vAcc>0.834830</vAcc></extensions></trkpt>
      <trkpt lon="35.017632" lat="31.899524"><ele>258.268318</ele><time>2022-11-25T07:31:44Z</time><extensions><speed>1.700769</speed><course>129.995626</course><hAcc>1.348529</hAcc><vAcc>0.834871</vAcc></extensions></trkpt>
      <trkpt lon="35.017646" lat="31.899514"><ele>258.343004</ele><time>2022-11-25T07:31:45Z</time><extensions><speed>1.721692</speed><course>128.404040</course><hAcc>1.345356</hAcc><vAcc>0.834900</vAcc></extensions></trkpt>
      <trkpt lon="35.017659" lat="31.899504"><ele>258.423122</ele><time>2022-11-25T07:31:46Z</time><extensions><speed>1.723960</speed><course>132.196654</course><hAcc>1.339779</hAcc><vAcc>0.834917</vAcc></extensions></trkpt>
      <trkpt lon="35.017672" lat="31.899494"><ele>258.502233</ele><time>2022-11-25T07:31:47Z</time><extensions><speed>1.742488</speed><course>136.492365</course><hAcc>1.349974</hAcc><vAcc>0.834901</vAcc></extensions></trkpt>
      <trkpt lon="35.017684" lat="31.899482"><ele>258.593271</ele><time>2022-11-25T07:31:48Z</time><extensions><speed>1.746643</speed><course>137.157442</course><hAcc>1.354124</hAcc><vAcc>0.834845</vAcc></extensions></trkpt>
      <trkpt lon="35.017697" lat="31.899471"><ele>258.691429</ele><time>2022-11-25T07:31:49Z</time><extensions><speed>1.731374</speed><course>138.841150</course><hAcc>1.354119</hAcc><vAcc>0.834763</vAcc></extensions></trkpt>
      <trkpt lon="35.017709" lat="31.899460"><ele>258.783459</ele><time>2022-11-25T07:31:50Z</time><extensions><speed>1.695815</speed><course>137.650980</course><hAcc>1.361616</hAcc><vAcc>0.842329</vAcc></extensions></trkpt>
      <trkpt lon="35.017721" lat="31.899449"><ele>258.877799</ele><time>2022-11-25T07:31:51Z</time><extensions><speed>1.655874</speed><course>137.081621</course><hAcc>1.372335</hAcc><vAcc>0.854501</vAcc></extensions></trkpt>
      <trkpt lon="35.017733" lat="31.899438"><ele>258.973397</ele><time>2022-11-25T07:31:52Z</time><extensions><speed>1.648668</speed><course>136.701999</course><hAcc>1.389140</hAcc><vAcc>0.873519</vAcc></extensions></trkpt>
      <trkpt lon="35.017744" lat="31.899427"><ele>259.069356</ele><time>2022-11-25T07:31:53Z</time><extensions><speed>1.598223</speed><course>136.209838</course><hAcc>1.409150</hAcc><vAcc>0.902191</vAcc></extensions></trkpt>
      <trkpt lon="35.017755" lat="31.899416"><ele>259.164868</ele><time>2022-11-25T07:31:54Z</time><extensions><speed>1.576105</speed><course>143.436535</course><hAcc>1.442178</hAcc><vAcc>0.943763</vAcc></extensions></trkpt>
      <trkpt lon="35.017765" lat="31.899404"><ele>259.259296</ele><time>2022-11-25T07:31:55Z</time><extensions><speed>1.588236</speed><course>147.339231</course><hAcc>1.492002</hAcc><vAcc>1.001666</vAcc></extensions></trkpt>
      <trkpt lon="35.017775" lat="31.899393"><ele>259.352292</ele><time>2022-11-25T07:31:56Z</time><extensions><speed>1.633800</speed><course>141.615921</course><hAcc>1.555923</hAcc><vAcc>1.079154</vAcc></extensions></trkpt>
      <trkpt lon="35.017786" lat="31.899381"><ele>259.443862</ele><time>2022-11-25T07:31:57Z</time><extensions><speed>1.624128</speed><course>139.498376</course><hAcc>1.628564</hAcc><vAcc>1.178949</vAcc></extensions></trkpt>
      <trkpt lon="35.017797" lat="31.899371"><ele>259.534261</ele><time>2022-11-25T07:31:58Z</time><extensions><speed>1.598851</speed><course>135.845374</course><hAcc>1.732479</hAcc><vAcc>1.302978</vAcc></extensions></trkpt>
      <trkpt lon="35.017809" lat="31.899360"><ele>259.623856</ele><time>2022-11-25T07:31:59Z</time><extensions><speed>1.664171</speed><course>132.655432</course><hAcc>1.901634</hAcc><vAcc>1.452264</vAcc></extensions></trkpt>
    </trkseg>
  </trk>
</gpx>