<?xml version="1.0" encoding="UTF-8"?>
<gpx version="1.1" creator="Apple Health Export" xmlns="http://www.topografix.com/GPX/1/1" xmlns:xsi="http://www.w3.org/2001/XMLSchema-instance" xsi:schemaLocation="http://www.topografix.com/GPX/1/1 http://www.topografix.com/GPX/1/1/gpx.xsd">
  <metadata>
    <time>2026-06-04T15:24:54Z</time>
  </metadata>
  <trk>
    <name>Route 2025-01-05 1:45pm</name>
    <trkseg>
      <trkpt lon="34.765115" lat="30.826727"><ele>364.465009</ele><time>2025-01-05T11:40:00Z</time><extensions><speed>1.120601</speed><course>230.181269</course><hAcc>2.494482</hAcc><vAcc>1.721102</vAcc></extensions></trkpt>
      <trkpt lon="34.765106" lat="30.826721"><ele>364.354100</ele><time>2025-01-05T11:40:01Z</time><extensions><speed>1.066948</speed><course>229.821374</course><hAcc>2.223631</hAcc><vAcc>1.515687</vAcc></extensions></trkpt>
      <trkpt lon="34.765098" lat="30.826715"><ele>364.242065</ele><time>2025-01-05T11:40:02Z</time><extensions><speed>1.038426</speed><course>230.067325</course><hAcc>2.063422</hAcc><vAcc>1.353013</vAcc></extensions></trkpt>
      <trkpt lon="34.765090" lat="30.826709"><ele>364.147105</ele><time>2025-01-05T11:40:03Z</time><extensions><speed>0.940464</speed><course>229.712495</course><hAcc>1.960968</hAcc><vAcc>1.228230</vAcc></extensions></trkpt>
      <trkpt lon="34.765083" lat="30.826704"><ele>364.091261</ele><time>2025-01-05T11:40:04Z</time><extensions><speed>0.853404</speed><course>229.852010</course><hAcc>1.927069</hAcc><vAcc>1.135743</vAcc></extensions></trkpt>
      <trkpt lon="34.765076" lat="30.826700"><ele>364.084226</ele><time>2025-01-05T11:40:05Z</time><extensions><speed>0.636127</speed><course>235.711598</course><hAcc>1.911473</hAcc><vAcc>1.070113</vAcc></extensions></trkpt>
      <trkpt lon="34.765071" lat="30.826697"><ele>364.123119</ele><time>2025-01-05T11:40:06Z</time><extensions><speed>0.618137</speed><course>247.380078</course><hAcc>1.898545</hAcc><vAcc>1.025663</vAcc></extensions></trkpt>
      <trkpt lon="34.765065" lat="30.826695"><ele>364.182727</ele><time>2025-01-05T11:40:07Z</time><extensions><speed>0.592396</speed><course>253.469083</course><hAcc>1.901057</hAcc><vAcc>0.998422</vAcc></extensions></trkpt>
      <trkpt lon="34.765060" lat="30.826694"><ele>364.259252</ele><time>2025-01-05T11:40:08Z</time><extensions><speed>0.447054</speed><course>249.679970</course><hAcc>1.918645</hAcc><vAcc>0.984166</vAcc></extensions></trkpt>
      <trkpt lon="34.765056" lat="30.826693"><ele>364.376937</ele><time>2025-01-05T11:40:09Z</time><extensions><speed>0.234242</speed><course>246.899985</course><hAcc>1.913929</hAcc><vAcc>0.978522</vAcc></extensions></trkpt>
      <trkpt lon="34.765054" lat="30.826692"><ele>364.518111</ele><time>2025-01-05T11:40:10Z</time><extensions><speed>0.183444</speed><course>252.497115</course><hAcc>1.895718</hAcc><vAcc>0.978411</vAcc></extensions></trkpt>
      <trkpt lon="34.765053" lat="30.826692"><ele>364.681887</ele><time>2025-01-05T11:40:11Z</time><extensions><speed>0.145795</speed><course>266.247554</course><hAcc>1.881230</hAcc><vAcc>0.979637</vAcc></extensions></trkpt>
      <trkpt lon="34.765052" lat="30.826692"><ele>364.860065</ele><time>2025-01-05T11:40:12Z</time><extensions><speed>0.088494</speed><course>280.183529</course><hAcc>1.867628</hAcc><vAcc>0.981913</vAcc></extensions></trkpt>
      <trkpt lon="34.765051" lat="30.826692"><ele>365.079931</ele><time>2025-01-05T11:40:13Z</time><extensions><speed>0.037826</speed><course>288.601105</course><hAcc>1.850689</hAcc><vAcc>0.983103</vAcc></extensions></trkpt>
      <trkpt lon="34.765051" lat="30.826692"><ele>365.311878</ele><time>2025-01-05T11:40:14Z</time><extensions><speed>0.024580</speed><course>91.798216</course><hAcc>1.831874</hAcc><vAcc>0.984207</vAcc></extensions></trkpt>
      <trkpt lon="34.765052" lat="30.826692"><ele>365.555303</ele><time>2025-01-05T11:40:15Z</time><extensions><speed>0.109525</speed><course>93.970986</course><hAcc>1.814563</hAcc><vAcc>0.986181</vAcc></extensions></trkpt>
      <trkpt lon="34.765054" lat="30.826692"><ele>365.806592</ele><time>2025-01-05T11:40:16Z</time><extensions><speed>0.236649</speed><course>88.162632</course><hAcc>1.805055</hAcc><vAcc>0.987523</vAcc></extensions></trkpt>
      <trkpt lon="34.765057" lat="30.826692"><ele>366.025450</ele><time>2025-01-05T11:40:17Z</time><extensions><speed>0.339270</speed><course>87.416383</course><hAcc>1.803546</hAcc><vAcc>0.987784</vAcc></extensions></trkpt>
      <trkpt lon="34.765061" lat="30.826692"><ele>366.242925</ele><time>2025-01-05T11:40:18Z</time><extensions><speed>0.408686</speed><course>87.531682</course><hAcc>1.799793</hAcc><vAcc>0.986778</vAcc></extensions></trkpt>
      <trkpt lon="34.765065" lat="30.826693"><ele>366.461007</ele><time>2025-01-05T11:40:19Z</time><extensions><speed>0.407752</speed><course>86.951617</course><hAcc>1.792122</hAcc><vAcc>0.985687</vAcc></extensions></trkpt>
      <trkpt lon="34.765069" lat="30.826693"><ele>366.671073</ele><time>2025-01-05T11:40:20Z</time><extensions><speed>0.314072</speed><course>84.904009</course><hAcc>1.786587</hAcc><vAcc>0.984783</vAcc></extensions></trkpt>
      <trkpt lon="34.765071" lat="30.826693"><ele>366.852497</ele><time>2025-01-05T11:40:21Z</time><extensions><speed>0.189485</speed><course>80.973463</course><hAcc>1.780783</hAcc><vAcc>0.985154</vAcc></extensions></trkpt>
      <trkpt lon="34.765073" lat="30.826693"><ele>367.021849</ele><time>2025-01-05T11:40:22Z</time><extensions><speed>0.131767</speed><course>66.597868</course><hAcc>1.777388</hAcc><vAcc>0.986350</vAcc></extensions></trkpt>
      <trkpt lon="34.765074" lat="30.826694"><ele>367.177880</ele><time>2025-01-05T11:40:23Z</time><extensions><speed>0.059690</speed><course>54.973285</course><hAcc>1.771284</hAcc><vAcc>0.989015</vAcc></extensions></trkpt>
      <trkpt lon="34.765074" lat="30.826694"><ele>367.317994</ele><time>2025-01-05T11:40:24Z</time><extensions><speed>0.064144</speed><course>88.555649</course><hAcc>1.773430</hAcc><vAcc>0.993400</vAcc></extensions></trkpt>
      <trkpt lon="34.765075" lat="30.826694"><ele>367.442011</ele><time>2025-01-05T11:40:25Z</time><extensions><speed>0.121411</speed><course>108.593380</course><hAcc>1.781945</hAcc><vAcc>1.000137</vAcc></extensions></trkpt>
      <trkpt lon="34.765077" lat="30.826693"><ele>367.547907</ele><time>2025-01-05T11:40:26Z</time><extensions><speed>0.160625</speed><course>125.332818</course><hAcc>1.777883</hAcc><vAcc>1.008448</vAcc></extensions></trkpt>
      <trkpt lon="34.765078" lat="30.826692"><ele>367.637336</ele><time>2025-01-05T11:40:27Z</time><extensions><speed>0.182565</speed><course>134.582611</course><hAcc>1.776576</hAcc><vAcc>1.018974</vAcc></extensions></trkpt>
      <trkpt lon="34.765079" lat="30.826691"><ele>367.711227</ele><time>2025-01-05T11:40:28Z</time><extensions><speed>0.202466</speed><course>134.260172</course><hAcc>1.781605</hAcc><vAcc>1.031769</vAcc></extensions></trkpt>
      <trkpt lon="34.765081" lat="30.826690"><ele>367.771446</ele><time>2025-01-05T11:40:29Z</time><extensions><speed>0.225503</speed><course>128.705833</course><hAcc>1.786473</hAcc><vAcc>1.047414</vAcc></extensions></trkpt>
      <trkpt lon="34.765083" lat="30.826688"><ele>367.778626</ele><time>2025-01-05T11:40:30Z</time><extensions><speed>0.245468</speed><course>125.308251</course><hAcc>1.788654</hAcc><vAcc>1.064478</vAcc></extensions></trkpt>
      <trkpt lon="34.765086" lat="30.826687"><ele>367.753683</ele><time>2025-01-05T11:40:31Z</time><extensions><speed>0.264081</speed><course>117.837925</course><hAcc>1.789546</hAcc><vAcc>1.081132</vAcc></extensions></trkpt>
      <trkpt lon="34.765088" lat="30.826686"><ele>367.723280</ele><time>2025-01-05T11:40:32Z</time><extensions><speed>0.251407</speed><course>113.338518</course><hAcc>1.788726</hAcc><vAcc>1.099420</vAcc></extensions></trkpt>
      <trkpt lon="34.765090" lat="30.826685"><ele>367.662408</ele><time>2025-01-05T11:40:33Z</time><extensions><speed>0.227031</speed><course>106.183206</course><hAcc>1.793741</hAcc><vAcc>1.116299</vAcc></extensions></trkpt>
      <trkpt lon="34.765093" lat="30.826685"><ele>367.587855</ele><time>2025-01-05T11:40:34Z</time><extensions><speed>0.200694</speed><course>103.142474</course><hAcc>1.799991</hAcc><vAcc>1.131636</vAcc></extensions></trkpt>
      <trkpt lon="34.765095" lat="30.826685"><ele>367.504288</ele><time>2025-01-05T11:40:35Z</time><extensions><speed>0.181821</speed><course>102.384665</course><hAcc>1.813120</hAcc><vAcc>1.145993</vAcc></extensions></trkpt>
      <trkpt lon="34.765096" lat="30.826684"><ele>367.415973</ele><time>2025-01-05T11:40:36Z</time><extensions><speed>0.177091</speed><course>103.833998</course><hAcc>1.834012</hAcc><vAcc>1.157462</vAcc></extensions></trkpt>
      <trkpt lon="34.765098" lat="30.826684"><ele>367.281152</ele><time>2025-01-05T11:40:37Z</time><extensions><speed>0.185751</speed><course>106.120431</course><hAcc>1.862339</hAcc><vAcc>1.165093</vAcc></extensions></trkpt>
      <trkpt lon="34.765100" lat="30.826683"><ele>367.132213</ele><time>2025-01-05T11:40:38Z</time><extensions><speed>0.200622</speed><course>108.336209</course><hAcc>1.892794</hAcc><vAcc>1.169893</vAcc></extensions></trkpt>
      <trkpt lon="34.765102" lat="30.826683"><ele>366.981517</ele><time>2025-01-05T11:40:39Z</time><extensions><speed>0.203670</speed><course>110.941270</course><hAcc>1.919292</hAcc><vAcc>1.173556</vAcc></extensions></trkpt>
      <trkpt lon="34.765104" lat="30.826682"><ele>366.829065</ele><time>2025-01-05T11:40:40Z</time><extensions><speed>0.177188</speed><course>116.393423</course><hAcc>1.929163</hAcc><vAcc>1.174559</vAcc></extensions></trkpt>
      <trkpt lon="34.765105" lat="30.826681"><ele>366.673100</ele><time>2025-01-05T11:40:41Z</time><extensions><speed>0.115793</speed><course>135.491882</course><hAcc>1.938882</hAcc><vAcc>1.174831</vAcc></extensions></trkpt>
      <trkpt lon="34.765106" lat="30.826680"><ele>366.481215</ele><time>2025-01-05T11:40:42Z</time><extensions><speed>0.090216</speed><course>143.451226</course><hAcc>1.953530</hAcc><vAcc>1.173405</vAcc></extensions></trkpt>
      <trkpt lon="34.765107" lat="30.826680"><ele>366.318545</ele><time>2025-01-05T11:40:43Z</time><extensions><speed>0.084775</speed><course>155.814075</course><hAcc>1.963072</hAcc><vAcc>1.167297</vAcc></extensions></trkpt>
      <trkpt lon="34.765107" lat="30.826679"><ele>366.152548</ele><time>2025-01-05T11:40:44Z</time><extensions><speed>0.096611</speed><course>160.775072</course><hAcc>1.967787</hAcc><vAcc>1.160781</vAcc></extensions></trkpt>
      <trkpt lon="34.765107" lat="30.826678"><ele>365.987813</ele><time>2025-01-05T11:40:45Z</time><extensions><speed>0.118501</speed><course>166.272675</course><hAcc>1.961794</hAcc><vAcc>1.154920</vAcc></extensions></trkpt>
      <trkpt lon="34.765107" lat="30.826677"><ele>365.828584</ele><time>2025-01-05T11:40:46Z</time><extensions><speed>0.134116</speed><course>171.687532</course><hAcc>1.949200</hAcc><vAcc>1.150341</vAcc></extensions></trkpt>
      <trkpt lon="34.765108" lat="30.826676"><ele>365.674721</ele><time>2025-01-05T11:40:47Z</time><extensions><speed>0.136240</speed><course>178.951753</course><hAcc>1.937120</hAcc><vAcc>1.146261</vAcc></extensions></trkpt>
      <trkpt lon="34.765108" lat="30.826675"><ele>365.527093</ele><time>2025-01-05T11:40:48Z</time><extensions><speed>0.116386</speed><course>162.260830</course><hAcc>1.933465</hAcc><vAcc>1.143168</vAcc></extensions></trkpt>
      <trkpt lon="34.765108" lat="30.826674"><ele>365.397328</ele><time>2025-01-05T11:40:49Z</time><extensions><speed>0.121501</speed><course>140.926812</course><hAcc>1.932144</hAcc><vAcc>1.140160</vAcc></extensions></trkpt>
      <trkpt lon="34.765109" lat="30.826673"><ele>365.275193</ele><time>2025-01-05T11:40:50Z</time><extensions><speed>0.125549</speed><course>136.450685</course><hAcc>1.934373</hAcc><vAcc>1.139500</vAcc></extensions></trkpt>
      <trkpt lon="34.765110" lat="30.826672"><ele>365.161995</ele><time>2025-01-05T11:40:51Z</time><extensions><speed>0.092390</speed><course>156.076064</course><hAcc>1.939803</hAcc><vAcc>1.140801</vAcc></extensions></trkpt>
      <trkpt lon="34.765110" lat="30.826671"><ele>365.059451</ele><time>2025-01-05T11:40:52Z</time><extensions><speed>0.105688</speed><course>234.834055</course><hAcc>1.943071</hAcc><vAcc>1.142699</vAcc></extensions></trkpt>
      <trkpt lon="34.765108" lat="30.826671"><ele>364.966010</ele><time>2025-01-05T11:40:53Z</time><extensions><speed>0.265598</speed><course>263.666625</course><hAcc>1.945597</hAcc><vAcc>1.147430</vAcc></extensions></trkpt>
      <trkpt lon="34.765105" lat="30.826671"><ele>364.882760</ele><time>2025-01-05T11:40:54Z</time><extensions><speed>0.234014</speed><course>270.370125</course><hAcc>1.955130</hAcc><vAcc>1.153835</vAcc></extensions></trkpt>
      <trkpt lon="34.765103" lat="30.826671"><ele>364.724227</ele><time>2025-01-05T11:40:55Z</time><extensions><speed>0.138007</speed><course>278.664136</course><hAcc>1.971409</hAcc><vAcc>1.161810</vAcc></extensions></trkpt>
      <trkpt lon="34.765102" lat="30.826671"><ele>364.578790</ele><time>2025-01-05T11:40:56Z</time><extensions><speed>0.104791</speed><course>290.433529</course><hAcc>1.987355</hAcc><vAcc>1.170455</vAcc></extensions></trkpt>
      <trkpt lon="34.765101" lat="30.826672"><ele>364.430982</ele><time>2025-01-05T11:40:57Z</time><extensions><speed>0.106599</speed><course>297.085070</course><hAcc>1.996681</hAcc><vAcc>1.180125</vAcc></extensions></trkpt>
      <trkpt lon="34.765099" lat="30.826672"><ele>364.289623</ele><time>2025-01-05T11:40:58Z</time><extensions><speed>0.127526</speed><course>297.565272</course><hAcc>1.996435</hAcc><vAcc>1.192081</vAcc></extensions></trkpt>
      <trkpt lon="34.765098" lat="30.826673"><ele>364.152446</ele><time>2025-01-05T11:40:59Z</time><extensions><speed>0.153672</speed><course>294.588798</course><hAcc>1.991212</hAcc><vAcc>1.205683</vAcc></extensions></trkpt>
      <trkpt lon="34.765097" lat="30.826673"><ele>364.087637</ele><time>2025-01-05T11:41:00Z</time><extensions><speed>0.137839</speed><course>293.361200</course><hAcc>2.000794</hAcc><vAcc>1.218828</vAcc></extensions></trkpt>
      <trkpt lon="34.765095" lat="30.826674"><ele>364.032896</ele><time>2025-01-05T11:41:01Z</time><extensions><speed>0.133176</speed><course>290.146959</course><hAcc>2.008979</hAcc><vAcc>1.230514</vAcc></extensions></trkpt>
      <trkpt lon="34.765094" lat="30.826674"><ele>363.998924</ele><time>2025-01-05T11:41:02Z</time><extensions><speed>0.135286</speed><course>285.840278</course><hAcc>2.016460</hAcc><vAcc>1.241150</vAcc></extensions></trkpt>
      <trkpt lon="34.765093" lat="30.826674"><ele>363.980798</ele><time>2025-01-05T11:41:03Z</time><extensions><speed>0.141157</speed><course>281.959687</course><hAcc>2.025679</hAcc><vAcc>1.251660</vAcc></extensions></trkpt>
      <trkpt lon="34.765091" lat="30.826675"><ele>363.963704</ele><time>2025-01-05T11:41:04Z</time><extensions><speed>0.162030</speed><course>279.488162</course><hAcc>2.019905</hAcc><vAcc>1.262414</vAcc></extensions></trkpt>
      <trkpt lon="34.765089" lat="30.826675"><ele>363.954559</ele><time>2025-01-05T11:41:05Z</time><extensions><speed>0.188670</speed><course>277.843723</course><hAcc>1.997433</hAcc><vAcc>1.272431</vAcc></extensions></trkpt>
      <trkpt lon="34.765087" lat="30.826675"><ele>363.955432</ele><time>2025-01-05T11:41:06Z</time><extensions><speed>0.173514</speed><course>276.530729</course><hAcc>1.981264</hAcc><vAcc>1.280396</vAcc></extensions></trkpt>
      <trkpt lon="34.765086" lat="30.826675"><ele>363.965569</ele><time>2025-01-05T11:41:07Z</time><extensions><speed>0.130115</speed><course>276.299656</course><hAcc>1.974195</hAcc><vAcc>1.286407</vAcc></extensions></trkpt>
      <trkpt lon="34.765085" lat="30.826675"><ele>363.993731</ele><time>2025-01-05T11:41:08Z</time><extensions><speed>0.072729</speed><course>278.462803</course><hAcc>1.969265</hAcc><vAcc>1.290258</vAcc></extensions></trkpt>
      <trkpt lon="34.765085" lat="30.826675"><ele>364.003650</ele><time>2025-01-05T11:41:09Z</time><extensions><speed>0.035026</speed><course>283.871596</course><hAcc>1.959072</hAcc><vAcc>1.292066</vAcc></extensions></trkpt>
      <trkpt lon="34.765084" lat="30.826675"><ele>364.000022</ele><time>2025-01-05T11:41:10Z</time><extensions><speed>0.012618</speed><course>296.868911</course><hAcc>1.941749</hAcc><vAcc>1.295276</vAcc></extensions></trkpt>
      <trkpt lon="34.765085" lat="30.826675"><ele>363.973151</ele><time>2025-01-05T11:41:11Z</time><extensions><speed>0.017241</speed><course>81.983200</course><hAcc>1.918009</hAcc><vAcc>1.299521</vAcc></extensions></trkpt>
      <trkpt lon="34.765085" lat="30.826675"><ele>363.924615</ele><time>2025-01-05T11:41:12Z</time><extensions><speed>0.023057</speed><course>84.030458</course><hAcc>1.894847</hAcc><vAcc>1.299303</vAcc></extensions></trkpt>
      <trkpt lon="34.765085" lat="30.826675"><ele>363.882560</ele><time>2025-01-05T11:41:13Z</time><extensions><speed>0.047192</speed><course>91.594468</course><hAcc>1.896496</hAcc><vAcc>1.300216</vAcc></extensions></trkpt>
      <trkpt lon="34.765086" lat="30.826675"><ele>363.869075</ele><time>2025-01-05T11:41:14Z</time><extensions><speed>0.066053</speed><course>109.290043</course><hAcc>1.925272</hAcc><vAcc>1.304147</vAcc></extensions></trkpt>
      <trkpt lon="34.765086" lat="30.826675"><ele>363.896619</ele><time>2025-01-05T11:41:15Z</time><extensions><speed>0.102665</speed><course>130.933128</course><hAcc>1.927192</hAcc><vAcc>1.307756</vAcc></extensions></trkpt>
      <trkpt lon="34.765087" lat="30.826674"><ele>363.942581</ele><time>2025-01-05T11:41:16Z</time><extensions><speed>0.175738</speed><course>147.912754</course><hAcc>1.900094</hAcc><vAcc>1.310321</vAcc></extensions></trkpt>
      <trkpt lon="34.765088" lat="30.826672"><ele>363.997736</ele><time>2025-01-05T11:41:17Z</time><extensions><speed>0.233131</speed><course>167.178791</course><hAcc>1.889105</hAcc><vAcc>1.306046</vAcc></extensions></trkpt>
      <trkpt lon="34.765088" lat="30.826670"><ele>364.020445</ele><time>2025-01-05T11:41:18Z</time><extensions><speed>0.309429</speed><course>196.840823</course><hAcc>1.887222</hAcc><vAcc>1.287600</vAcc></extensions></trkpt>
      <trkpt lon="34.765086" lat="30.826667"><ele>364.080785</ele><time>2025-01-05T11:41:19Z</time><extensions><speed>0.399800</speed><course>212.937352</course><hAcc>1.893431</hAcc><vAcc>1.274758</vAcc></extensions></trkpt>
      <trkpt lon="34.765083" lat="30.826664"><ele>364.166263</ele><time>2025-01-05T11:41:20Z</time><extensions><speed>0.545855</speed><course>227.827274</course><hAcc>1.906534</hAcc><vAcc>1.260740</vAcc></extensions></trkpt>
      <trkpt lon="34.765078" lat="30.826660"><ele>364.276639</ele><time>2025-01-05T11:41:21Z</time><extensions><speed>0.648935</speed><course>226.848821</course><hAcc>1.915070</hAcc><vAcc>1.248135</vAcc></extensions></trkpt>
      <trkpt lon="34.765073" lat="30.826656"><ele>364.418751</ele><time>2025-01-05T11:41:22Z</time><extensions><speed>0.673397</speed><course>234.711338</course><hAcc>1.902727</hAcc><vAcc>1.237508</vAcc></extensions></trkpt>
      <trkpt lon="34.765067" lat="30.826654"><ele>364.609007</ele><time>2025-01-05T11:41:23Z</time><extensions><speed>0.612185</speed><course>250.550136</course><hAcc>1.897000</hAcc><vAcc>1.227802</vAcc></extensions></trkpt>
      <trkpt lon="34.765061" lat="30.826653"><ele>364.820231</ele><time>2025-01-05T11:41:24Z</time><extensions><speed>0.614814</speed><course>263.060810</course><hAcc>1.889890</hAcc><vAcc>1.217797</vAcc></extensions></trkpt>
      <trkpt lon="34.765054" lat="30.826652"><ele>365.048257</ele><time>2025-01-05T11:41:25Z</time><extensions><speed>0.704268</speed><course>270.485467</course><hAcc>1.884571</hAcc><vAcc>1.207559</vAcc></extensions></trkpt>
      <trkpt lon="34.765047" lat="30.826653"><ele>365.335873</ele><time>2025-01-05T11:41:26Z</time><extensions><speed>0.618769</speed><course>276.536721</course><hAcc>1.871838</hAcc><vAcc>1.196546</vAcc></extensions></trkpt>
      <trkpt lon="34.765040" lat="30.826654"><ele>365.657759</ele><time>2025-01-05T11:41:27Z</time><extensions><speed>0.633071</speed><course>279.607977</course><hAcc>1.854033</hAcc><vAcc>1.186862</vAcc></extensions></trkpt>
      <trkpt lon="34.765033" lat="30.826655"><ele>366.028666</ele><time>2025-01-05T11:41:28Z</time><extensions><speed>0.712591</speed><course>279.027609</course><hAcc>1.833786</hAcc><vAcc>1.177290</vAcc></extensions></trkpt>
      <trkpt lon="34.765025" lat="30.826656"><ele>366.426832</ele><time>2025-01-05T11:41:29Z</time><extensions><speed>0.854470</speed><course>275.665543</course><hAcc>1.829026</hAcc><vAcc>1.168861</vAcc></extensions></trkpt>
      <trkpt lon="34.765016" lat="30.826656"><ele>366.875592</ele><time>2025-01-05T11:41:30Z</time><extensions><speed>0.959892</speed><course>275.461719</course><hAcc>1.826247</hAcc><vAcc>1.158209</vAcc></extensions></trkpt>
      <trkpt lon="34.765006" lat="30.826657"><ele>367.336344</ele><time>2025-01-05T11:41:31Z</time><extensions><speed>0.933494</speed><course>277.877453</course><hAcc>1.834256</hAcc><vAcc>1.151657</vAcc></extensions></trkpt>
      <trkpt lon="34.764996" lat="30.826659"><ele>367.808675</ele><time>2025-01-05T11:41:32Z</time><extensions><speed>0.889068</speed><course>278.988471</course><hAcc>1.845493</hAcc><vAcc>1.145182</vAcc></extensions></trkpt>
      <trkpt lon="34.764989" lat="30.826660"><ele>368.281383</ele><time>2025-01-05T11:41:33Z</time><extensions><speed>0.677611</speed><course>290.286901</course><hAcc>1.830337</hAcc><vAcc>1.139506</vAcc></extensions></trkpt>
      <trkpt lon="34.764983" lat="30.826663"><ele>368.753117</ele><time>2025-01-05T11:41:34Z</time><extensions><speed>0.485619</speed><course>304.856579</course><hAcc>1.825484</hAcc><vAcc>1.133703</vAcc></extensions></trkpt>
      <trkpt lon="34.764979" lat="30.826665"><ele>369.214306</ele><time>2025-01-05T11:41:35Z</time><extensions><speed>0.475343</speed><course>307.980477</course><hAcc>1.821247</hAcc><vAcc>1.129413</vAcc></extensions></trkpt>
      <trkpt lon="34.764975" lat="30.826668"><ele>369.666552</ele><time>2025-01-05T11:41:36Z</time><extensions><speed>0.512176</speed><course>302.613448</course><hAcc>1.814650</hAcc><vAcc>1.125290</vAcc></extensions></trkpt>
      <trkpt lon="34.764971" lat="30.826670"><ele>370.178465</ele><time>2025-01-05T11:41:37Z</time><extensions><speed>0.524647</speed><course>303.088015</course><hAcc>1.797250</hAcc><vAcc>1.121088</vAcc></extensions></trkpt>
      <trkpt lon="34.764966" lat="30.826673"><ele>370.719036</ele><time>2025-01-05T11:41:38Z</time><extensions><speed>0.491572</speed><course>307.069507</course><hAcc>1.774509</hAcc><vAcc>1.110875</vAcc></extensions></trkpt>
      <trkpt lon="34.764963" lat="30.826676"><ele>371.251811</ele><time>2025-01-05T11:41:39Z</time><extensions><speed>0.450848</speed><course>310.868741</course><hAcc>1.753815</hAcc><vAcc>1.101248</vAcc></extensions></trkpt>
      <trkpt lon="34.764959" lat="30.826678"><ele>371.783271</ele><time>2025-01-05T11:41:40Z</time><extensions><speed>0.423251</speed><course>309.848945</course><hAcc>1.757254</hAcc><vAcc>1.090788</vAcc></extensions></trkpt>
      <trkpt lon="34.764957" lat="30.826680"><ele>372.326490</ele><time>2025-01-05T11:41:41Z</time><extensions><speed>0.127940</speed><course>334.640244</course><hAcc>1.790304</hAcc><vAcc>1.075782</vAcc></extensions></trkpt>
      <trkpt lon="34.764957" lat="30.826681"><ele>372.841661</ele><time>2025-01-05T11:41:42Z</time><extensions><speed>0.116007</speed><course>31.093926</course><hAcc>1.749501</hAcc><vAcc>1.057228</vAcc></extensions></trkpt>
      <trkpt lon="34.764958" lat="30.826682"><ele>373.332707</ele><time>2025-01-05T11:41:43Z</time><extensions><speed>0.163119</speed><course>58.512206</course><hAcc>1.728229</hAcc><vAcc>1.038643</vAcc></extensions></trkpt>
      <trkpt lon="34.764960" lat="30.826683"><ele>373.794091</ele><time>2025-01-05T11:41:44Z</time><extensions><speed>0.217510</speed><course>69.354474</course><hAcc>1.737844</hAcc><vAcc>1.019621</vAcc></extensions></trkpt>
      <trkpt lon="34.764962" lat="30.826683"><ele>374.249330</ele><time>2025-01-05T11:41:45Z</time><extensions><speed>0.263801</speed><course>73.277890</course><hAcc>1.757297</hAcc><vAcc>0.999710</vAcc></extensions></trkpt>
      <trkpt lon="34.764965" lat="30.826684"><ele>374.743806</ele><time>2025-01-05T11:41:46Z</time><extensions><speed>0.282118</speed><course>72.578269</course><hAcc>1.770773</hAcc><vAcc>0.978710</vAcc></extensions></trkpt>
      <trkpt lon="34.764968" lat="30.826685"><ele>375.233541</ele><time>2025-01-05T11:41:47Z</time><extensions><speed>0.220485</speed><course>62.165493</course><hAcc>1.772209</hAcc><vAcc>0.956647</vAcc></extensions></trkpt>
      <trkpt lon="34.764969" lat="30.826686"><ele>375.714919</ele><time>2025-01-05T11:41:48Z</time><extensions><speed>0.134038</speed><course>7.633274</course><hAcc>1.768097</hAcc><vAcc>0.933773</vAcc></extensions></trkpt>
      <trkpt lon="34.764968" lat="30.826687"><ele>376.206756</ele><time>2025-01-05T11:41:49Z</time><extensions><speed>0.256950</speed><course>309.621763</course><hAcc>1.774366</hAcc><vAcc>0.910880</vAcc></extensions></trkpt>
      <trkpt lon="34.764965" lat="30.826689"><ele>376.686475</ele><time>2025-01-05T11:41:50Z</time><extensions><speed>0.286824</speed><course>303.917183</course><hAcc>1.793840</hAcc><vAcc>0.888910</vAcc></extensions></trkpt>
      <trkpt lon="34.764963" lat="30.826690"><ele>377.155076</ele><time>2025-01-05T11:41:51Z</time><extensions><speed>0.292916</speed><course>312.291795</course><hAcc>1.801466</hAcc><vAcc>0.868999</vAcc></extensions></trkpt>
      <trkpt lon="34.764961" lat="30.826693"><ele>377.620553</ele><time>2025-01-05T11:41:52Z</time><extensions><speed>0.376670</speed><course>326.924485</course><hAcc>1.816357</hAcc><vAcc>0.852178</vAcc></extensions></trkpt>
      <trkpt lon="34.764959" lat="30.826697"><ele>378.076821</ele><time>2025-01-05T11:41:53Z</time><extensions><speed>0.597341</speed><course>337.466153</course><hAcc>1.847081</hAcc><vAcc>0.839589</vAcc></extensions></trkpt>
      <trkpt lon="34.764956" lat="30.826704"><ele>378.522163</ele><time>2025-01-05T11:41:54Z</time><extensions><speed>1.059188</speed><course>341.324852</course><hAcc>1.873697</hAcc><vAcc>0.832459</vAcc></extensions></trkpt>
      <trkpt lon="34.764951" lat="30.826716"><ele>378.955071</ele><time>2025-01-05T11:41:55Z</time><extensions><speed>1.685538</speed><course>340.926296</course><hAcc>1.905889</hAcc><vAcc>0.831552</vAcc></extensions></trkpt>
      <trkpt lon="34.764944" lat="30.826732"><ele>379.372766</ele><time>2025-01-05T11:41:56Z</time><extensions><speed>2.269412</speed><course>339.569483</course><hAcc>1.943698</hAcc><vAcc>0.837256</vAcc></extensions></trkpt>
      <trkpt lon="34.764934" lat="30.826753"><ele>379.771997</ele><time>2025-01-05T11:41:57Z</time><extensions><speed>2.684283</speed><course>337.747823</course><hAcc>1.978423</hAcc><vAcc>0.849905</vAcc></extensions></trkpt>
      <trkpt lon="34.764923" lat="30.826776"><ele>380.234145</ele><time>2025-01-05T11:41:58Z</time><extensions><speed>2.795514</speed><course>336.529431</course><hAcc>2.021018</hAcc><vAcc>0.869174</vAcc></extensions></trkpt>
      <trkpt lon="34.764912" lat="30.826799"><ele>380.693252</ele><time>2025-01-05T11:41:59Z</time><extensions><speed>2.520949</speed><course>334.267383</course><hAcc>2.076107</hAcc><vAcc>0.894982</vAcc></extensions></trkpt>
      <trkpt lon="34.764901" lat="30.826817"><ele>381.142567</ele><time>2025-01-05T11:42:00Z</time><extensions><speed>2.034122</speed><course>331.116151</course><hAcc>2.118891</hAcc><vAcc>0.927179</vAcc></extensions></trkpt>
      <trkpt lon="34.764893" lat="30.826832"><ele>381.602806</ele><time>2025-01-05T11:42:01Z</time><extensions><speed>1.554337</speed><course>336.192209</course><hAcc>2.143256</hAcc><vAcc>0.963559</vAcc></extensions></trkpt>
      <trkpt lon="34.764888" lat="30.826844"><ele>382.059507</ele><time>2025-01-05T11:42:02Z</time><extensions><speed>1.162267</speed><course>345.071847</course><hAcc>2.166374</hAcc><vAcc>1.002629</vAcc></extensions></trkpt>
      <trkpt lon="34.764886" lat="30.826853"><ele>382.510625</ele><time>2025-01-05T11:42:03Z</time><extensions><speed>0.946461</speed><course>351.916162</course><hAcc>2.201281</hAcc><vAcc>1.043003</vAcc></extensions></trkpt>
      <trkpt lon="34.764885" lat="30.826862"><ele>382.974815</ele><time>2025-01-05T11:42:04Z</time><extensions><speed>0.851887</speed><course>356.344838</course><hAcc>2.249809</hAcc><vAcc>1.084914</vAcc></extensions></trkpt>
      <trkpt lon="34.764884" lat="30.826870"><ele>383.442205</ele><time>2025-01-05T11:42:05Z</time><extensions><speed>0.850729</speed><course>358.435310</course><hAcc>2.307505</hAcc><vAcc>1.125825</vAcc></extensions></trkpt>
      <trkpt lon="34.764884" lat="30.826878"><ele>383.930056</ele><time>2025-01-05T11:42:06Z</time><extensions><speed>0.903972</speed><course>359.228802</course><hAcc>2.373967</hAcc><vAcc>1.164735</vAcc></extensions></trkpt>
      <trkpt lon="34.764884" lat="30.826887"><ele>384.418837</ele><time>2025-01-05T11:42:07Z</time><extensions><speed>0.957995</speed><course>358.886074</course><hAcc>2.443182</hAcc><vAcc>1.200256</vAcc></extensions></trkpt>
      <trkpt lon="34.764884" lat="30.826896"><ele>384.965358</ele><time>2025-01-05T11:42:08Z</time><extensions><speed>1.005296</speed><course>357.362930</course><hAcc>2.506431</hAcc><vAcc>1.229357</vAcc></extensions></trkpt>
      <trkpt lon="34.764884" lat="30.826905"><ele>385.537517</ele><time>2025-01-05T11:42:09Z</time><extensions><speed>0.924327</speed><course>359.541109</course><hAcc>2.573236</hAcc><vAcc>1.252407</vAcc></extensions></trkpt>
      <trkpt lon="34.764883" lat="30.826914"><ele>386.085626</ele><time>2025-01-05T11:42:10Z</time><extensions><speed>0.841149</speed><course>0.391425</course><hAcc>2.629301</hAcc><vAcc>1.279175</vAcc></extensions></trkpt>
      <trkpt lon="34.764883" lat="30.826920"><ele>386.620347</ele><time>2025-01-05T11:42:11Z</time><extensions><speed>0.717073</speed><course>2.501096</course><hAcc>2.673219</hAcc><vAcc>1.302644</vAcc></extensions></trkpt>
      <trkpt lon="34.764883" lat="30.826926"><ele>387.121050</ele><time>2025-01-05T11:42:12Z</time><extensions><speed>0.595576</speed><course>1.956213</course><hAcc>2.706998</hAcc><vAcc>1.325304</vAcc></extensions></trkpt>
      <trkpt lon="34.764883" lat="30.826931"><ele>387.615695</ele><time>2025-01-05T11:42:13Z</time><extensions><speed>0.485705</speed><course>358.643545</course><hAcc>2.735362</hAcc><vAcc>1.346820</vAcc></extensions></trkpt>
      <trkpt lon="34.764882" lat="30.826934"><ele>388.098941</ele><time>2025-01-05T11:42:14Z</time><extensions><speed>0.403057</speed><course>352.013111</course><hAcc>2.760152</hAcc><vAcc>1.367276</vAcc></extensions></trkpt>
      <trkpt lon="34.764881" lat="30.826937"><ele>388.594451</ele><time>2025-01-05T11:42:15Z</time><extensions><speed>0.309731</speed><course>342.891984</course><hAcc>2.775126</hAcc><vAcc>1.382015</vAcc></extensions></trkpt>
      <trkpt lon="34.764879" lat="30.826940"><ele>389.048051</ele><time>2025-01-05T11:42:16Z</time><extensions><speed>0.410779</speed><course>327.315307</course><hAcc>2.738044</hAcc><vAcc>1.393881</vAcc></extensions></trkpt>
      <trkpt lon="34.764876" lat="30.826943"><ele>389.478620</ele><time>2025-01-05T11:42:17Z</time><extensions><speed>0.568453</speed><course>313.405435</course><hAcc>2.709151</hAcc><vAcc>1.403988</vAcc></extensions></trkpt>
      <trkpt lon="34.764871" lat="30.826946"><ele>389.916304</ele><time>2025-01-05T11:42:18Z</time><extensions><speed>0.697759</speed><course>306.022487</course><hAcc>2.714694</hAcc><vAcc>1.415344</vAcc></extensions></trkpt>
      <trkpt lon="34.764864" lat="30.826949"><ele>390.349721</ele><time>2025-01-05T11:42:19Z</time><extensions><speed>0.733028</speed><course>300.846946</course><hAcc>2.754920</hAcc><vAcc>1.422040</vAcc></extensions></trkpt>
      <trkpt lon="34.764858" lat="30.826951"><ele>390.790373</ele><time>2025-01-05T11:42:20Z</time><extensions><speed>0.598867</speed><course>286.005285</course><hAcc>2.799003</hAcc><vAcc>1.430739</vAcc></extensions></trkpt>
      <trkpt lon="34.764852" lat="30.826951"><ele>391.193547</ele><time>2025-01-05T11:42:21Z</time><extensions><speed>0.598920</speed><course>265.677073</course><hAcc>2.791286</hAcc><vAcc>1.438070</vAcc></extensions></trkpt>
      <trkpt lon="34.764845" lat="30.826950"><ele>391.579028</ele><time>2025-01-05T11:42:22Z</time><extensions><speed>0.610643</speed><course>248.264676</course><hAcc>2.770648</hAcc><vAcc>1.444565</vAcc></extensions></trkpt>
      <trkpt lon="34.764840" lat="30.826947"><ele>392.011800</ele><time>2025-01-05T11:42:23Z</time><extensions><speed>0.662812</speed><course>238.038266</course><hAcc>2.741274</hAcc><vAcc>1.445177</vAcc></extensions></trkpt>
      <trkpt lon="34.764834" lat="30.826943"><ele>392.420409</ele><time>2025-01-05T11:42:24Z</time><extensions><speed>0.720287</speed><course>230.185986</course><hAcc>2.702159</hAcc><vAcc>1.450281</vAcc></extensions></trkpt>
      <trkpt lon="34.764828" lat="30.826938"><ele>392.799442</ele><time>2025-01-05T11:42:25Z</time><extensions><speed>0.802455</speed><course>227.515168</course><hAcc>2.652208</hAcc><vAcc>1.455075</vAcc></extensions></trkpt>
      <trkpt lon="34.764821" lat="30.826932"><ele>393.113194</ele><time>2025-01-05T11:42:26Z</time><extensions><speed>0.923762</speed><course>227.632203</course><hAcc>2.607988</hAcc><vAcc>1.459687</vAcc></extensions></trkpt>
      <trkpt lon="34.764814" lat="30.826926"><ele>393.436292</ele><time>2025-01-05T11:42:27Z</time><extensions><speed>1.089755</speed><course>226.813929</course><hAcc>2.589474</hAcc><vAcc>1.463101</vAcc></extensions></trkpt>
      <trkpt lon="34.764804" lat="30.826918"><ele>393.725076</ele><time>2025-01-05T11:42:28Z</time><extensions><speed>1.247983</speed><course>229.275591</course><hAcc>2.580252</hAcc><vAcc>1.468604</vAcc></extensions></trkpt>
      <trkpt lon="34.764794" lat="30.826910"><ele>393.996013</ele><time>2025-01-05T11:42:29Z</time><extensions><speed>1.366626</speed><course>228.187082</course><hAcc>2.548169</hAcc><vAcc>1.474409</vAcc></extensions></trkpt>
      <trkpt lon="34.764783" lat="30.826901"><ele>394.275489</ele><time>2025-01-05T11:42:30Z</time><extensions><speed>1.246708</speed><course>231.238141</course><hAcc>2.509696</hAcc><vAcc>1.483949</vAcc></extensions></trkpt>
      <trkpt lon="34.764773" lat="30.826895"><ele>394.551454</ele><time>2025-01-05T11:42:31Z</time><extensions><speed>1.147644</speed><course>234.990742</course><hAcc>2.493569</hAcc><vAcc>1.495392</vAcc></extensions></trkpt>
      <trkpt lon="34.764763" lat="30.826889"><ele>394.813542</ele><time>2025-01-05T11:42:32Z</time><extensions><speed>1.141293</speed><course>234.152723</course><hAcc>2.468030</hAcc><vAcc>1.508231</vAcc></extensions></trkpt>
      <trkpt lon="34.764754" lat="30.826883"><ele>395.071387</ele><time>2025-01-05T11:42:33Z</time><extensions><speed>1.021492</speed><course>228.647215</course><hAcc>2.451530</hAcc><vAcc>1.518429</vAcc></extensions></trkpt>
      <trkpt lon="34.764745" lat="30.826877"><ele>395.311602</ele><time>2025-01-05T11:42:34Z</time><extensions><speed>0.952321</speed><course>228.540052</course><hAcc>2.464471</hAcc><vAcc>1.526025</vAcc></extensions></trkpt>
      <trkpt lon="34.764738" lat="30.826871"><ele>395.533278</ele><time>2025-01-05T11:42:35Z</time><extensions><speed>0.911741</speed><course>229.226292</course><hAcc>2.459689</hAcc><vAcc>1.532337</vAcc></extensions></trkpt>
      <trkpt lon="34.764729" lat="30.826866"><ele>395.701835</ele><time>2025-01-05T11:42:36Z</time><extensions><speed>1.038754</speed><course>232.326206</course><hAcc>2.453453</hAcc><vAcc>1.543600</vAcc></extensions></trkpt>
      <trkpt lon="34.764719" lat="30.826859"><ele>395.852288</ele><time>2025-01-05T11:42:37Z</time><extensions><speed>1.275667</speed><course>234.556908</course><hAcc>2.455705</hAcc><vAcc>1.552225</vAcc></extensions></trkpt>
      <trkpt lon="34.764707" lat="30.826852"><ele>395.951160</ele><time>2025-01-05T11:42:38Z</time><extensions><speed>1.460744</speed><course>236.005245</course><hAcc>2.481947</hAcc><vAcc>1.561592</vAcc></extensions></trkpt>
      <trkpt lon="34.764693" lat="30.826844"><ele>396.040445</ele><time>2025-01-05T11:42:39Z</time><extensions><speed>1.562735</speed><course>236.449497</course><hAcc>2.501184</hAcc><vAcc>1.564541</vAcc></extensions></trkpt>
      <trkpt lon="34.764679" lat="30.826836"><ele>396.085474</ele><time>2025-01-05T11:42:40Z</time><extensions><speed>1.470744</speed><course>238.021820</course><hAcc>2.511472</hAcc><vAcc>1.560264</vAcc></extensions></trkpt>
      <trkpt lon="34.764664" lat="30.826829"><ele>396.070028</ele><time>2025-01-05T11:42:41Z</time><extensions><speed>1.496176</speed><course>243.091380</course><hAcc>2.514860</hAcc><vAcc>1.553175</vAcc></extensions></trkpt>
      <trkpt lon="34.764648" lat="30.826823"><ele>396.094484</ele><time>2025-01-05T11:42:42Z</time><extensions><speed>1.673802</speed><course>246.258281</course><hAcc>2.520308</hAcc><vAcc>1.550225</vAcc></extensions></trkpt>
      <trkpt lon="34.764631" lat="30.826817"><ele>396.110243</ele><time>2025-01-05T11:42:43Z</time><extensions><speed>1.773009</speed><course>248.962624</course><hAcc>2.525006</hAcc><vAcc>1.550120</vAcc></extensions></trkpt>
      <trkpt lon="34.764612" lat="30.826812"><ele>396.108147</ele><time>2025-01-05T11:42:44Z</time><extensions><speed>1.793105</speed><course>249.997264</course><hAcc>2.539669</hAcc><vAcc>1.549254</vAcc></extensions></trkpt>
      <trkpt lon="34.764593" lat="30.826806"><ele>396.075033</ele><time>2025-01-05T11:42:45Z</time><extensions><speed>1.843919</speed><course>245.746216</course><hAcc>2.563574</hAcc><vAcc>1.549069</vAcc></extensions></trkpt>
      <trkpt lon="34.764574" lat="30.826800"><ele>396.015472</ele><time>2025-01-05T11:42:46Z</time><extensions><speed>1.847868</speed><course>246.305544</course><hAcc>2.590854</hAcc><vAcc>1.549705</vAcc></extensions></trkpt>
      <trkpt lon="34.764555" lat="30.826794"><ele>395.967226</ele><time>2025-01-05T11:42:47Z</time><extensions><speed>1.903790</speed><course>246.958223</course><hAcc>2.617179</hAcc><vAcc>1.551051</vAcc></extensions></trkpt>
      <trkpt lon="34.764536" lat="30.826788"><ele>395.907262</ele><time>2025-01-05T11:42:48Z</time><extensions><speed>1.767964</speed><course>248.399292</course><hAcc>2.640383</hAcc><vAcc>1.554903</vAcc></extensions></trkpt>
      <trkpt lon="34.764518" lat="30.826782"><ele>395.869876</ele><time>2025-01-05T11:42:49Z</time><extensions><speed>1.821166</speed><course>251.355506</course><hAcc>2.635967</hAcc><vAcc>1.560713</vAcc></extensions></trkpt>
      <trkpt lon="34.764499" lat="30.826777"><ele>395.778704</ele><time>2025-01-05T11:42:50Z</time><extensions><speed>1.850958</speed><course>254.706755</course><hAcc>2.628396</hAcc><vAcc>1.567169</vAcc></extensions></trkpt>
      <trkpt lon="34.764479" lat="30.826773"><ele>395.699354</ele><time>2025-01-05T11:42:51Z</time><extensions><speed>1.873942</speed><course>254.799395</course><hAcc>2.651922</hAcc><vAcc>1.572319</vAcc></extensions></trkpt>
      <trkpt lon="34.764461" lat="30.826768"><ele>395.596935</ele><time>2025-01-05T11:42:52Z</time><extensions><speed>1.820198</speed><course>253.941767</course><hAcc>2.681339</hAcc><vAcc>1.578111</vAcc></extensions></trkpt>
      <trkpt lon="34.764444" lat="30.826763"><ele>395.508286</ele><time>2025-01-05T11:42:53Z</time><extensions><speed>1.721212</speed><course>252.179529</course><hAcc>2.705003</hAcc><vAcc>1.583839</vAcc></extensions></trkpt>
      <trkpt lon="34.764428" lat="30.826758"><ele>395.444984</ele><time>2025-01-05T11:42:54Z</time><extensions><speed>1.735227</speed><course>252.360422</course><hAcc>2.713882</hAcc><vAcc>1.594791</vAcc></extensions></trkpt>
      <trkpt lon="34.764411" lat="30.826753"><ele>395.391448</ele><time>2025-01-05T11:42:55Z</time><extensions><speed>1.759269</speed><course>252.326124</course><hAcc>2.727025</hAcc><vAcc>1.610525</vAcc></extensions></trkpt>
      <trkpt lon="34.764395" lat="30.826748"><ele>395.337988</ele><time>2025-01-05T11:42:56Z</time><extensions><speed>1.650192</speed><course>251.782825</course><hAcc>2.749332</hAcc><vAcc>1.625140</vAcc></extensions></trkpt>
      <trkpt lon="34.764380" lat="30.826743"><ele>395.276584</ele><time>2025-01-05T11:42:57Z</time><extensions><speed>1.445633</speed><course>246.269553</course><hAcc>2.783149</hAcc><vAcc>1.643217</vAcc></extensions></trkpt>
      <trkpt lon="34.764369" lat="30.826737"><ele>395.245000</ele><time>2025-01-05T11:42:58Z</time><extensions><speed>1.215901</speed><course>232.179644</course><hAcc>2.817520</hAcc><vAcc>1.662998</vAcc></extensions></trkpt>
      <trkpt lon="34.764361" lat="30.826731"><ele>395.200107</ele><time>2025-01-05T11:42:59Z</time><extensions><speed>1.043725</speed><course>223.311872</course><hAcc>2.825521</hAcc><vAcc>1.684750</vAcc></extensions></trkpt>
      <trkpt lon="34.764356" lat="30.826724"><ele>395.158753</ele><time>2025-01-05T11:43:00Z</time><extensions><speed>0.810801</speed><course>214.086259</course><hAcc>2.813152</hAcc><vAcc>1.708276</vAcc></extensions></trkpt>
      <trkpt lon="34.764352" lat="30.826718"><ele>395.091576</ele><time>2025-01-05T11:43:01Z</time><extensions><speed>0.679481</speed><course>202.004004</course><hAcc>2.805012</hAcc><vAcc>1.730787</vAcc></extensions></trkpt>
      <trkpt lon="34.764350" lat="30.826712"><ele>395.014924</ele><time>2025-01-05T11:43:02Z</time><extensions><speed>0.629354</speed><course>188.911548</course><hAcc>2.802644</hAcc><vAcc>1.750329</vAcc></extensions></trkpt>
      <trkpt lon="34.764349" lat="30.826706"><ele>394.947675</ele><time>2025-01-05T11:43:03Z</time><extensions><speed>0.650905</speed><course>188.646193</course><hAcc>2.816867</hAcc><vAcc>1.762712</vAcc></extensions></trkpt>
      <trkpt lon="34.764348" lat="30.826700"><ele>394.884848</ele><time>2025-01-05T11:43:04Z</time><extensions><speed>0.673941</speed><course>198.865881</course><hAcc>2.848102</hAcc><vAcc>1.776213</vAcc></extensions></trkpt>
      <trkpt lon="34.764344" lat="30.826694"><ele>394.825631</ele><time>2025-01-05T11:43:05Z</time><extensions><speed>0.705486</speed><course>217.960135</course><hAcc>2.871149</hAcc><vAcc>1.790377</vAcc></extensions></trkpt>
      <trkpt lon="34.764340" lat="30.826689"><ele>394.769934</ele><time>2025-01-05T11:43:06Z</time><extensions><speed>0.551796</speed><course>219.364720</course><hAcc>2.854046</hAcc><vAcc>1.806018</vAcc></extensions></trkpt>
      <trkpt lon="34.764338" lat="30.826686"><ele>394.716196</ele><time>2025-01-05T11:43:07Z</time><extensions><speed>0.351838</speed><course>208.821919</course><hAcc>2.842066</hAcc><vAcc>1.818960</vAcc></extensions></trkpt>
      <trkpt lon="34.764337" lat="30.826683"><ele>394.616440</ele><time>2025-01-05T11:43:08Z</time><extensions><speed>0.248430</speed><course>182.759243</course><hAcc>2.828825</hAcc><vAcc>1.824908</vAcc></extensions></trkpt>
      <trkpt lon="34.764337" lat="30.826680"><ele>394.516134</ele><time>2025-01-05T11:43:09Z</time><extensions><speed>0.230281</speed><course>168.066241</course><hAcc>2.831999</hAcc><vAcc>1.814468</vAcc></extensions></trkpt>
      <trkpt lon="34.764338" lat="30.826677"><ele>394.440372</ele><time>2025-01-05T11:43:10Z</time><extensions><speed>0.247725</speed><course>168.525157</course><hAcc>2.829959</hAcc><vAcc>1.810577</vAcc></extensions></trkpt>
      <trkpt lon="34.764339" lat="30.826674"><ele>394.356115</ele><time>2025-01-05T11:43:11Z</time><extensions><speed>0.307168</speed><course>173.564528</course><hAcc>2.808650</hAcc><vAcc>1.801653</vAcc></extensions></trkpt>
      <trkpt lon="34.764340" lat="30.826671"><ele>394.279931</ele><time>2025-01-05T11:43:12Z</time><extensions><speed>0.339092</speed><course>173.941118</course><hAcc>2.793209</hAcc><vAcc>1.798717</vAcc></extensions></trkpt>
      <trkpt lon="34.764341" lat="30.826667"><ele>394.242038</ele><time>2025-01-05T11:43:13Z</time><extensions><speed>0.345587</speed><course>168.785409</course><hAcc>2.792933</hAcc><vAcc>1.796278</vAcc></extensions></trkpt>
      <trkpt lon="34.764342" lat="30.826664"><ele>394.230212</ele><time>2025-01-05T11:43:14Z</time><extensions><speed>0.333359</speed><course>164.750074</course><hAcc>2.803264</hAcc><vAcc>1.792920</vAcc></extensions></trkpt>
      <trkpt lon="34.764343" lat="30.826661"><ele>394.229732</ele><time>2025-01-05T11:43:15Z</time><extensions><speed>0.333274</speed><course>161.233984</course><hAcc>2.809534</hAcc><vAcc>1.788013</vAcc></extensions></trkpt>
      <trkpt lon="34.764345" lat="30.826659"><ele>394.331821</ele><time>2025-01-05T11:43:16Z</time><extensions><speed>0.326750</speed><course>157.492377</course><hAcc>2.815008</hAcc><vAcc>1.776423</vAcc></extensions></trkpt>
      <trkpt lon="34.764346" lat="30.826657"><ele>394.437650</ele><time>2025-01-05T11:43:17Z</time><extensions><speed>0.312898</speed><course>154.496580</course><hAcc>2.812771</hAcc><vAcc>1.778492</vAcc></extensions></trkpt>
      <trkpt lon="34.764348" lat="30.826655"><ele>394.609072</ele><time>2025-01-05T11:43:18Z</time><extensions><speed>0.334748</speed><course>152.515587</course><hAcc>2.784227</hAcc><vAcc>1.777417</vAcc></extensions></trkpt>
      <trkpt lon="34.764349" lat="30.826652"><ele>394.775289</ele><time>2025-01-05T11:43:19Z</time><extensions><speed>0.299517</speed><course>151.940915</course><hAcc>2.763673</hAcc><vAcc>1.771740</vAcc></extensions></trkpt>
      <trkpt lon="34.764351" lat="30.826650"><ele>394.931517</ele><time>2025-01-05T11:43:20Z</time><extensions><speed>0.229147</speed><course>161.275025</course><hAcc>2.760808</hAcc><vAcc>1.769153</vAcc></extensions></trkpt>
      <trkpt lon="34.764351" lat="30.826649"><ele>395.111477</ele><time>2025-01-05T11:43:21Z</time><extensions><speed>0.169039</speed><course>162.372183</course><hAcc>2.757828</hAcc><vAcc>1.769085</vAcc></extensions></trkpt>
      <trkpt lon="34.764352" lat="30.826647"><ele>395.310064</ele><time>2025-01-05T11:43:22Z</time><extensions><speed>0.098149</speed><course>163.729541</course><hAcc>2.760306</hAcc><vAcc>1.775199</vAcc></extensions></trkpt>
      <trkpt lon="34.764352" lat="30.826647"><ele>395.527243</ele><time>2025-01-05T11:43:23Z</time><extensions><speed>0.096465</speed><course>236.044609</course><hAcc>2.757008</hAcc><vAcc>1.784100</vAcc></extensions></trkpt>
      <trkpt lon="34.764350" lat="30.826647"><ele>395.825093</ele><time>2025-01-05T11:43:24Z</time><extensions><speed>0.194065</speed><course>266.536123</course><hAcc>2.758037</hAcc><vAcc>1.793822</vAcc></extensions></trkpt>
      <trkpt lon="34.764348" lat="30.826648"><ele>396.159091</ele><time>2025-01-05T11:43:25Z</time><extensions><speed>0.257612</speed><course>285.880609</course><hAcc>2.763426</hAcc><vAcc>1.803851</vAcc></extensions></trkpt>
      <trkpt lon="34.764346" lat="30.826649"><ele>396.510088</ele><time>2025-01-05T11:43:26Z</time><extensions><speed>0.305279</speed><course>290.275714</course><hAcc>2.757487</hAcc><vAcc>1.817020</vAcc></extensions></trkpt>
      <trkpt lon="34.764342" lat="30.826649"><ele>396.930300</ele><time>2025-01-05T11:43:27Z</time><extensions><speed>0.371729</speed><course>273.678779</course><hAcc>2.769232</hAcc><vAcc>1.820771</vAcc></extensions></trkpt>
      <trkpt lon="34.764338" lat="30.826650"><ele>397.358702</ele><time>2025-01-05T11:43:28Z</time><extensions><speed>0.487391</speed><course>269.985144</course><hAcc>2.774431</hAcc><vAcc>1.830534</vAcc></extensions></trkpt>
      <trkpt lon="34.764334" lat="30.826649"><ele>397.824603</ele><time>2025-01-05T11:43:29Z</time><extensions><speed>0.511108</speed><course>261.533357</course><hAcc>2.770957</hAcc><vAcc>1.840450</vAcc></extensions></trkpt>
      <trkpt lon="34.764329" lat="30.826648"><ele>398.318841</ele><time>2025-01-05T11:43:30Z</time><extensions><speed>0.497053</speed><course>250.349228</course><hAcc>2.776659</hAcc><vAcc>1.846329</vAcc></extensions></trkpt>
      <trkpt lon="34.764325" lat="30.826646"><ele>398.846662</ele><time>2025-01-05T11:43:31Z</time><extensions><speed>0.423916</speed><course>238.536509</course><hAcc>2.785658</hAcc><vAcc>1.845109</vAcc></extensions></trkpt>
      <trkpt lon="34.764321" lat="30.826644"><ele>399.323045</ele><time>2025-01-05T11:43:32Z</time><extensions><speed>0.381095</speed><course>238.282225</course><hAcc>2.794935</hAcc><vAcc>1.852939</vAcc></extensions></trkpt>
      <trkpt lon="34.764318" lat="30.826642"><ele>399.824940</ele><time>2025-01-05T11:43:33Z</time><extensions><speed>0.377897</speed><course>248.574528</course><hAcc>2.820588</hAcc><vAcc>1.858988</vAcc></extensions></trkpt>
      <trkpt lon="34.764315" lat="30.826642"><ele>400.284780</ele><time>2025-01-05T11:43:34Z</time><extensions><speed>0.235121</speed><course>255.748124</course><hAcc>2.838967</hAcc><vAcc>1.865793</vAcc></extensions></trkpt>
      <trkpt lon="34.764313" lat="30.826641"><ele>400.698774</ele><time>2025-01-05T11:43:35Z</time><extensions><speed>0.124507</speed><course>232.763967</course><hAcc>2.840491</hAcc><vAcc>1.876312</vAcc></extensions></trkpt>
      <trkpt lon="34.764312" lat="30.826640"><ele>401.097274</ele><time>2025-01-05T11:43:36Z</time><extensions><speed>0.167717</speed><course>195.037351</course><hAcc>2.852256</hAcc><vAcc>1.883895</vAcc></extensions></trkpt>
      <trkpt lon="34.764311" lat="30.826638"><ele>401.490987</ele><time>2025-01-05T11:43:37Z</time><extensions><speed>0.353594</speed><course>195.085188</course><hAcc>2.861179</hAcc><vAcc>1.892167</vAcc></extensions></trkpt>
      <trkpt lon="34.764311" lat="30.826634"><ele>401.861420</ele><time>2025-01-05T11:43:38Z</time><extensions><speed>0.382495</speed><course>189.064017</course><hAcc>2.882709</hAcc><vAcc>1.900772</vAcc></extensions></trkpt>
      <trkpt lon="34.764310" lat="30.826631"><ele>402.232279</ele><time>2025-01-05T11:43:39Z</time><extensions><speed>0.450963</speed><course>188.210041</course><hAcc>2.906159</hAcc><vAcc>1.909178</vAcc></extensions></trkpt>
      <trkpt lon="34.764310" lat="30.826626"><ele>402.584816</ele><time>2025-01-05T11:43:40Z</time><extensions><speed>0.518223</speed><course>188.227181</course><hAcc>2.927334</hAcc><vAcc>1.917374</vAcc></extensions></trkpt>
      <trkpt lon="34.764309" lat="30.826622"><ele>402.918804</ele><time>2025-01-05T11:43:41Z</time><extensions><speed>0.481160</speed><course>191.031862</course><hAcc>2.940656</hAcc><vAcc>1.925441</vAcc></extensions></trkpt>
      <trkpt lon="34.764308" lat="30.826617"><ele>403.233239</ele><time>2025-01-05T11:43:42Z</time><extensions><speed>0.446355</speed><course>194.064165</course><hAcc>2.938367</hAcc><vAcc>1.933793</vAcc></extensions></trkpt>
      <trkpt lon="34.764307" lat="30.826614"><ele>403.528207</ele><time>2025-01-05T11:43:43Z</time><extensions><speed>0.394460</speed><course>196.425912</course><hAcc>2.927533</hAcc><vAcc>1.942543</vAcc></extensions></trkpt>
      <trkpt lon="34.764306" lat="30.826610"><ele>403.805402</ele><time>2025-01-05T11:43:44Z</time><extensions><speed>0.393478</speed><course>197.552828</course><hAcc>2.911264</hAcc><vAcc>1.949020</vAcc></extensions></trkpt>
      <trkpt lon="34.764305" lat="30.826606"><ele>404.097369</ele><time>2025-01-05T11:43:45Z</time><extensions><speed>0.414254</speed><course>195.530231</course><hAcc>2.891659</hAcc><vAcc>1.942708</vAcc></extensions></trkpt>
      <trkpt lon="34.764304" lat="30.826602"><ele>404.288496</ele><time>2025-01-05T11:43:46Z</time><extensions><speed>0.437153</speed><course>194.871614</course><hAcc>2.872090</hAcc><vAcc>1.941564</vAcc></extensions></trkpt>
      <trkpt lon="34.764303" lat="30.826599"><ele>404.495199</ele><time>2025-01-05T11:43:47Z</time><extensions><speed>0.324426</speed><course>189.418201</course><hAcc>2.851966</hAcc><vAcc>1.946130</vAcc></extensions></trkpt>
      <trkpt lon="34.764303" lat="30.826597"><ele>404.656379</ele><time>2025-01-05T11:43:48Z</time><extensions><speed>0.203169</speed><course>174.466984</course><hAcc>2.822715</hAcc><vAcc>1.944719</vAcc></extensions></trkpt>
      <trkpt lon="34.764304" lat="30.826596"><ele>404.819571</ele><time>2025-01-05T11:43:49Z</time><extensions><speed>0.135411</speed><course>153.344482</course><hAcc>2.796828</hAcc><vAcc>1.939314</vAcc></extensions></trkpt>
      <trkpt lon="34.764305" lat="30.826596"><ele>405.008445</ele><time>2025-01-05T11:43:50Z</time><extensions><speed>0.104728</speed><course>129.574521</course><hAcc>2.775768</hAcc><vAcc>1.936401</vAcc></extensions></trkpt>
      <trkpt lon="34.764306" lat="30.826597"><ele>405.217881</ele><time>2025-01-05T11:43:51Z</time><extensions><speed>0.094854</speed><course>104.415910</course><hAcc>2.760840</hAcc><vAcc>1.937340</vAcc></extensions></trkpt>
      <trkpt lon="34.764308" lat="30.826597"><ele>405.397970</ele><time>2025-01-05T11:43:52Z</time><extensions><speed>0.095405</speed><course>86.124770</course><hAcc>2.752798</hAcc><vAcc>1.936526</vAcc></extensions></trkpt>
      <trkpt lon="34.764309" lat="30.826598"><ele>405.584022</ele><time>2025-01-05T11:43:53Z</time><extensions><speed>0.093644</speed><course>73.544269</course><hAcc>2.744545</hAcc><vAcc>1.932582</vAcc></extensions></trkpt>
      <trkpt lon="34.764311" lat="30.826599"><ele>405.751418</ele><time>2025-01-05T11:43:54Z</time><extensions><speed>0.074345</speed><course>67.953327</course><hAcc>2.719120</hAcc><vAcc>1.927015</vAcc></extensions></trkpt>
      <trkpt lon="34.764311" lat="30.826599"><ele>405.855516</ele><time>2025-01-05T11:43:55Z</time><extensions><speed>0.000260</speed><course>276.713831</course><hAcc>2.675765</hAcc><vAcc>1.922124</vAcc></extensions></trkpt>
      <trkpt lon="34.764311" lat="30.826599"><ele>405.949131</ele><time>2025-01-05T11:43:56Z</time><extensions><speed>0.130065</speed><course>245.099279</course><hAcc>2.653352</hAcc><vAcc>1.908181</vAcc></extensions></trkpt>
      <trkpt lon="34.764310" lat="30.826598"><ele>406.037929</ele><time>2025-01-05T11:43:57Z</time><extensions><speed>0.165008</speed><course>271.011208</course><hAcc>2.648644</hAcc><vAcc>1.896273</vAcc></extensions></trkpt>
      <trkpt lon="34.764309" lat="30.826598"><ele>406.084511</ele><time>2025-01-05T11:43:58Z</time><extensions><speed>0.207460</speed><course>346.127800</course><hAcc>2.628946</hAcc><vAcc>1.882594</vAcc></extensions></trkpt>
      <trkpt lon="34.764309" lat="30.826601"><ele>406.127522</ele><time>2025-01-05T11:43:59Z</time><extensions><speed>0.344169</speed><course>14.110038</course><hAcc>2.592381</hAcc><vAcc>1.868943</vAcc></extensions></trkpt>
      <trkpt lon="34.764311" lat="30.826604"><ele>406.160872</ele><time>2025-01-05T11:44:00Z</time><extensions><speed>0.377750</speed><course>29.809427</course><hAcc>2.569596</hAcc><vAcc>1.851997</vAcc></extensions></trkpt>
      <trkpt lon="34.764313" lat="30.826607"><ele>406.197330</ele><time>2025-01-05T11:44:01Z</time><extensions><speed>0.372229</speed><course>37.940000</course><hAcc>2.547118</hAcc><vAcc>1.835610</vAcc></extensions></trkpt>
      <trkpt lon="34.764315" lat="30.826610"><ele>406.251682</ele><time>2025-01-05T11:44:02Z</time><extensions><speed>0.334710</speed><course>44.718597</course><hAcc>2.511551</hAcc><vAcc>1.813143</vAcc></extensions></trkpt>
      <trkpt lon="34.764317" lat="30.826612"><ele>406.282912</ele><time>2025-01-05T11:44:03Z</time><extensions><speed>0.269881</speed><course>51.363050</course><hAcc>2.472634</hAcc><vAcc>1.786769</vAcc></extensions></trkpt>
      <trkpt lon="34.764319" lat="30.826613"><ele>406.317591</ele><time>2025-01-05T11:44:04Z</time><extensions><speed>0.178999</speed><course>61.997772</course><hAcc>2.455019</hAcc><vAcc>1.738675</vAcc></extensions></trkpt>
      <trkpt lon="34.764320" lat="30.826614"><ele>406.344164</ele><time>2025-01-05T11:44:05Z</time><extensions><speed>0.084800</speed><course>88.180127</course><hAcc>2.459243</hAcc><vAcc>1.685087</vAcc></extensions></trkpt>
      <trkpt lon="34.764321" lat="30.826614"><ele>406.372684</ele><time>2025-01-05T11:44:06Z</time><extensions><speed>0.048893</speed><course>103.136794</course><hAcc>2.418757</hAcc><vAcc>1.648727</vAcc></extensions></trkpt>
      <trkpt lon="34.764321" lat="30.826614"><ele>406.397328</ele><time>2025-01-05T11:44:07Z</time><extensions><speed>0.019907</speed><course>11.432568</course><hAcc>2.377707</hAcc><vAcc>1.615981</vAcc></extensions></trkpt>
      <trkpt lon="34.764321" lat="30.826614"><ele>406.418169</ele><time>2025-01-05T11:44:08Z</time><extensions><speed>0.063756</speed><course>337.768581</course><hAcc>2.361395</hAcc><vAcc>1.581764</vAcc></extensions></trkpt>
      <trkpt lon="34.764321" lat="30.826615"><ele>406.435738</ele><time>2025-01-05T11:44:09Z</time><extensions><speed>0.081161</speed><course>339.336867</course><hAcc>2.362539</hAcc><vAcc>1.545389</vAcc></extensions></trkpt>
      <trkpt lon="34.764320" lat="30.826616"><ele>406.451053</ele><time>2025-01-05T11:44:10Z</time><extensions><speed>0.118033</speed><course>339.986326</course><hAcc>2.328523</hAcc><vAcc>1.511533</vAcc></extensions></trkpt>
      <trkpt lon="34.764320" lat="30.826617"><ele>406.490050</ele><time>2025-01-05T11:44:11Z</time><extensions><speed>0.131195</speed><course>341.025882</course><hAcc>2.313861</hAcc><vAcc>1.479857</vAcc></extensions></trkpt>
      <trkpt lon="34.764319" lat="30.826619"><ele>406.522363</ele><time>2025-01-05T11:44:12Z</time><extensions><speed>0.121535</speed><course>341.742267</course><hAcc>2.313965</hAcc><vAcc>1.454348</vAcc></extensions></trkpt>
      <trkpt lon="34.764319" lat="30.826620"><ele>406.551555</ele><time>2025-01-05T11:44:13Z</time><extensions><speed>0.173376</speed><course>341.294319</course><hAcc>2.266161</hAcc><vAcc>1.433859</vAcc></extensions></trkpt>
      <trkpt lon="34.764318" lat="30.826622"><ele>406.579145</ele><time>2025-01-05T11:44:14Z</time><extensions><speed>0.180367</speed><course>342.772833</course><hAcc>2.241085</hAcc><vAcc>1.417775</vAcc></extensions></trkpt>
      <trkpt lon="34.764318" lat="30.826623"><ele>406.577405</ele><time>2025-01-05T11:44:15Z</time><extensions><speed>0.186824</speed><course>339.309770</course><hAcc>2.230404</hAcc><vAcc>1.405297</vAcc></extensions></trkpt>
      <trkpt lon="34.764317" lat="30.826625"><ele>406.573637</ele><time>2025-01-05T11:44:16Z</time><extensions><speed>0.147386</speed><course>343.697928</course><hAcc>2.239046</hAcc><vAcc>1.396423</vAcc></extensions></trkpt>
      <trkpt lon="34.764317" lat="30.826626"><ele>406.564585</ele><time>2025-01-05T11:44:17Z</time><extensions><speed>0.129166</speed><course>345.699004</course><hAcc>2.239208</hAcc><vAcc>1.387948</vAcc></extensions></trkpt>
      <trkpt lon="34.764316" lat="30.826627"><ele>406.583036</ele><time>2025-01-05T11:44:18Z</time><extensions><speed>0.131500</speed><course>345.689387</course><hAcc>2.231998</hAcc><vAcc>1.375909</vAcc></extensions></trkpt>
      <trkpt lon="34.764316" lat="30.826628"><ele>406.607737</ele><time>2025-01-05T11:44:19Z</time><extensions><speed>0.143695</speed><course>345.819374</course><hAcc>2.223181</hAcc><vAcc>1.372483</vAcc></extensions></trkpt>
      <trkpt lon="34.764315" lat="30.826630"><ele>406.607390</ele><time>2025-01-05T11:44:21Z</time><extensions><speed>0.159042</speed><course>343.060368</course><hAcc>2.212514</hAcc><vAcc>1.371831</vAcc></extensions></trkpt>
      <trkpt lon="34.764315" lat="30.826631"><ele>406.596331</ele><time>2025-01-05T11:44:22Z</time><extensions><speed>0.185406</speed><course>339.398117</course><hAcc>2.194365</hAcc><vAcc>1.377548</vAcc></extensions></trkpt>
      <trkpt lon="34.764314" lat="30.826633"><ele>406.591435</ele><time>2025-01-05T11:44:23Z</time><extensions><speed>0.142973</speed><course>334.812419</course><hAcc>2.216292</hAcc><vAcc>1.385555</vAcc></extensions></trkpt>
      <trkpt lon="34.764313" lat="30.826633"><ele>406.609052</ele><time>2025-01-05T11:44:24Z</time><extensions><speed>0.103340</speed><course>325.544202</course><hAcc>2.240122</hAcc><vAcc>1.396299</vAcc></extensions></trkpt>
      <trkpt lon="34.764313" lat="30.826634"><ele>406.617256</ele><time>2025-01-05T11:44:25Z</time><extensions><speed>0.091738</speed><course>308.481254</course><hAcc>2.238205</hAcc><vAcc>1.406284</vAcc></extensions></trkpt>
      <trkpt lon="34.764312" lat="30.826635"><ele>406.628963</ele><time>2025-01-05T11:44:26Z</time><extensions><speed>0.135321</speed><course>301.118888</course><hAcc>2.207608</hAcc><vAcc>1.414609</vAcc></extensions></trkpt>
      <trkpt lon="34.764311" lat="30.826636"><ele>406.632562</ele><time>2025-01-05T11:44:27Z</time><extensions><speed>0.212055</speed><course>299.465897</course><hAcc>2.183746</hAcc><vAcc>1.419820</vAcc></extensions></trkpt>
      <trkpt lon="34.764308" lat="30.826637"><ele>406.643402</ele><time>2025-01-05T11:44:28Z</time><extensions><speed>0.338060</speed><course>295.492532</course><hAcc>2.166342</hAcc><vAcc>1.428293</vAcc></extensions></trkpt>
      <trkpt lon="34.764304" lat="30.826639"><ele>406.663246</ele><time>2025-01-05T11:44:29Z</time><extensions><speed>0.553793</speed><course>288.313174</course><hAcc>2.166816</hAcc><vAcc>1.431716</vAcc></extensions></trkpt>
      <trkpt lon="34.764297" lat="30.826640"><ele>406.661417</ele><time>2025-01-05T11:44:30Z</time><extensions><speed>0.810727</speed><course>276.749354</course><hAcc>2.207716</hAcc><vAcc>1.433640</vAcc></extensions></trkpt>
      <trkpt lon="34.764290" lat="30.826640"><ele>406.646039</ele><time>2025-01-05T11:44:31Z</time><extensions><speed>0.717618</speed><course>266.520178</course><hAcc>2.232304</hAcc><vAcc>1.434588</vAcc></extensions></trkpt>
      <trkpt lon="34.764284" lat="30.826640"><ele>406.627025</ele><time>2025-01-05T11:44:32Z</time><extensions><speed>0.361529</speed><course>259.239930</course><hAcc>2.221069</hAcc><vAcc>1.435859</vAcc></extensions></trkpt>
      <trkpt lon="34.764282" lat="30.826639"><ele>406.586323</ele><time>2025-01-05T11:44:33Z</time><extensions><speed>0.120788</speed><course>256.438721</course><hAcc>2.195012</hAcc><vAcc>1.436150</vAcc></extensions></trkpt>
      <trkpt lon="34.764281" lat="30.826639"><ele>406.589362</ele><time>2025-01-05T11:44:34Z</time><extensions><speed>0.043143</speed><course>39.778802</course><hAcc>2.192733</hAcc><vAcc>1.433849</vAcc></extensions></trkpt>
      <trkpt lon="34.764282" lat="30.826640"><ele>406.653540</ele><time>2025-01-05T11:44:35Z</time><extensions><speed>0.185655</speed><course>46.040975</course><hAcc>2.202401</hAcc><vAcc>1.430761</vAcc></extensions></trkpt>
      <trkpt lon="34.764284" lat="30.826642"><ele>406.676850</ele><time>2025-01-05T11:44:36Z</time><extensions><speed>0.256152</speed><course>42.045402</course><hAcc>2.207965</hAcc><vAcc>1.424491</vAcc></extensions></trkpt>
      <trkpt lon="34.764286" lat="30.826643"><ele>406.698098</ele><time>2025-01-05T11:44:37Z</time><extensions><speed>0.257984</speed><course>40.158704</course><hAcc>2.208934</hAcc><vAcc>1.421414</vAcc></extensions></trkpt>
      <trkpt lon="34.764288" lat="30.826645"><ele>406.669963</ele><time>2025-01-05T11:44:38Z</time><extensions><speed>0.197207</speed><course>41.386715</course><hAcc>2.201971</hAcc><vAcc>1.418074</vAcc></extensions></trkpt>
      <trkpt lon="34.764289" lat="30.826646"><ele>406.644163</ele><time>2025-01-05T11:44:39Z</time><extensions><speed>0.191453</speed><course>55.201232</course><hAcc>2.196672</hAcc><vAcc>1.417585</vAcc></extensions></trkpt>
      <trkpt lon="34.764291" lat="30.826646"><ele>406.583217</ele><time>2025-01-05T11:44:40Z</time><extensions><speed>0.150474</speed><course>71.074046</course><hAcc>2.189626</hAcc><vAcc>1.414857</vAcc></extensions></trkpt>
      <trkpt lon="34.764292" lat="30.826646"><ele>406.526240</ele><time>2025-01-05T11:44:41Z</time><extensions><speed>0.107480</speed><course>90.503270</course><hAcc>2.183678</hAcc><vAcc>1.415342</vAcc></extensions></trkpt>
      <trkpt lon="34.764293" lat="30.826646"><ele>406.469293</ele><time>2025-01-05T11:44:42Z</time><extensions><speed>0.079157</speed><course>127.523166</course><hAcc>2.182080</hAcc><vAcc>1.417705</vAcc></extensions></trkpt>
      <trkpt lon="34.764293" lat="30.826645"><ele>406.410107</ele><time>2025-01-05T11:44:43Z</time><extensions><speed>0.138583</speed><course>183.812466</course><hAcc>2.166101</hAcc><vAcc>1.420841</vAcc></extensions></trkpt>
      <trkpt lon="34.764294" lat="30.826643"><ele>406.316825</ele><time>2025-01-05T11:44:44Z</time><extensions><speed>0.215903</speed><course>174.732929</course><hAcc>2.163958</hAcc><vAcc>1.426053</vAcc></extensions></trkpt>
      <trkpt lon="34.764294" lat="30.826640"><ele>406.175041</ele><time>2025-01-05T11:44:45Z</time><extensions><speed>0.353853</speed><course>177.170824</course><hAcc>2.171246</hAcc><vAcc>1.432957</vAcc></extensions></trkpt>
      <trkpt lon="34.764294" lat="30.826636"><ele>406.023844</ele><time>2025-01-05T11:44:46Z</time><extensions><speed>0.473755</speed><course>175.304202</course><hAcc>2.187248</hAcc><vAcc>1.440117</vAcc></extensions></trkpt>
      <trkpt lon="34.764295" lat="30.826631"><ele>405.886218</ele><time>2025-01-05T11:44:47Z</time><extensions><speed>0.531634</speed><course>168.889915</course><hAcc>2.211411</hAcc><vAcc>1.447767</vAcc></extensions></trkpt>
      <trkpt lon="34.764296" lat="30.826626"><ele>405.754803</ele><time>2025-01-05T11:44:48Z</time><extensions><speed>0.563414</speed><course>168.757959</course><hAcc>2.231399</hAcc><vAcc>1.456865</vAcc></extensions></trkpt>
      <trkpt lon="34.764297" lat="30.826621"><ele>405.631631</ele><time>2025-01-05T11:44:49Z</time><extensions><speed>0.550152</speed><course>167.663374</course><hAcc>2.242673</hAcc><vAcc>1.465521</vAcc></extensions></trkpt>
      <trkpt lon="34.764299" lat="30.826617"><ele>405.521502</ele><time>2025-01-05T11:44:50Z</time><extensions><speed>0.545513</speed><course>169.139614</course><hAcc>2.238032</hAcc><vAcc>1.482219</vAcc></extensions></trkpt>
      <trkpt lon="34.764300" lat="30.826612"><ele>405.419375</ele><time>2025-01-05T11:44:51Z</time><extensions><speed>0.492928</speed><course>167.051200</course><hAcc>2.231627</hAcc><vAcc>1.497294</vAcc></extensions></trkpt>
      <trkpt lon="34.764301" lat="30.826608"><ele>405.328235</ele><time>2025-01-05T11:44:52Z</time><extensions><speed>0.440162</speed><course>166.165121</course><hAcc>2.221530</hAcc><vAcc>1.512363</vAcc></extensions></trkpt>
      <trkpt lon="34.764302" lat="30.826605"><ele>405.214532</ele><time>2025-01-05T11:44:53Z</time><extensions><speed>0.373179</speed><course>166.017881</course><hAcc>2.212751</hAcc><vAcc>1.524013</vAcc></extensions></trkpt>
      <trkpt lon="34.764303" lat="30.826602"><ele>405.133182</ele><time>2025-01-05T11:44:54Z</time><extensions><speed>0.273985</speed><course>166.931630</course><hAcc>2.213708</hAcc><vAcc>1.534551</vAcc></extensions></trkpt>
      <trkpt lon="34.764304" lat="30.826601"><ele>405.068002</ele><time>2025-01-05T11:44:55Z</time><extensions><speed>0.127296</speed><course>169.276047</course><hAcc>2.218515</hAcc><vAcc>1.546026</vAcc></extensions></trkpt>
      <trkpt lon="34.764304" lat="30.826600"><ele>404.971044</ele><time>2025-01-05T11:44:56Z</time><extensions><speed>0.048295</speed><course>261.416485</course><hAcc>2.188408</hAcc><vAcc>1.553736</vAcc></extensions></trkpt>
      <trkpt lon="34.764303" lat="30.826601"><ele>404.907022</ele><time>2025-01-05T11:44:57Z</time><extensions><speed>0.255535</speed><course>306.698350</course><hAcc>2.179714</hAcc><vAcc>1.561431</vAcc></extensions></trkpt>
      <trkpt lon="34.764300" lat="30.826603"><ele>404.854969</ele><time>2025-01-05T11:44:58Z</time><extensions><speed>0.543511</speed><course>314.233774</course><hAcc>2.211979</hAcc><vAcc>1.568209</vAcc></extensions></trkpt>
      <trkpt lon="34.764297" lat="30.826607"><ele>404.833468</ele><time>2025-01-05T11:44:59Z</time><extensions><speed>0.446570</speed><course>332.828570</course><hAcc>2.255539</hAcc><vAcc>1.573379</vAcc></extensions></trkpt>
      <trkpt lon="34.764296" lat="30.826609"><ele>404.837820</ele><time>2025-01-05T11:45:00Z</time><extensions><speed>0.194060</speed><course>1.617464</course><hAcc>2.306055</hAcc><vAcc>1.576386</vAcc></extensions></trkpt>
      <trkpt lon="34.764297" lat="30.826611"><ele>404.872044</ele><time>2025-01-05T11:45:01Z</time><extensions><speed>0.260901</speed><course>29.792943</course><hAcc>2.288771</hAcc><vAcc>1.575027</vAcc></extensions></trkpt>
      <trkpt lon="34.764299" lat="30.826614"><ele>404.936706</ele><time>2025-01-05T11:45:02Z</time><extensions><speed>0.345456</speed><course>36.171615</course><hAcc>2.288188</hAcc><vAcc>1.574740</vAcc></extensions></trkpt>
      <trkpt lon="34.764302" lat="30.826617"><ele>405.011021</ele><time>2025-01-05T11:45:03Z</time><extensions><speed>0.400328</speed><course>41.739916</course><hAcc>2.314063</hAcc><vAcc>1.573527</vAcc></extensions></trkpt>
      <trkpt lon="34.764305" lat="30.826620"><ele>405.144143</ele><time>2025-01-05T11:45:04Z</time><extensions><speed>0.413573</speed><course>51.140026</course><hAcc>2.351607</hAcc><vAcc>1.574617</vAcc></extensions></trkpt>
      <trkpt lon="34.764309" lat="30.826622"><ele>405.284765</ele><time>2025-01-05T11:45:05Z</time><extensions><speed>0.459995</speed><course>51.045571</course><hAcc>2.377520</hAcc><vAcc>1.576309</vAcc></extensions></trkpt>
      <trkpt lon="34.764313" lat="30.826626"><ele>405.405973</ele><time>2025-01-05T11:45:06Z</time><extensions><speed>0.552126</speed><course>44.725115</course><hAcc>2.386560</hAcc><vAcc>1.577355</vAcc></extensions></trkpt>
      <trkpt lon="34.764317" lat="30.826630"><ele>405.532550</ele><time>2025-01-05T11:45:07Z</time><extensions><speed>0.656174</speed><course>38.320487</course><hAcc>2.389572</hAcc><vAcc>1.578887</vAcc></extensions></trkpt>
      <trkpt lon="34.764322" lat="30.826636"><ele>405.664986</ele><time>2025-01-05T11:45:08Z</time><extensions><speed>0.726870</speed><course>35.843264</course><hAcc>2.388370</hAcc><vAcc>1.581266</vAcc></extensions></trkpt>
      <trkpt lon="34.764327" lat="30.826641"><ele>405.834097</ele><time>2025-01-05T11:45:09Z</time><extensions><speed>0.805667</speed><course>33.559373</course><hAcc>2.376187</hAcc><vAcc>1.583587</vAcc></extensions></trkpt>
      <trkpt lon="34.764331" lat="30.826648"><ele>406.005945</ele><time>2025-01-05T11:45:10Z</time><extensions><speed>0.922279</speed><course>29.564289</course><hAcc>2.354598</hAcc><vAcc>1.582958</vAcc></extensions></trkpt>
      <trkpt lon="34.764336" lat="30.826656"><ele>406.132016</ele><time>2025-01-05T11:45:11Z</time><extensions><speed>1.006149</speed><course>26.997859</course><hAcc>2.341209</hAcc><vAcc>1.584614</vAcc></extensions></trkpt>
      <trkpt lon="34.764341" lat="30.826664"><ele>406.247572</ele><time>2025-01-05T11:45:12Z</time><extensions><speed>0.991884</speed><course>27.050927</course><hAcc>2.353189</hAcc><vAcc>1.586906</vAcc></extensions></trkpt>
      <trkpt lon="34.764346" lat="30.826671"><ele>406.368081</ele><time>2025-01-05T11:45:13Z</time><extensions><speed>0.867862</speed><course>31.606633</course><hAcc>2.371180</hAcc><vAcc>1.587619</vAcc></extensions></trkpt>
      <trkpt lon="34.764350" lat="30.826677"><ele>406.460586</ele><time>2025-01-05T11:45:14Z</time><extensions><speed>0.785963</speed><course>30.129728</course><hAcc>2.359049</hAcc><vAcc>1.590285</vAcc></extensions></trkpt>
      <trkpt lon="34.764354" lat="30.826683"><ele>406.516042</ele><time>2025-01-05T11:45:15Z</time><extensions><speed>0.673678</speed><course>30.721466</course><hAcc>2.334704</hAcc><vAcc>1.594100</vAcc></extensions></trkpt>
      <trkpt lon="34.764358" lat="30.826687"><ele>406.561145</ele><time>2025-01-05T11:45:16Z</time><extensions><speed>0.548863</speed><course>32.599818</course><hAcc>2.328394</hAcc><vAcc>1.598816</vAcc></extensions></trkpt>
      <trkpt lon="34.764360" lat="30.826691"><ele>406.613523</ele><time>2025-01-05T11:45:17Z</time><extensions><speed>0.435192</speed><course>36.766244</course><hAcc>2.336026</hAcc><vAcc>1.607218</vAcc></extensions></trkpt>
      <trkpt lon="34.764363" lat="30.826693"><ele>406.632453</ele><time>2025-01-05T11:45:18Z</time><extensions><speed>0.309032</speed><course>45.246812</course><hAcc>2.346141</hAcc><vAcc>1.613113</vAcc></extensions></trkpt>
      <trkpt lon="34.764365" lat="30.826695"><ele>406.694493</ele><time>2025-01-05T11:45:19Z</time><extensions><speed>0.239440</speed><course>54.851783</course><hAcc>2.354519</hAcc><vAcc>1.654926</vAcc></extensions></trkpt>
      <trkpt lon="34.764367" lat="30.826695"><ele>406.750929</ele><time>2025-01-05T11:45:20Z</time><extensions><speed>0.137581</speed><course>80.721575</course><hAcc>2.368762</hAcc><vAcc>1.705322</vAcc></extensions></trkpt>
      <trkpt lon="34.764368" lat="30.826695"><ele>406.802029</ele><time>2025-01-05T11:45:21Z</time><extensions><speed>0.096133</speed><course>124.789352</course><hAcc>2.387746</hAcc><vAcc>1.765615</vAcc></extensions></trkpt>
      <trkpt lon="34.764368" lat="30.826695"><ele>406.848310</ele><time>2025-01-05T11:45:22Z</time><extensions><speed>0.089549</speed><course>152.341182</course><hAcc>2.412356</hAcc><vAcc>1.837173</vAcc></extensions></trkpt>
      <trkpt lon="34.764369" lat="30.826694"><ele>406.890431</ele><time>2025-01-05T11:45:23Z</time><extensions><speed>0.109334</speed><course>179.234271</course><hAcc>2.458151</hAcc><vAcc>1.921376</vAcc></extensions></trkpt>
      <trkpt lon="34.764368" lat="30.826693"><ele>406.929128</ele><time>2025-01-05T11:45:24Z</time><extensions><speed>0.149501</speed><course>193.770515</course><hAcc>2.539241</hAcc><vAcc>2.019590</vAcc></extensions></trkpt>
      <trkpt lon="34.764368" lat="30.826691"><ele>406.965204</ele><time>2025-01-05T11:45:25Z</time><extensions><speed>0.161250</speed><course>198.042214</course><hAcc>2.660009</hAcc><vAcc>2.133124</vAcc></extensions></trkpt>
      <trkpt lon="34.764367" lat="30.826690"><ele>406.999445</ele><time>2025-01-05T11:45:26Z</time><extensions><speed>0.128751</speed><course>197.737506</course><hAcc>2.839312</hAcc><vAcc>2.263215</vAcc></extensions></trkpt>
      <trkpt lon="34.764367" lat="30.826689"><ele>407.032534</ele><time>2025-01-05T11:45:27Z</time><extensions><speed>0.074926</speed><course>195.083431</course><hAcc>3.116248</hAcc><vAcc>2.411022</vAcc></extensions></trkpt>
      <trkpt lon="34.764367" lat="30.826689"><ele>407.065026</ele><time>2025-01-05T11:45:28Z</time><extensions><speed>0.053634</speed><course>194.948437</course><hAcc>3.565552</hAcc><vAcc>2.577631</vAcc></extensions></trkpt>
    </trkseg>
  </trk>
</gpx>