<?xml version="1.0" encoding="UTF-8"?>
<gpx version="1.1" creator="Apple Health Export" xmlns="http://www.topografix.com/GPX/1/1" xmlns:xsi="http://www.w3.org/2001/XMLSchema-instance" xsi:schemaLocation="http://www.topografix.com/GPX/1/1 http://www.topografix.com/GPX/1/1/gpx.xsd">
  <metadata>
    <time>2026-06-04T15:24:53Z</time>
  </metadata>
  <trk>
    <name>Route 2022-11-12 8:19pm</name>
    <trkseg>
      <trkpt lon="35.009312" lat="31.898435"><ele>231.074843</ele><time>2022-11-12T18:12:56Z</time><extensions><speed>0.007380</speed><course>57.339294</course><hAcc>2.048354</hAcc><vAcc>1.230479</vAcc></extensions></trkpt>
      <trkpt lon="35.009308" lat="31.898433"><ele>231.059665</ele><time>2022-11-12T18:12:57Z</time><extensions><speed>0.022038</speed><course>57.777344</course><hAcc>1.934426</hAcc><vAcc>1.057406</vAcc></extensions></trkpt>
      <trkpt lon="35.009305" lat="31.898431"><ele>231.038104</ele><time>2022-11-12T18:12:58Z</time><extensions><speed>0.021724</speed><course>239.849367</course><hAcc>1.845490</hAcc><vAcc>0.925827</vAcc></extensions></trkpt>
      <trkpt lon="35.009302" lat="31.898429"><ele>231.006033</ele><time>2022-11-12T18:12:59Z</time><extensions><speed>0.065288</speed><course>239.797530</course><hAcc>1.774470</hAcc><vAcc>0.829664</vAcc></extensions></trkpt>
      <trkpt lon="35.009299" lat="31.898427"><ele>230.968496</ele><time>2022-11-12T18:13:00Z</time><extensions><speed>0.119792</speed><course>238.662344</course><hAcc>1.711054</hAcc><vAcc>0.762720</vAcc></extensions></trkpt>
      <trkpt lon="35.009295" lat="31.898424"><ele>230.929705</ele><time>2022-11-12T18:13:01Z</time><extensions><speed>0.181294</speed><course>237.818723</course><hAcc>1.652483</hAcc><vAcc>0.718637</vAcc></extensions></trkpt>
      <trkpt lon="35.009291" lat="31.898421"><ele>230.892171</ele><time>2022-11-12T18:13:02Z</time><extensions><speed>0.154240</speed><course>239.254112</course><hAcc>1.609191</hAcc><vAcc>0.691295</vAcc></extensions></trkpt>
      <trkpt lon="35.009288" lat="31.898417"><ele>230.861985</ele><time>2022-11-12T18:13:03Z</time><extensions><speed>0.268670</speed><course>234.395182</course><hAcc>1.567016</hAcc><vAcc>0.675356</vAcc></extensions></trkpt>
      <trkpt lon="35.009283" lat="31.898414"><ele>230.837684</ele><time>2022-11-12T18:13:04Z</time><extensions><speed>0.286066</speed><course>232.639311</course><hAcc>1.537182</hAcc><vAcc>0.666617</vAcc></extensions></trkpt>
      <trkpt lon="35.009279" lat="31.898410"><ele>230.818457</ele><time>2022-11-12T18:13:05Z</time><extensions><speed>0.258515</speed><course>227.187000</course><hAcc>1.520894</hAcc><vAcc>0.662063</vAcc></extensions></trkpt>
      <trkpt lon="35.009276" lat="31.898407"><ele>230.804486</ele><time>2022-11-12T18:13:06Z</time><extensions><speed>0.248154</speed><course>218.858484</course><hAcc>1.501472</hAcc><vAcc>0.659712</vAcc></extensions></trkpt>
      <trkpt lon="35.009273" lat="31.898403"><ele>230.796596</ele><time>2022-11-12T18:13:07Z</time><extensions><speed>0.361074</speed><course>216.731780</course><hAcc>1.481908</hAcc><vAcc>0.658364</vAcc></extensions></trkpt>
      <trkpt lon="35.009270" lat="31.898399"><ele>230.795266</ele><time>2022-11-12T18:13:08Z</time><extensions><speed>0.332574</speed><course>202.900716</course><hAcc>1.476722</hAcc><vAcc>0.657364</vAcc></extensions></trkpt>
      <trkpt lon="35.009266" lat="31.898395"><ele>230.800642</ele><time>2022-11-12T18:13:09Z</time><extensions><speed>0.507580</speed><course>216.997512</course><hAcc>1.459926</hAcc><vAcc>0.656404</vAcc></extensions></trkpt>
      <trkpt lon="35.009262" lat="31.898389"><ele>230.812664</ele><time>2022-11-12T18:13:10Z</time><extensions><speed>0.602067</speed><course>213.175607</course><hAcc>1.453761</hAcc><vAcc>0.655379</vAcc></extensions></trkpt>
      <trkpt lon="35.009259" lat="31.898383"><ele>230.830691</ele><time>2022-11-12T18:13:11Z</time><extensions><speed>0.634469</speed><course>192.657606</course><hAcc>1.464907</hAcc><vAcc>0.654294</vAcc></extensions></trkpt>
      <trkpt lon="35.009257" lat="31.898377"><ele>230.853609</ele><time>2022-11-12T18:13:12Z</time><extensions><speed>0.709079</speed><course>192.258776</course><hAcc>1.463779</hAcc><vAcc>0.653195</vAcc></extensions></trkpt>
      <trkpt lon="35.009254" lat="31.898371"><ele>230.879920</ele><time>2022-11-12T18:13:13Z</time><extensions><speed>0.575808</speed><course>208.769226</course><hAcc>1.456671</hAcc><vAcc>0.652139</vAcc></extensions></trkpt>
      <trkpt lon="35.009251" lat="31.898365"><ele>230.907995</ele><time>2022-11-12T18:13:14Z</time><extensions><speed>0.697603</speed><course>204.729966</course><hAcc>1.464756</hAcc><vAcc>0.651173</vAcc></extensions></trkpt>
      <trkpt lon="35.009247" lat="31.898360"><ele>230.936029</ele><time>2022-11-12T18:13:15Z</time><extensions><speed>0.487912</speed><course>211.941796</course><hAcc>1.468172</hAcc><vAcc>0.650330</vAcc></extensions></trkpt>
      <trkpt lon="35.009244" lat="31.898356"><ele>230.963145</ele><time>2022-11-12T18:13:16Z</time><extensions><speed>0.389008</speed><course>213.438915</course><hAcc>1.479906</hAcc><vAcc>0.649622</vAcc></extensions></trkpt>
      <trkpt lon="35.009242" lat="31.898352"><ele>230.988033</ele><time>2022-11-12T18:13:17Z</time><extensions><speed>0.384922</speed><course>213.665701</course><hAcc>1.486675</hAcc><vAcc>0.649049</vAcc></extensions></trkpt>
      <trkpt lon="35.009239" lat="31.898349"><ele>231.011428</ele><time>2022-11-12T18:13:18Z</time><extensions><speed>0.350342</speed><course>214.457649</course><hAcc>1.498272</hAcc><vAcc>0.648603</vAcc></extensions></trkpt>
      <trkpt lon="35.009233" lat="31.898346"><ele>231.031964</ele><time>2022-11-12T18:13:19Z</time><extensions><speed>0.340836</speed><course>220.072022</course><hAcc>1.503532</hAcc><vAcc>0.648828</vAcc></extensions></trkpt>
      <trkpt lon="35.009229" lat="31.898343"><ele>231.050175</ele><time>2022-11-12T18:13:20Z</time><extensions><speed>0.393035</speed><course>224.451318</course><hAcc>1.503305</hAcc><vAcc>0.649884</vAcc></extensions></trkpt>
      <trkpt lon="35.009225" lat="31.898341"><ele>231.063829</ele><time>2022-11-12T18:13:21Z</time><extensions><speed>0.391139</speed><course>228.487043</course><hAcc>1.511848</hAcc><vAcc>0.652079</vAcc></extensions></trkpt>
      <trkpt lon="35.009221" lat="31.898338"><ele>231.069806</ele><time>2022-11-12T18:13:22Z</time><extensions><speed>0.402558</speed><course>232.468436</course><hAcc>1.520307</hAcc><vAcc>0.655706</vAcc></extensions></trkpt>
      <trkpt lon="35.009217" lat="31.898336"><ele>231.065597</ele><time>2022-11-12T18:13:23Z</time><extensions><speed>0.381809</speed><course>236.412518</course><hAcc>1.534283</hAcc><vAcc>0.661096</vAcc></extensions></trkpt>
      <trkpt lon="35.009214" lat="31.898334"><ele>231.056067</ele><time>2022-11-12T18:13:24Z</time><extensions><speed>0.370343</speed><course>240.579315</course><hAcc>1.549731</hAcc><vAcc>0.668438</vAcc></extensions></trkpt>
      <trkpt lon="35.009211" lat="31.898333"><ele>231.050508</ele><time>2022-11-12T18:13:25Z</time><extensions><speed>0.344724</speed><course>245.629586</course><hAcc>1.570635</hAcc><vAcc>0.677844</vAcc></extensions></trkpt>
      <trkpt lon="35.009207" lat="31.898332"><ele>231.047764</ele><time>2022-11-12T18:13:26Z</time><extensions><speed>0.395941</speed><course>253.357692</course><hAcc>1.592843</hAcc><vAcc>0.689287</vAcc></extensions></trkpt>
      <trkpt lon="35.009202" lat="31.898331"><ele>231.052453</ele><time>2022-11-12T18:13:27Z</time><extensions><speed>0.597446</speed><course>266.454940</course><hAcc>1.627601</hAcc><vAcc>0.702552</vAcc></extensions></trkpt>
      <trkpt lon="35.009196" lat="31.898332"><ele>231.052863</ele><time>2022-11-12T18:13:28Z</time><extensions><speed>0.580494</speed><course>293.513282</course><hAcc>1.638571</hAcc><vAcc>0.717195</vAcc></extensions></trkpt>
      <trkpt lon="35.009188" lat="31.898333"><ele>231.057025</ele><time>2022-11-12T18:13:29Z</time><extensions><speed>0.938935</speed><course>275.524734</course><hAcc>1.570708</hAcc><vAcc>0.732474</vAcc></extensions></trkpt>
      <trkpt lon="35.009179" lat="31.898334"><ele>231.065602</ele><time>2022-11-12T18:13:30Z</time><extensions><speed>0.796641</speed><course>270.792799</course><hAcc>1.594034</hAcc><vAcc>0.747524</vAcc></extensions></trkpt>
      <trkpt lon="35.009171" lat="31.898334"><ele>231.075324</ele><time>2022-11-12T18:13:31Z</time><extensions><speed>0.562397</speed><course>278.059807</course><hAcc>1.653741</hAcc><vAcc>0.761610</vAcc></extensions></trkpt>
      <trkpt lon="35.009167" lat="31.898336"><ele>231.087096</ele><time>2022-11-12T18:13:32Z</time><extensions><speed>0.397674</speed><course>306.460115</course><hAcc>1.697924</hAcc><vAcc>0.774306</vAcc></extensions></trkpt>
      <trkpt lon="35.009165" lat="31.898339"><ele>231.105358</ele><time>2022-11-12T18:13:33Z</time><extensions><speed>0.499651</speed><course>351.541774</course><hAcc>1.725946</hAcc><vAcc>0.785369</vAcc></extensions></trkpt>
      <trkpt lon="35.009164" lat="31.898344"><ele>231.129321</ele><time>2022-11-12T18:13:34Z</time><extensions><speed>0.596638</speed><course>358.697346</course><hAcc>1.721768</hAcc><vAcc>0.794756</vAcc></extensions></trkpt>
      <trkpt lon="35.009164" lat="31.898350"><ele>231.156808</ele><time>2022-11-12T18:13:35Z</time><extensions><speed>0.736302</speed><course>0.330125</course><hAcc>1.715225</hAcc><vAcc>0.802498</vAcc></extensions></trkpt>
      <trkpt lon="35.009165" lat="31.898357"><ele>231.185918</ele><time>2022-11-12T18:13:36Z</time><extensions><speed>0.880467</speed><course>3.475354</course><hAcc>1.717773</hAcc><vAcc>0.808724</vAcc></extensions></trkpt>
      <trkpt lon="35.009166" lat="31.898365"><ele>231.220121</ele><time>2022-11-12T18:13:37Z</time><extensions><speed>0.978162</speed><course>7.888246</course><hAcc>1.720216</hAcc><vAcc>0.813596</vAcc></extensions></trkpt>
      <trkpt lon="35.009167" lat="31.898374"><ele>231.258506</ele><time>2022-11-12T18:13:38Z</time><extensions><speed>0.936861</speed><course>13.187881</course><hAcc>1.725744</hAcc><vAcc>0.817319</vAcc></extensions></trkpt>
      <trkpt lon="35.009169" lat="31.898380"><ele>231.292201</ele><time>2022-11-12T18:13:39Z</time><extensions><speed>0.534251</speed><course>14.098089</course><hAcc>1.725928</hAcc><vAcc>0.820097</vAcc></extensions></trkpt>
      <trkpt lon="35.009170" lat="31.898383"><ele>231.337590</ele><time>2022-11-12T18:13:40Z</time><extensions><speed>0.186505</speed><course>357.427458</course><hAcc>1.723875</hAcc><vAcc>0.822106</vAcc></extensions></trkpt>
      <trkpt lon="35.009170" lat="31.898384"><ele>231.389395</ele><time>2022-11-12T18:13:41Z</time><extensions><speed>0.053376</speed><course>318.232734</course><hAcc>1.727278</hAcc><vAcc>0.823523</vAcc></extensions></trkpt>
      <trkpt lon="35.009169" lat="31.898384"><ele>231.442275</ele><time>2022-11-12T18:13:42Z</time><extensions><speed>0.040527</speed><course>193.375049</course><hAcc>1.736354</hAcc><vAcc>0.824477</vAcc></extensions></trkpt>
      <trkpt lon="35.009170" lat="31.898384"><ele>231.487963</ele><time>2022-11-12T18:13:43Z</time><extensions><speed>0.106849</speed><course>162.830456</course><hAcc>1.742559</hAcc><vAcc>0.825105</vAcc></extensions></trkpt>
      <trkpt lon="35.009170" lat="31.898383"><ele>231.531652</ele><time>2022-11-12T18:13:44Z</time><extensions><speed>0.169767</speed><course>157.178758</course><hAcc>1.745769</hAcc><vAcc>0.825499</vAcc></extensions></trkpt>
      <trkpt lon="35.009171" lat="31.898381"><ele>231.571548</ele><time>2022-11-12T18:13:45Z</time><extensions><speed>0.205454</speed><course>160.699321</course><hAcc>1.746518</hAcc><vAcc>0.825724</vAcc></extensions></trkpt>
      <trkpt lon="35.009171" lat="31.898379"><ele>231.597772</ele><time>2022-11-12T18:13:46Z</time><extensions><speed>0.205125</speed><course>176.600720</course><hAcc>1.742910</hAcc><vAcc>0.825837</vAcc></extensions></trkpt>
      <trkpt lon="35.009170" lat="31.898378"><ele>231.622500</ele><time>2022-11-12T18:13:48Z</time><extensions><speed>0.218817</speed><course>212.599888</course><hAcc>1.737829</hAcc><vAcc>0.825865</vAcc></extensions></trkpt>
      <trkpt lon="35.009168" lat="31.898376"><ele>231.657645</ele><time>2022-11-12T18:13:49Z</time><extensions><speed>0.346244</speed><course>247.391283</course><hAcc>1.736182</hAcc><vAcc>0.825841</vAcc></extensions></trkpt>
      <trkpt lon="35.009165" lat="31.898375"><ele>231.692389</ele><time>2022-11-12T18:13:50Z</time><extensions><speed>0.358606</speed><course>264.353114</course><hAcc>1.740929</hAcc><vAcc>0.825780</vAcc></extensions></trkpt>
      <trkpt lon="35.009161" lat="31.898375"><ele>231.735603</ele><time>2022-11-12T18:13:51Z</time><extensions><speed>0.231685</speed><course>263.478214</course><hAcc>1.740414</hAcc><vAcc>0.825701</vAcc></extensions></trkpt>
      <trkpt lon="35.009159" lat="31.898375"><ele>231.772145</ele><time>2022-11-12T18:13:52Z</time><extensions><speed>0.236437</speed><course>285.009764</course><hAcc>1.736389</hAcc><vAcc>0.825627</vAcc></extensions></trkpt>
      <trkpt lon="35.009156" lat="31.898377"><ele>231.818299</ele><time>2022-11-12T18:13:53Z</time><extensions><speed>0.363128</speed><course>306.273904</course><hAcc>1.723566</hAcc><vAcc>0.825575</vAcc></extensions></trkpt>
      <trkpt lon="35.009153" lat="31.898380"><ele>231.858439</ele><time>2022-11-12T18:13:54Z</time><extensions><speed>0.559670</speed><course>319.683880</course><hAcc>1.718783</hAcc><vAcc>0.825537</vAcc></extensions></trkpt>
      <trkpt lon="35.009149" lat="31.898385"><ele>231.881282</ele><time>2022-11-12T18:13:55Z</time><extensions><speed>0.874959</speed><course>327.822799</course><hAcc>1.721106</hAcc><vAcc>0.825515</vAcc></extensions></trkpt>
      <trkpt lon="35.009143" lat="31.898393"><ele>231.892542</ele><time>2022-11-12T18:13:56Z</time><extensions><speed>1.191005</speed><course>330.929545</course><hAcc>1.725389</hAcc><vAcc>0.825513</vAcc></extensions></trkpt>
      <trkpt lon="35.009137" lat="31.898404"><ele>231.912196</ele><time>2022-11-12T18:13:57Z</time><extensions><speed>1.513516</speed><course>334.165521</course><hAcc>1.723033</hAcc><vAcc>0.825523</vAcc></extensions></trkpt>
      <trkpt lon="35.009129" lat="31.898417"><ele>231.931910</ele><time>2022-11-12T18:13:58Z</time><extensions><speed>1.690780</speed><course>335.842613</course><hAcc>1.717715</hAcc><vAcc>0.825586</vAcc></extensions></trkpt>
      <trkpt lon="35.009122" lat="31.898431"><ele>231.950469</ele><time>2022-11-12T18:13:59Z</time><extensions><speed>1.712949</speed><course>336.907899</course><hAcc>1.713493</hAcc><vAcc>0.825659</vAcc></extensions></trkpt>
      <trkpt lon="35.009115" lat="31.898445"><ele>231.966850</ele><time>2022-11-12T18:14:00Z</time><extensions><speed>1.600229</speed><course>337.098938</course><hAcc>1.710397</hAcc><vAcc>0.825732</vAcc></extensions></trkpt>
      <trkpt lon="35.009109" lat="31.898457"><ele>231.984296</ele><time>2022-11-12T18:14:01Z</time><extensions><speed>1.388292</speed><course>337.134357</course><hAcc>1.706637</hAcc><vAcc>0.825830</vAcc></extensions></trkpt>
      <trkpt lon="35.009104" lat="31.898468"><ele>231.987375</ele><time>2022-11-12T18:14:02Z</time><extensions><speed>1.255524</speed><course>338.502743</course><hAcc>1.700529</hAcc><vAcc>0.825927</vAcc></extensions></trkpt>
      <trkpt lon="35.009099" lat="31.898478"><ele>231.975829</ele><time>2022-11-12T18:14:03Z</time><extensions><speed>1.246986</speed><course>336.935895</course><hAcc>1.690393</hAcc><vAcc>0.826047</vAcc></extensions></trkpt>
      <trkpt lon="35.009094" lat="31.898488"><ele>231.963173</ele><time>2022-11-12T18:14:04Z</time><extensions><speed>1.275268</speed><course>332.217121</course><hAcc>1.673813</hAcc><vAcc>0.826179</vAcc></extensions></trkpt>
      <trkpt lon="35.009087" lat="31.898498"><ele>231.976530</ele><time>2022-11-12T18:14:05Z</time><extensions><speed>1.322406</speed><course>326.565084</course><hAcc>1.646762</hAcc><vAcc>0.826303</vAcc></extensions></trkpt>
      <trkpt lon="35.009078" lat="31.898508"><ele>231.987127</ele><time>2022-11-12T18:14:06Z</time><extensions><speed>1.367895</speed><course>323.901199</course><hAcc>1.618380</hAcc><vAcc>0.826447</vAcc></extensions></trkpt>
      <trkpt lon="35.009070" lat="31.898518"><ele>232.006915</ele><time>2022-11-12T18:14:07Z</time><extensions><speed>1.404884</speed><course>322.906513</course><hAcc>1.619897</hAcc><vAcc>0.826576</vAcc></extensions></trkpt>
      <trkpt lon="35.009060" lat="31.898528"><ele>232.021933</ele><time>2022-11-12T18:14:08Z</time><extensions><speed>1.377463</speed><course>320.677223</course><hAcc>1.656425</hAcc><vAcc>0.826714</vAcc></extensions></trkpt>
      <trkpt lon="35.009051" lat="31.898537"><ele>232.042597</ele><time>2022-11-12T18:14:09Z</time><extensions><speed>1.146534</speed><course>313.918292</course><hAcc>1.596248</hAcc><vAcc>0.826868</vAcc></extensions></trkpt>
      <trkpt lon="35.009042" lat="31.898543"><ele>232.069731</ele><time>2022-11-12T18:14:10Z</time><extensions><speed>1.091059</speed><course>303.035810</course><hAcc>1.591226</hAcc><vAcc>0.827048</vAcc></extensions></trkpt>
      <trkpt lon="35.009031" lat="31.898547"><ele>232.107135</ele><time>2022-11-12T18:14:11Z</time><extensions><speed>1.144855</speed><course>288.818955</course><hAcc>1.645649</hAcc><vAcc>0.827234</vAcc></extensions></trkpt>
      <trkpt lon="35.009020" lat="31.898550"><ele>232.152452</ele><time>2022-11-12T18:14:12Z</time><extensions><speed>0.989175</speed><course>278.148985</course><hAcc>1.604127</hAcc><vAcc>0.827398</vAcc></extensions></trkpt>
      <trkpt lon="35.009010" lat="31.898551"><ele>232.195491</ele><time>2022-11-12T18:14:13Z</time><extensions><speed>1.054957</speed><course>273.828056</course><hAcc>1.593739</hAcc><vAcc>0.827547</vAcc></extensions></trkpt>
      <trkpt lon="35.008998" lat="31.898552"><ele>232.242654</ele><time>2022-11-12T18:14:14Z</time><extensions><speed>1.223805</speed><course>275.185068</course><hAcc>1.610584</hAcc><vAcc>0.827689</vAcc></extensions></trkpt>
      <trkpt lon="35.008983" lat="31.898553"><ele>232.295462</ele><time>2022-11-12T18:14:15Z</time><extensions><speed>1.465031</speed><course>277.462049</course><hAcc>1.637269</hAcc><vAcc>0.827829</vAcc></extensions></trkpt>
      <trkpt lon="35.008967" lat="31.898555"><ele>232.340205</ele><time>2022-11-12T18:14:16Z</time><extensions><speed>1.573009</speed><course>280.827216</course><hAcc>1.654726</hAcc><vAcc>0.827954</vAcc></extensions></trkpt>
      <trkpt lon="35.008951" lat="31.898559"><ele>232.379456</ele><time>2022-11-12T18:14:17Z</time><extensions><speed>1.627888</speed><course>285.754251</course><hAcc>1.636117</hAcc><vAcc>0.828066</vAcc></extensions></trkpt>
      <trkpt lon="35.008934" lat="31.898563"><ele>232.414687</ele><time>2022-11-12T18:14:18Z</time><extensions><speed>1.666371</speed><course>288.855173</course><hAcc>1.619595</hAcc><vAcc>0.828155</vAcc></extensions></trkpt>
      <trkpt lon="35.008917" lat="31.898569"><ele>232.447773</ele><time>2022-11-12T18:14:19Z</time><extensions><speed>1.736665</speed><course>290.391901</course><hAcc>1.627551</hAcc><vAcc>0.828220</vAcc></extensions></trkpt>
      <trkpt lon="35.008901" lat="31.898574"><ele>232.475582</ele><time>2022-11-12T18:14:20Z</time><extensions><speed>1.653534</speed><course>292.345210</course><hAcc>1.660864</hAcc><vAcc>0.828251</vAcc></extensions></trkpt>
      <trkpt lon="35.008885" lat="31.898580"><ele>232.491383</ele><time>2022-11-12T18:14:21Z</time><extensions><speed>1.525080</speed><course>297.022232</course><hAcc>1.670064</hAcc><vAcc>0.828229</vAcc></extensions></trkpt>
      <trkpt lon="35.008872" lat="31.898586"><ele>232.507084</ele><time>2022-11-12T18:14:22Z</time><extensions><speed>1.326864</speed><course>301.155444</course><hAcc>1.646882</hAcc><vAcc>0.828197</vAcc></extensions></trkpt>
      <trkpt lon="35.008860" lat="31.898593"><ele>232.519316</ele><time>2022-11-12T18:14:23Z</time><extensions><speed>1.300894</speed><course>305.026354</course><hAcc>1.646565</hAcc><vAcc>0.828142</vAcc></extensions></trkpt>
      <trkpt lon="35.008849" lat="31.898600"><ele>232.520130</ele><time>2022-11-12T18:14:24Z</time><extensions><speed>1.386388</speed><course>306.932038</course><hAcc>1.662654</hAcc><vAcc>0.828076</vAcc></extensions></trkpt>
      <trkpt lon="35.008837" lat="31.898608"><ele>232.508298</ele><time>2022-11-12T18:14:25Z</time><extensions><speed>1.404054</speed><course>308.038177</course><hAcc>1.678623</hAcc><vAcc>0.828017</vAcc></extensions></trkpt>
      <trkpt lon="35.008826" lat="31.898616"><ele>232.482074</ele><time>2022-11-12T18:14:26Z</time><extensions><speed>1.379094</speed><course>310.767579</course><hAcc>1.684224</hAcc><vAcc>0.827977</vAcc></extensions></trkpt>
      <trkpt lon="35.008815" lat="31.898624"><ele>232.445504</ele><time>2022-11-12T18:14:27Z</time><extensions><speed>1.382357</speed><course>313.265903</course><hAcc>1.683523</hAcc><vAcc>0.827943</vAcc></extensions></trkpt>
      <trkpt lon="35.008804" lat="31.898634"><ele>232.405016</ele><time>2022-11-12T18:14:28Z</time><extensions><speed>1.450886</speed><course>315.917018</course><hAcc>1.674126</hAcc><vAcc>0.827905</vAcc></extensions></trkpt>
      <trkpt lon="35.008794" lat="31.898643"><ele>232.356072</ele><time>2022-11-12T18:14:29Z</time><extensions><speed>1.535072</speed><course>317.963460</course><hAcc>1.656206</hAcc><vAcc>0.827852</vAcc></extensions></trkpt>
      <trkpt lon="35.008782" lat="31.898654"><ele>232.293499</ele><time>2022-11-12T18:14:30Z</time><extensions><speed>1.644776</speed><course>318.228821</course><hAcc>1.628561</hAcc><vAcc>0.827798</vAcc></extensions></trkpt>
      <trkpt lon="35.008770" lat="31.898666"><ele>232.228577</ele><time>2022-11-12T18:14:31Z</time><extensions><speed>1.722248</speed><course>318.430928</course><hAcc>1.606295</hAcc><vAcc>0.827779</vAcc></extensions></trkpt>
      <trkpt lon="35.008758" lat="31.898677"><ele>232.163626</ele><time>2022-11-12T18:14:32Z</time><extensions><speed>1.679631</speed><course>320.468223</course><hAcc>1.608256</hAcc><vAcc>0.827805</vAcc></extensions></trkpt>
      <trkpt lon="35.008747" lat="31.898689"><ele>232.102045</ele><time>2022-11-12T18:14:33Z</time><extensions><speed>1.696991</speed><course>323.018119</course><hAcc>1.577720</hAcc><vAcc>0.827860</vAcc></extensions></trkpt>
      <trkpt lon="35.008736" lat="31.898701"><ele>232.026172</ele><time>2022-11-12T18:14:34Z</time><extensions><speed>1.642040</speed><course>321.414208</course><hAcc>1.566326</hAcc><vAcc>0.827912</vAcc></extensions></trkpt>
      <trkpt lon="35.008725" lat="31.898712"><ele>231.954576</ele><time>2022-11-12T18:14:35Z</time><extensions><speed>1.573119</speed><course>319.632714</course><hAcc>1.573858</hAcc><vAcc>0.828007</vAcc></extensions></trkpt>
      <trkpt lon="35.008715" lat="31.898722"><ele>231.890095</ele><time>2022-11-12T18:14:36Z</time><extensions><speed>1.430283</speed><course>317.787860</course><hAcc>1.617420</hAcc><vAcc>0.828087</vAcc></extensions></trkpt>
      <trkpt lon="35.008705" lat="31.898732"><ele>231.843230</ele><time>2022-11-12T18:14:37Z</time><extensions><speed>1.281597</speed><course>318.216470</course><hAcc>1.577976</hAcc><vAcc>0.828190</vAcc></extensions></trkpt>
      <trkpt lon="35.008696" lat="31.898739"><ele>231.810837</ele><time>2022-11-12T18:14:38Z</time><extensions><speed>1.188039</speed><course>311.382064</course><hAcc>1.561885</hAcc><vAcc>0.828281</vAcc></extensions></trkpt>
      <trkpt lon="35.008685" lat="31.898746"><ele>231.781036</ele><time>2022-11-12T18:14:39Z</time><extensions><speed>1.334774</speed><course>305.551193</course><hAcc>1.578786</hAcc><vAcc>0.828397</vAcc></extensions></trkpt>
      <trkpt lon="35.008673" lat="31.898754"><ele>231.766965</ele><time>2022-11-12T18:14:40Z</time><extensions><speed>1.512820</speed><course>302.494676</course><hAcc>1.604069</hAcc><vAcc>0.828506</vAcc></extensions></trkpt>
      <trkpt lon="35.008659" lat="31.898761"><ele>231.755104</ele><time>2022-11-12T18:14:41Z</time><extensions><speed>1.523325</speed><course>303.434390</course><hAcc>1.623865</hAcc><vAcc>0.828594</vAcc></extensions></trkpt>
      <trkpt lon="35.008645" lat="31.898769"><ele>231.737881</ele><time>2022-11-12T18:14:42Z</time><extensions><speed>1.600102</speed><course>299.081574</course><hAcc>1.614876</hAcc><vAcc>0.828675</vAcc></extensions></trkpt>
      <trkpt lon="35.008630" lat="31.898775"><ele>231.725124</ele><time>2022-11-12T18:14:43Z</time><extensions><speed>1.616192</speed><course>292.672756</course><hAcc>1.600801</hAcc><vAcc>0.828735</vAcc></extensions></trkpt>
      <trkpt lon="35.008614" lat="31.898780"><ele>231.703831</ele><time>2022-11-12T18:14:44Z</time><extensions><speed>1.695504</speed><course>289.225529</course><hAcc>1.574455</hAcc><vAcc>0.828789</vAcc></extensions></trkpt>
      <trkpt lon="35.008597" lat="31.898785"><ele>231.690940</ele><time>2022-11-12T18:14:45Z</time><extensions><speed>1.619888</speed><course>288.070570</course><hAcc>1.577919</hAcc><vAcc>0.828824</vAcc></extensions></trkpt>
      <trkpt lon="35.008580" lat="31.898790"><ele>231.690723</ele><time>2022-11-12T18:14:46Z</time><extensions><speed>1.668267</speed><course>290.930320</course><hAcc>1.559040</hAcc><vAcc>0.828864</vAcc></extensions></trkpt>
      <trkpt lon="35.008565" lat="31.898796"><ele>231.694640</ele><time>2022-11-12T18:14:47Z</time><extensions><speed>1.529941</speed><course>294.460191</course><hAcc>1.593250</hAcc><vAcc>0.828884</vAcc></extensions></trkpt>
      <trkpt lon="35.008550" lat="31.898802"><ele>231.700720</ele><time>2022-11-12T18:14:48Z</time><extensions><speed>1.613798</speed><course>296.569741</course><hAcc>1.567658</hAcc><vAcc>0.828896</vAcc></extensions></trkpt>
      <trkpt lon="35.008535" lat="31.898808"><ele>231.706882</ele><time>2022-11-12T18:14:49Z</time><extensions><speed>1.529711</speed><course>297.902285</course><hAcc>1.600987</hAcc><vAcc>0.828912</vAcc></extensions></trkpt>
      <trkpt lon="35.008521" lat="31.898816"><ele>231.712045</ele><time>2022-11-12T18:14:50Z</time><extensions><speed>1.494010</speed><course>303.881029</course><hAcc>1.575205</hAcc><vAcc>0.828925</vAcc></extensions></trkpt>
      <trkpt lon="35.008509" lat="31.898823"><ele>231.714374</ele><time>2022-11-12T18:14:51Z</time><extensions><speed>1.362664</speed><course>309.439582</course><hAcc>1.575369</hAcc><vAcc>0.828927</vAcc></extensions></trkpt>
      <trkpt lon="35.008499" lat="31.898831"><ele>231.731857</ele><time>2022-11-12T18:14:52Z</time><extensions><speed>1.228754</speed><course>307.081649</course><hAcc>1.584259</hAcc><vAcc>0.828925</vAcc></extensions></trkpt>
      <trkpt lon="35.008488" lat="31.898837"><ele>231.744010</ele><time>2022-11-12T18:14:53Z</time><extensions><speed>1.193370</speed><course>298.271549</course><hAcc>1.576476</hAcc><vAcc>0.828912</vAcc></extensions></trkpt>
      <trkpt lon="35.008476" lat="31.898842"><ele>231.766995</ele><time>2022-11-12T18:14:54Z</time><extensions><speed>1.373532</speed><course>294.056389</course><hAcc>1.550387</hAcc><vAcc>0.828901</vAcc></extensions></trkpt>
      <trkpt lon="35.008462" lat="31.898847"><ele>231.782024</ele><time>2022-11-12T18:14:55Z</time><extensions><speed>1.561259</speed><course>295.924459</course><hAcc>1.535407</hAcc><vAcc>0.828870</vAcc></extensions></trkpt>
      <trkpt lon="35.008447" lat="31.898854"><ele>231.800764</ele><time>2022-11-12T18:14:56Z</time><extensions><speed>1.544586</speed><course>299.089429</course><hAcc>1.559304</hAcc><vAcc>0.828811</vAcc></extensions></trkpt>
      <trkpt lon="35.008433" lat="31.898861"><ele>231.815429</ele><time>2022-11-12T18:14:57Z</time><extensions><speed>1.512517</speed><course>302.205661</course><hAcc>1.555415</hAcc><vAcc>0.828725</vAcc></extensions></trkpt>
      <trkpt lon="35.008420" lat="31.898868"><ele>231.833470</ele><time>2022-11-12T18:14:58Z</time><extensions><speed>1.515894</speed><course>301.157461</course><hAcc>1.553339</hAcc><vAcc>0.828594</vAcc></extensions></trkpt>
      <trkpt lon="35.008406" lat="31.898875"><ele>231.843893</ele><time>2022-11-12T18:14:59Z</time><extensions><speed>1.457984</speed><course>301.502491</course><hAcc>1.563140</hAcc><vAcc>0.828382</vAcc></extensions></trkpt>
      <trkpt lon="35.008394" lat="31.898883"><ele>231.847690</ele><time>2022-11-12T18:15:00Z</time><extensions><speed>1.397545</speed><course>308.102250</course><hAcc>1.538069</hAcc><vAcc>0.828129</vAcc></extensions></trkpt>
      <trkpt lon="35.008383" lat="31.898890"><ele>231.850048</ele><time>2022-11-12T18:15:01Z</time><extensions><speed>1.317083</speed><course>310.170558</course><hAcc>1.551539</hAcc><vAcc>0.827852</vAcc></extensions></trkpt>
      <trkpt lon="35.008372" lat="31.898898"><ele>231.835624</ele><time>2022-11-12T18:15:02Z</time><extensions><speed>1.249251</speed><course>310.212281</course><hAcc>1.592395</hAcc><vAcc>0.827516</vAcc></extensions></trkpt>
      <trkpt lon="35.008362" lat="31.898905"><ele>231.822856</ele><time>2022-11-12T18:15:03Z</time><extensions><speed>1.257104</speed><course>308.635128</course><hAcc>1.628108</hAcc><vAcc>0.827125</vAcc></extensions></trkpt>
      <trkpt lon="35.008352" lat="31.898912"><ele>231.801177</ele><time>2022-11-12T18:15:04Z</time><extensions><speed>1.289072</speed><course>307.494907</course><hAcc>1.656229</hAcc><vAcc>0.826725</vAcc></extensions></trkpt>
      <trkpt lon="35.008340" lat="31.898920"><ele>231.775582</ele><time>2022-11-12T18:15:05Z</time><extensions><speed>1.394457</speed><course>309.426014</course><hAcc>1.664785</hAcc><vAcc>0.826323</vAcc></extensions></trkpt>
      <trkpt lon="35.008329" lat="31.898928"><ele>231.750499</ele><time>2022-11-12T18:15:06Z</time><extensions><speed>1.479096</speed><course>311.023964</course><hAcc>1.673987</hAcc><vAcc>0.825899</vAcc></extensions></trkpt>
      <trkpt lon="35.008317" lat="31.898937"><ele>231.720699</ele><time>2022-11-12T18:15:07Z</time><extensions><speed>1.499016</speed><course>309.893437</course><hAcc>1.685170</hAcc><vAcc>0.825481</vAcc></extensions></trkpt>
      <trkpt lon="35.008304" lat="31.898945"><ele>231.681633</ele><time>2022-11-12T18:15:08Z</time><extensions><speed>1.520417</speed><course>307.686402</course><hAcc>1.687606</hAcc><vAcc>0.825068</vAcc></extensions></trkpt>
      <trkpt lon="35.008292" lat="31.898954"><ele>231.648178</ele><time>2022-11-12T18:15:09Z</time><extensions><speed>1.521644</speed><course>304.431760</course><hAcc>1.679116</hAcc><vAcc>0.824660</vAcc></extensions></trkpt>
      <trkpt lon="35.008278" lat="31.898961"><ele>231.616968</ele><time>2022-11-12T18:15:10Z</time><extensions><speed>1.503299</speed><course>303.637394</course><hAcc>1.676078</hAcc><vAcc>0.824283</vAcc></extensions></trkpt>
      <trkpt lon="35.008265" lat="31.898969"><ele>231.588218</ele><time>2022-11-12T18:15:11Z</time><extensions><speed>1.480757</speed><course>304.089836</course><hAcc>1.674338</hAcc><vAcc>0.823934</vAcc></extensions></trkpt>
      <trkpt lon="35.008252" lat="31.898976"><ele>231.561235</ele><time>2022-11-12T18:15:12Z</time><extensions><speed>1.479822</speed><course>305.355656</course><hAcc>1.669045</hAcc><vAcc>0.823597</vAcc></extensions></trkpt>
      <trkpt lon="35.008239" lat="31.898984"><ele>231.532117</ele><time>2022-11-12T18:15:13Z</time><extensions><speed>1.518812</speed><course>305.911436</course><hAcc>1.671886</hAcc><vAcc>0.823321</vAcc></extensions></trkpt>
      <trkpt lon="35.008227" lat="31.898992"><ele>231.496643</ele><time>2022-11-12T18:15:14Z</time><extensions><speed>1.367491</speed><course>304.039664</course><hAcc>1.684527</hAcc><vAcc>0.823088</vAcc></extensions></trkpt>
      <trkpt lon="35.008216" lat="31.898998"><ele>231.454653</ele><time>2022-11-12T18:15:15Z</time><extensions><speed>1.154133</speed><course>302.872894</course><hAcc>1.656663</hAcc><vAcc>0.822897</vAcc></extensions></trkpt>
      <trkpt lon="35.008205" lat="31.899004"><ele>231.413988</ele><time>2022-11-12T18:15:16Z</time><extensions><speed>1.111997</speed><course>300.810926</course><hAcc>1.646093</hAcc><vAcc>0.822739</vAcc></extensions></trkpt>
      <trkpt lon="35.008195" lat="31.899008"><ele>231.371323</ele><time>2022-11-12T18:15:17Z</time><extensions><speed>1.079400</speed><course>299.383524</course><hAcc>1.658380</hAcc><vAcc>0.822595</vAcc></extensions></trkpt>
      <trkpt lon="35.008185" lat="31.899013"><ele>231.330378</ele><time>2022-11-12T18:15:18Z</time><extensions><speed>1.102737</speed><course>299.318269</course><hAcc>1.633524</hAcc><vAcc>0.822503</vAcc></extensions></trkpt>
      <trkpt lon="35.008174" lat="31.899018"><ele>231.281846</ele><time>2022-11-12T18:15:19Z</time><extensions><speed>1.185736</speed><course>299.232581</course><hAcc>1.615651</hAcc><vAcc>0.822412</vAcc></extensions></trkpt>
      <trkpt lon="35.008163" lat="31.899024"><ele>231.218157</ele><time>2022-11-12T18:15:20Z</time><extensions><speed>1.261103</speed><course>298.145375</course><hAcc>1.606747</hAcc><vAcc>0.822317</vAcc></extensions></trkpt>
      <trkpt lon="35.008150" lat="31.899029"><ele>231.144567</ele><time>2022-11-12T18:15:21Z</time><extensions><speed>1.350898</speed><course>296.381496</course><hAcc>1.583938</hAcc><vAcc>0.822221</vAcc></extensions></trkpt>
      <trkpt lon="35.008136" lat="31.899035"><ele>231.064293</ele><time>2022-11-12T18:15:22Z</time><extensions><speed>1.636796</speed><course>296.955694</course><hAcc>1.553698</hAcc><vAcc>0.822132</vAcc></extensions></trkpt>
      <trkpt lon="35.008121" lat="31.899042"><ele>230.979736</ele><time>2022-11-12T18:15:23Z</time><extensions><speed>1.611884</speed><course>298.126834</course><hAcc>1.564927</hAcc><vAcc>0.822077</vAcc></extensions></trkpt>
      <trkpt lon="35.008107" lat="31.899049"><ele>230.899666</ele><time>2022-11-12T18:15:24Z</time><extensions><speed>1.522201</speed><course>297.830212</course><hAcc>1.588690</hAcc><vAcc>0.822061</vAcc></extensions></trkpt>
      <trkpt lon="35.008092" lat="31.899055"><ele>230.815729</ele><time>2022-11-12T18:15:25Z</time><extensions><speed>1.561948</speed><course>296.672536</course><hAcc>1.548418</hAcc><vAcc>0.822039</vAcc></extensions></trkpt>
      <trkpt lon="35.008077" lat="31.899061"><ele>230.729934</ele><time>2022-11-12T18:15:26Z</time><extensions><speed>1.530354</speed><course>293.846236</course><hAcc>1.544322</hAcc><vAcc>0.822005</vAcc></extensions></trkpt>
      <trkpt lon="35.008062" lat="31.899066"><ele>230.642257</ele><time>2022-11-12T18:15:27Z</time><extensions><speed>1.557264</speed><course>291.056170</course><hAcc>1.557973</hAcc><vAcc>0.821975</vAcc></extensions></trkpt>
      <trkpt lon="35.008047" lat="31.899071"><ele>230.557989</ele><time>2022-11-12T18:15:28Z</time><extensions><speed>1.436445</speed><course>290.680220</course><hAcc>1.623177</hAcc><vAcc>0.821937</vAcc></extensions></trkpt>
      <trkpt lon="35.008034" lat="31.899076"><ele>230.479873</ele><time>2022-11-12T18:15:29Z</time><extensions><speed>1.305133</speed><course>294.768561</course><hAcc>1.592206</hAcc><vAcc>0.821975</vAcc></extensions></trkpt>
      <trkpt lon="35.008022" lat="31.899081"><ele>230.407283</ele><time>2022-11-12T18:15:30Z</time><extensions><speed>1.205964</speed><course>298.701598</course><hAcc>1.592799</hAcc><vAcc>0.822056</vAcc></extensions></trkpt>
      <trkpt lon="35.008011" lat="31.899086"><ele>230.346416</ele><time>2022-11-12T18:15:31Z</time><extensions><speed>1.170352</speed><course>300.783347</course><hAcc>1.618701</hAcc><vAcc>0.822164</vAcc></extensions></trkpt>
      <trkpt lon="35.008000" lat="31.899092"><ele>230.284764</ele><time>2022-11-12T18:15:32Z</time><extensions><speed>1.205761</speed><course>302.546581</course><hAcc>1.640747</hAcc><vAcc>0.822299</vAcc></extensions></trkpt>
      <trkpt lon="35.007989" lat="31.899098"><ele>230.235294</ele><time>2022-11-12T18:15:33Z</time><extensions><speed>1.336812</speed><course>301.029321</course><hAcc>1.659797</hAcc><vAcc>0.822469</vAcc></extensions></trkpt>
      <trkpt lon="35.007977" lat="31.899104"><ele>230.200925</ele><time>2022-11-12T18:15:34Z</time><extensions><speed>1.362330</speed><course>300.807705</course><hAcc>1.680887</hAcc><vAcc>0.822685</vAcc></extensions></trkpt>
      <trkpt lon="35.007964" lat="31.899110"><ele>230.165559</ele><time>2022-11-12T18:15:35Z</time><extensions><speed>1.313193</speed><course>300.559898</course><hAcc>1.664522</hAcc><vAcc>0.822909</vAcc></extensions></trkpt>
      <trkpt lon="35.007952" lat="31.899116"><ele>230.151999</ele><time>2022-11-12T18:15:36Z</time><extensions><speed>1.246768</speed><course>296.676018</course><hAcc>1.630537</hAcc><vAcc>0.823196</vAcc></extensions></trkpt>
      <trkpt lon="35.007940" lat="31.899120"><ele>230.139791</ele><time>2022-11-12T18:15:37Z</time><extensions><speed>1.312460</speed><course>293.562143</course><hAcc>1.613924</hAcc><vAcc>0.823525</vAcc></extensions></trkpt>
      <trkpt lon="35.007927" lat="31.899125"><ele>230.122592</ele><time>2022-11-12T18:15:38Z</time><extensions><speed>1.373332</speed><course>294.079956</course><hAcc>1.636227</hAcc><vAcc>0.823867</vAcc></extensions></trkpt>
      <trkpt lon="35.007914" lat="31.899131"><ele>230.111055</ele><time>2022-11-12T18:15:39Z</time><extensions><speed>1.353076</speed><course>299.983107</course><hAcc>1.688923</hAcc><vAcc>0.824237</vAcc></extensions></trkpt>
      <trkpt lon="35.007903" lat="31.899137"><ele>230.109969</ele><time>2022-11-12T18:15:40Z</time><extensions><speed>1.207194</speed><course>304.928646</course><hAcc>1.649619</hAcc><vAcc>0.824601</vAcc></extensions></trkpt>
      <trkpt lon="35.007892" lat="31.899143"><ele>230.111703</ele><time>2022-11-12T18:15:41Z</time><extensions><speed>1.202656</speed><course>307.212670</course><hAcc>1.627358</hAcc><vAcc>0.824982</vAcc></extensions></trkpt>
      <trkpt lon="35.007882" lat="31.899150"><ele>230.109577</ele><time>2022-11-12T18:15:42Z</time><extensions><speed>1.276193</speed><course>304.546560</course><hAcc>1.637191</hAcc><vAcc>0.825353</vAcc></extensions></trkpt>
      <trkpt lon="35.007870" lat="31.899156"><ele>230.106863</ele><time>2022-11-12T18:15:43Z</time><extensions><speed>1.340536</speed><course>297.282615</course><hAcc>1.651922</hAcc><vAcc>0.825704</vAcc></extensions></trkpt>
      <trkpt lon="35.007856" lat="31.899161"><ele>230.106334</ele><time>2022-11-12T18:15:44Z</time><extensions><speed>1.396983</speed><course>292.104986</course><hAcc>1.656760</hAcc><vAcc>0.826015</vAcc></extensions></trkpt>
      <trkpt lon="35.007842" lat="31.899165"><ele>230.113139</ele><time>2022-11-12T18:15:45Z</time><extensions><speed>1.445890</speed><course>289.866768</course><hAcc>1.657585</hAcc><vAcc>0.826309</vAcc></extensions></trkpt>
      <trkpt lon="35.007828" lat="31.899170"><ele>230.123967</ele><time>2022-11-12T18:15:46Z</time><extensions><speed>1.507167</speed><course>289.860882</course><hAcc>1.669953</hAcc><vAcc>0.826558</vAcc></extensions></trkpt>
      <trkpt lon="35.007813" lat="31.899175"><ele>230.127111</ele><time>2022-11-12T18:15:47Z</time><extensions><speed>1.487918</speed><course>291.134896</course><hAcc>1.667165</hAcc><vAcc>0.826787</vAcc></extensions></trkpt>
      <trkpt lon="35.007798" lat="31.899180"><ele>230.139465</ele><time>2022-11-12T18:15:48Z</time><extensions><speed>1.435734</speed><course>291.822937</course><hAcc>1.629838</hAcc><vAcc>0.826966</vAcc></extensions></trkpt>
      <trkpt lon="35.007784" lat="31.899184"><ele>230.151497</ele><time>2022-11-12T18:15:49Z</time><extensions><speed>1.440089</speed><course>291.043572</course><hAcc>1.600039</hAcc><vAcc>0.827094</vAcc></extensions></trkpt>
      <trkpt lon="35.007769" lat="31.899189"><ele>230.164001</ele><time>2022-11-12T18:15:50Z</time><extensions><speed>1.546026</speed><course>290.832155</course><hAcc>1.596054</hAcc><vAcc>0.827116</vAcc></extensions></trkpt>
      <trkpt lon="35.007754" lat="31.899195"><ele>230.185137</ele><time>2022-11-12T18:15:50Z</time><extensions><speed>1.539695</speed><course>291.453839</course><hAcc>1.630683</hAcc><vAcc>0.827037</vAcc></extensions></trkpt>
      <trkpt lon="35.007739" lat="31.899200"><ele>230.200223</ele><time>2022-11-12T18:15:51Z</time><extensions><speed>1.483757</speed><course>292.454732</course><hAcc>1.652088</hAcc><vAcc>0.826895</vAcc></extensions></trkpt>
      <trkpt lon="35.007725" lat="31.899204"><ele>230.212934</ele><time>2022-11-12T18:15:52Z</time><extensions><speed>1.450592</speed><course>286.812492</course><hAcc>1.621035</hAcc><vAcc>0.826693</vAcc></extensions></trkpt>
      <trkpt lon="35.007710" lat="31.899208"><ele>230.221725</ele><time>2022-11-12T18:15:53Z</time><extensions><speed>1.391455</speed><course>282.776416</course><hAcc>1.602211</hAcc><vAcc>0.826411</vAcc></extensions></trkpt>
      <trkpt lon="35.007696" lat="31.899210"><ele>230.230190</ele><time>2022-11-12T18:15:54Z</time><extensions><speed>1.300249</speed><course>282.864401</course><hAcc>1.617366</hAcc><vAcc>0.826070</vAcc></extensions></trkpt>
      <trkpt lon="35.007683" lat="31.899214"><ele>230.234060</ele><time>2022-11-12T18:15:55Z</time><extensions><speed>1.225782</speed><course>289.666827</course><hAcc>1.631429</hAcc><vAcc>0.825683</vAcc></extensions></trkpt>
      <trkpt lon="35.007671" lat="31.899218"><ele>230.222203</ele><time>2022-11-12T18:15:56Z</time><extensions><speed>1.299888</speed><course>298.460502</course><hAcc>1.639933</hAcc><vAcc>0.825310</vAcc></extensions></trkpt>
      <trkpt lon="35.007659" lat="31.899224"><ele>230.202899</ele><time>2022-11-12T18:15:57Z</time><extensions><speed>1.375351</speed><course>301.665334</course><hAcc>1.651178</hAcc><vAcc>0.824929</vAcc></extensions></trkpt>
      <trkpt lon="35.007647" lat="31.899231"><ele>230.188450</ele><time>2022-11-12T18:15:58Z</time><extensions><speed>1.288073</speed><course>302.592682</course><hAcc>1.660998</hAcc><vAcc>0.824528</vAcc></extensions></trkpt>
      <trkpt lon="35.007636" lat="31.899238"><ele>230.172855</ele><time>2022-11-12T18:15:59Z</time><extensions><speed>1.288306</speed><course>306.296404</course><hAcc>1.625620</hAcc><vAcc>0.824158</vAcc></extensions></trkpt>
      <trkpt lon="35.007624" lat="31.899245"><ele>230.154959</ele><time>2022-11-12T18:16:00Z</time><extensions><speed>1.439577</speed><course>306.543049</course><hAcc>1.602297</hAcc><vAcc>0.823817</vAcc></extensions></trkpt>
      <trkpt lon="35.007611" lat="31.899253"><ele>230.134084</ele><time>2022-11-12T18:16:01Z</time><extensions><speed>1.539907</speed><course>304.097704</course><hAcc>1.619170</hAcc><vAcc>0.823558</vAcc></extensions></trkpt>
      <trkpt lon="35.007598" lat="31.899260"><ele>230.114516</ele><time>2022-11-12T18:16:02Z</time><extensions><speed>1.417364</speed><course>299.253091</course><hAcc>1.666720</hAcc><vAcc>0.823360</vAcc></extensions></trkpt>
      <trkpt lon="35.007585" lat="31.899266"><ele>230.086789</ele><time>2022-11-12T18:16:03Z</time><extensions><speed>1.325323</speed><course>299.533145</course><hAcc>1.618111</hAcc><vAcc>0.823213</vAcc></extensions></trkpt>
      <trkpt lon="35.007574" lat="31.899271"><ele>230.052331</ele><time>2022-11-12T18:16:04Z</time><extensions><speed>1.231186</speed><course>298.856025</course><hAcc>1.599903</hAcc><vAcc>0.823125</vAcc></extensions></trkpt>
      <trkpt lon="35.007562" lat="31.899276"><ele>230.017824</ele><time>2022-11-12T18:16:05Z</time><extensions><speed>1.165984</speed><course>298.503033</course><hAcc>1.610303</hAcc><vAcc>0.823091</vAcc></extensions></trkpt>
      <trkpt lon="35.007552" lat="31.899281"><ele>229.990890</ele><time>2022-11-12T18:16:06Z</time><extensions><speed>1.144587</speed><course>299.817352</course><hAcc>1.615734</hAcc><vAcc>0.823125</vAcc></extensions></trkpt>
      <trkpt lon="35.007541" lat="31.899287"><ele>229.970836</ele><time>2022-11-12T18:16:07Z</time><extensions><speed>1.263012</speed><course>301.443777</course><hAcc>1.612797</hAcc><vAcc>0.823187</vAcc></extensions></trkpt>
      <trkpt lon="35.007528" lat="31.899293"><ele>229.945861</ele><time>2022-11-12T18:16:09Z</time><extensions><speed>1.421704</speed><course>301.411992</course><hAcc>1.595302</hAcc><vAcc>0.823252</vAcc></extensions></trkpt>
      <trkpt lon="35.007515" lat="31.899300"><ele>229.914233</ele><time>2022-11-12T18:16:10Z</time><extensions><speed>1.438785</speed><course>298.341598</course><hAcc>1.599149</hAcc><vAcc>0.823313</vAcc></extensions></trkpt>
      <trkpt lon="35.007501" lat="31.899305"><ele>229.876992</ele><time>2022-11-12T18:16:11Z</time><extensions><speed>1.431825</speed><course>293.148273</course><hAcc>1.619818</hAcc><vAcc>0.823369</vAcc></extensions></trkpt>
      <trkpt lon="35.007488" lat="31.899310"><ele>229.846056</ele><time>2022-11-12T18:16:12Z</time><extensions><speed>1.342421</speed><course>288.619985</course><hAcc>1.671838</hAcc><vAcc>0.823393</vAcc></extensions></trkpt>
      <trkpt lon="35.007475" lat="31.899313"><ele>229.815884</ele><time>2022-11-12T18:16:13Z</time><extensions><speed>1.140150</speed><course>280.876309</course><hAcc>1.621242</hAcc><vAcc>0.823426</vAcc></extensions></trkpt>
      <trkpt lon="35.007464" lat="31.899314"><ele>229.776221</ele><time>2022-11-12T18:16:14Z</time><extensions><speed>0.982418</speed><course>272.628517</course><hAcc>1.594501</hAcc><vAcc>0.823448</vAcc></extensions></trkpt>
      <trkpt lon="35.007453" lat="31.899314"><ele>229.715600</ele><time>2022-11-12T18:16:15Z</time><extensions><speed>1.032160</speed><course>270.363897</course><hAcc>1.595416</hAcc><vAcc>0.823469</vAcc></extensions></trkpt>
      <trkpt lon="35.007441" lat="31.899315"><ele>229.642476</ele><time>2022-11-12T18:16:16Z</time><extensions><speed>1.185712</speed><course>272.837994</course><hAcc>1.616327</hAcc><vAcc>0.823479</vAcc></extensions></trkpt>
      <trkpt lon="35.007428" lat="31.899316"><ele>229.561113</ele><time>2022-11-12T18:16:17Z</time><extensions><speed>1.246034</speed><course>276.947279</course><hAcc>1.643751</hAcc><vAcc>0.823506</vAcc></extensions></trkpt>
      <trkpt lon="35.007415" lat="31.899318"><ele>229.473642</ele><time>2022-11-12T18:16:18Z</time><extensions><speed>1.301142</speed><course>280.547000</course><hAcc>1.651335</hAcc><vAcc>0.823519</vAcc></extensions></trkpt>
      <trkpt lon="35.007400" lat="31.899320"><ele>229.384317</ele><time>2022-11-12T18:16:19Z</time><extensions><speed>1.425625</speed><course>282.501623</course><hAcc>1.647477</hAcc><vAcc>0.823516</vAcc></extensions></trkpt>
      <trkpt lon="35.007385" lat="31.899323"><ele>229.291574</ele><time>2022-11-12T18:16:20Z</time><extensions><speed>1.543950</speed><course>283.282063</course><hAcc>1.609374</hAcc><vAcc>0.823543</vAcc></extensions></trkpt>
      <trkpt lon="35.007369" lat="31.899327"><ele>229.199791</ele><time>2022-11-12T18:16:21Z</time><extensions><speed>1.675898</speed><course>284.303424</course><hAcc>1.587128</hAcc><vAcc>0.823586</vAcc></extensions></trkpt>
      <trkpt lon="35.007350" lat="31.899331"><ele>229.105518</ele><time>2022-11-12T18:16:22Z</time><extensions><speed>1.856709</speed><course>285.643848</course><hAcc>1.587126</hAcc><vAcc>0.823627</vAcc></extensions></trkpt>
      <trkpt lon="35.007332" lat="31.899336"><ele>229.014321</ele><time>2022-11-12T18:16:23Z</time><extensions><speed>1.737255</speed><course>287.729916</course><hAcc>1.615996</hAcc><vAcc>0.823648</vAcc></extensions></trkpt>
      <trkpt lon="35.007315" lat="31.899341"><ele>228.927729</ele><time>2022-11-12T18:16:24Z</time><extensions><speed>1.608201</speed><course>289.309914</course><hAcc>1.633677</hAcc><vAcc>0.823684</vAcc></extensions></trkpt>
      <trkpt lon="35.007299" lat="31.899345"><ele>228.834239</ele><time>2022-11-12T18:16:25Z</time><extensions><speed>1.484168</speed><course>288.927457</course><hAcc>1.636093</hAcc><vAcc>0.823714</vAcc></extensions></trkpt>
      <trkpt lon="35.007285" lat="31.899349"><ele>228.740370</ele><time>2022-11-12T18:16:26Z</time><extensions><speed>1.317959</speed><course>289.043810</course><hAcc>1.602756</hAcc><vAcc>0.823759</vAcc></extensions></trkpt>
      <trkpt lon="35.007273" lat="31.899353"><ele>228.633774</ele><time>2022-11-12T18:16:27Z</time><extensions><speed>1.172752</speed><course>291.285118</course><hAcc>1.598116</hAcc><vAcc>0.823783</vAcc></extensions></trkpt>
      <trkpt lon="35.007261" lat="31.899358"><ele>228.539344</ele><time>2022-11-12T18:16:28Z</time><extensions><speed>1.177094</speed><course>295.747463</course><hAcc>1.600520</hAcc><vAcc>0.823800</vAcc></extensions></trkpt>
      <trkpt lon="35.007250" lat="31.899363"><ele>228.455868</ele><time>2022-11-12T18:16:29Z</time><extensions><speed>1.217887</speed><course>297.910804</course><hAcc>1.605234</hAcc><vAcc>0.823778</vAcc></extensions></trkpt>
      <trkpt lon="35.007239" lat="31.899368"><ele>228.370979</ele><time>2022-11-12T18:16:30Z</time><extensions><speed>1.279657</speed><course>298.828013</course><hAcc>1.622453</hAcc><vAcc>0.823726</vAcc></extensions></trkpt>
      <trkpt lon="35.007226" lat="31.899374"><ele>228.289663</ele><time>2022-11-12T18:16:31Z</time><extensions><speed>1.420309</speed><course>298.608736</course><hAcc>1.631189</hAcc><vAcc>0.823654</vAcc></extensions></trkpt>
      <trkpt lon="35.007212" lat="31.899381"><ele>228.208648</ele><time>2022-11-12T18:16:32Z</time><extensions><speed>1.681306</speed><course>298.602748</course><hAcc>1.591071</hAcc><vAcc>0.823549</vAcc></extensions></trkpt>
      <trkpt lon="35.007195" lat="31.899389"><ele>228.128399</ele><time>2022-11-12T18:16:33Z</time><extensions><speed>1.803894</speed><course>297.698742</course><hAcc>1.565275</hAcc><vAcc>0.823411</vAcc></extensions></trkpt>
      <trkpt lon="35.007179" lat="31.899396"><ele>228.042861</ele><time>2022-11-12T18:16:34Z</time><extensions><speed>1.681720</speed><course>294.304922</course><hAcc>1.580307</hAcc><vAcc>0.823288</vAcc></extensions></trkpt>
      <trkpt lon="35.007162" lat="31.899402"><ele>227.960690</ele><time>2022-11-12T18:16:35Z</time><extensions><speed>1.771175</speed><course>294.906247</course><hAcc>1.561083</hAcc><vAcc>0.823147</vAcc></extensions></trkpt>
      <trkpt lon="35.007146" lat="31.899408"><ele>227.881522</ele><time>2022-11-12T18:16:36Z</time><extensions><speed>1.570990</speed><course>293.867743</course><hAcc>1.589059</hAcc><vAcc>0.822979</vAcc></extensions></trkpt>
      <trkpt lon="35.007131" lat="31.899415"><ele>227.798594</ele><time>2022-11-12T18:16:37Z</time><extensions><speed>1.595303</speed><course>301.928094</course><hAcc>1.578540</hAcc><vAcc>0.822792</vAcc></extensions></trkpt>
      <trkpt lon="35.007118" lat="31.899423"><ele>227.717432</ele><time>2022-11-12T18:16:38Z</time><extensions><speed>1.447129</speed><course>304.999162</course><hAcc>1.623387</hAcc><vAcc>0.822544</vAcc></extensions></trkpt>
      <trkpt lon="35.007106" lat="31.899430"><ele>227.636574</ele><time>2022-11-12T18:16:39Z</time><extensions><speed>1.425117</speed><course>305.896678</course><hAcc>1.596018</hAcc><vAcc>0.822297</vAcc></extensions></trkpt>
      <trkpt lon="35.007093" lat="31.899437"><ele>227.558914</ele><time>2022-11-12T18:16:40Z</time><extensions><speed>1.327297</speed><course>301.585220</course><hAcc>1.605321</hAcc><vAcc>0.822080</vAcc></extensions></trkpt>
      <trkpt lon="35.007082" lat="31.899443"><ele>227.490818</ele><time>2022-11-12T18:16:41Z</time><extensions><speed>1.240595</speed><course>298.111626</course><hAcc>1.638827</hAcc><vAcc>0.821902</vAcc></extensions></trkpt>
      <trkpt lon="35.007070" lat="31.899448"><ele>227.425050</ele><time>2022-11-12T18:16:42Z</time><extensions><speed>1.205221</speed><course>294.025070</course><hAcc>1.668108</hAcc><vAcc>0.821775</vAcc></extensions></trkpt>
      <trkpt lon="35.007058" lat="31.899452"><ele>227.374591</ele><time>2022-11-12T18:16:43Z</time><extensions><speed>1.247246</speed><course>292.687847</course><hAcc>1.685032</hAcc><vAcc>0.821658</vAcc></extensions></trkpt>
      <trkpt lon="35.007046" lat="31.899456"><ele>227.331282</ele><time>2022-11-12T18:16:44Z</time><extensions><speed>1.315358</speed><course>293.042688</course><hAcc>1.691967</hAcc><vAcc>0.821517</vAcc></extensions></trkpt>
      <trkpt lon="35.007032" lat="31.899461"><ele>227.287958</ele><time>2022-11-12T18:16:45Z</time><extensions><speed>1.428621</speed><course>291.012407</course><hAcc>1.691755</hAcc><vAcc>0.821370</vAcc></extensions></trkpt>
      <trkpt lon="35.007017" lat="31.899465"><ele>227.241080</ele><time>2022-11-12T18:16:46Z</time><extensions><speed>1.513754</speed><course>288.458224</course><hAcc>1.687547</hAcc><vAcc>0.821302</vAcc></extensions></trkpt>
      <trkpt lon="35.007002" lat="31.899469"><ele>227.204382</ele><time>2022-11-12T18:16:47Z</time><extensions><speed>1.521010</speed><course>286.300699</course><hAcc>1.674753</hAcc><vAcc>0.821229</vAcc></extensions></trkpt>
      <trkpt lon="35.006986" lat="31.899472"><ele>227.189915</ele><time>2022-11-12T18:16:48Z</time><extensions><speed>1.568468</speed><course>282.594366</course><hAcc>1.645639</hAcc><vAcc>0.821162</vAcc></extensions></trkpt>
      <trkpt lon="35.006970" lat="31.899475"><ele>227.178080</ele><time>2022-11-12T18:16:49Z</time><extensions><speed>1.592520</speed><course>276.689146</course><hAcc>1.622362</hAcc><vAcc>0.821148</vAcc></extensions></trkpt>
      <trkpt lon="35.006953" lat="31.899475"><ele>227.181466</ele><time>2022-11-12T18:16:50Z</time><extensions><speed>1.580938</speed><course>271.079170</course><hAcc>1.608809</hAcc><vAcc>0.821222</vAcc></extensions></trkpt>
      <trkpt lon="35.006937" lat="31.899475"><ele>227.184451</ele><time>2022-11-12T18:16:51Z</time><extensions><speed>1.503984</speed><course>265.313135</course><hAcc>1.627363</hAcc><vAcc>0.821317</vAcc></extensions></trkpt>
      <trkpt lon="35.006921" lat="31.899473"><ele>227.193044</ele><time>2022-11-12T18:16:52Z</time><extensions><speed>1.397478</speed><course>258.263354</course><hAcc>1.650204</hAcc><vAcc>0.821434</vAcc></extensions></trkpt>
      <trkpt lon="35.006907" lat="31.899468"><ele>227.207986</ele><time>2022-11-12T18:16:53Z</time><extensions><speed>1.521756</speed><course>237.069085</course><hAcc>1.584412</hAcc><vAcc>0.821645</vAcc></extensions></trkpt>
      <trkpt lon="35.006894" lat="31.899459"><ele>227.229034</ele><time>2022-11-12T18:16:54Z</time><extensions><speed>1.679436</speed><course>227.200535</course><hAcc>1.549963</hAcc><vAcc>0.821907</vAcc></extensions></trkpt>
      <trkpt lon="35.006881" lat="31.899448"><ele>227.260035</ele><time>2022-11-12T18:16:55Z</time><extensions><speed>1.703228</speed><course>225.647149</course><hAcc>1.576758</hAcc><vAcc>0.822220</vAcc></extensions></trkpt>
      <trkpt lon="35.006869" lat="31.899438"><ele>227.297159</ele><time>2022-11-12T18:16:56Z</time><extensions><speed>1.523991</speed><course>226.056153</course><hAcc>1.632400</hAcc><vAcc>0.822594</vAcc></extensions></trkpt>
      <trkpt lon="35.006857" lat="31.899427"><ele>227.347000</ele><time>2022-11-12T18:16:57Z</time><extensions><speed>1.643645</speed><course>222.004367</course><hAcc>1.573033</hAcc><vAcc>0.823038</vAcc></extensions></trkpt>
      <trkpt lon="35.006845" lat="31.899416"><ele>227.413249</ele><time>2022-11-12T18:16:58Z</time><extensions><speed>1.708791</speed><course>221.628932</course><hAcc>1.538047</hAcc><vAcc>0.823544</vAcc></extensions></trkpt>
      <trkpt lon="35.006833" lat="31.899405"><ele>227.497318</ele><time>2022-11-12T18:16:59Z</time><extensions><speed>1.723978</speed><course>223.068676</course><hAcc>1.563745</hAcc><vAcc>0.824038</vAcc></extensions></trkpt>
      <trkpt lon="35.006820" lat="31.899394"><ele>227.576074</ele><time>2022-11-12T18:17:00Z</time><extensions><speed>1.587766</speed><course>226.708038</course><hAcc>1.611706</hAcc><vAcc>0.824562</vAcc></extensions></trkpt>
      <trkpt lon="35.006807" lat="31.899384"><ele>227.634766</ele><time>2022-11-12T18:17:01Z</time><extensions><speed>1.729858</speed><course>227.984948</course><hAcc>1.561656</hAcc><vAcc>0.825023</vAcc></extensions></trkpt>
      <trkpt lon="35.006793" lat="31.899373"><ele>227.685265</ele><time>2022-11-12T18:17:02Z</time><extensions><speed>1.822003</speed><course>227.522986</course><hAcc>1.568071</hAcc><vAcc>0.825446</vAcc></extensions></trkpt>
      <trkpt lon="35.006780" lat="31.899362"><ele>227.723950</ele><time>2022-11-12T18:17:03Z</time><extensions><speed>1.576185</speed><course>223.905564</course><hAcc>1.627133</hAcc><vAcc>0.825789</vAcc></extensions></trkpt>
      <trkpt lon="35.006770" lat="31.899351"><ele>227.753701</ele><time>2022-11-12T18:17:04Z</time><extensions><speed>1.580301</speed><course>217.501673</course><hAcc>1.595963</hAcc><vAcc>0.826068</vAcc></extensions></trkpt>
      <trkpt lon="35.006760" lat="31.899340"><ele>227.777700</ele><time>2022-11-12T18:17:05Z</time><extensions><speed>1.581036</speed><course>216.072837</course><hAcc>1.594211</hAcc><vAcc>0.826327</vAcc></extensions></trkpt>
      <trkpt lon="35.006749" lat="31.899328"><ele>227.783520</ele><time>2022-11-12T18:17:06Z</time><extensions><speed>1.612587</speed><course>217.259379</course><hAcc>1.617551</hAcc><vAcc>0.826509</vAcc></extensions></trkpt>
      <trkpt lon="35.006739" lat="31.899317"><ele>227.774173</ele><time>2022-11-12T18:17:07Z</time><extensions><speed>1.604203</speed><course>216.951583</course><hAcc>1.639513</hAcc><vAcc>0.826654</vAcc></extensions></trkpt>
      <trkpt lon="35.006729" lat="31.899305"><ele>227.755762</ele><time>2022-11-12T18:17:08Z</time><extensions><speed>1.550880</speed><course>216.733339</course><hAcc>1.651922</hAcc><vAcc>0.826747</vAcc></extensions></trkpt>
      <trkpt lon="35.006720" lat="31.899294"><ele>227.710419</ele><time>2022-11-12T18:17:09Z</time><extensions><speed>1.564821</speed><course>215.427466</course><hAcc>1.650276</hAcc><vAcc>0.826793</vAcc></extensions></trkpt>
      <trkpt lon="35.006710" lat="31.899283"><ele>227.644409</ele><time>2022-11-12T18:17:10Z</time><extensions><speed>1.504489</speed><course>216.147530</course><hAcc>1.651314</hAcc><vAcc>0.826794</vAcc></extensions></trkpt>
      <trkpt lon="35.006701" lat="31.899272"><ele>227.554980</ele><time>2022-11-12T18:17:11Z</time><extensions><speed>1.435895</speed><course>215.056979</course><hAcc>1.632466</hAcc><vAcc>0.826759</vAcc></extensions></trkpt>
      <trkpt lon="35.006693" lat="31.899261"><ele>227.465189</ele><time>2022-11-12T18:17:12Z</time><extensions><speed>1.395110</speed><course>214.123150</course><hAcc>1.612190</hAcc><vAcc>0.826701</vAcc></extensions></trkpt>
      <trkpt lon="35.006684" lat="31.899250"><ele>227.371240</ele><time>2022-11-12T18:17:13Z</time><extensions><speed>1.457522</speed><course>214.869523</course><hAcc>1.579228</hAcc><vAcc>0.826662</vAcc></extensions></trkpt>
      <trkpt lon="35.006675" lat="31.899239"><ele>227.264235</ele><time>2022-11-12T18:17:14Z</time><extensions><speed>1.561266</speed><course>217.893997</course><hAcc>1.575064</hAcc><vAcc>0.826621</vAcc></extensions></trkpt>
      <trkpt lon="35.006665" lat="31.899229"><ele>227.152108</ele><time>2022-11-12T18:17:15Z</time><extensions><speed>1.480838</speed><course>221.337820</course><hAcc>1.607417</hAcc><vAcc>0.826607</vAcc></extensions></trkpt>
      <trkpt lon="35.006655" lat="31.899218"><ele>227.035671</ele><time>2022-11-12T18:17:16Z</time><extensions><speed>1.514341</speed><course>216.314016</course><hAcc>1.584519</hAcc><vAcc>0.826590</vAcc></extensions></trkpt>
      <trkpt lon="35.006645" lat="31.899207"><ele>226.914066</ele><time>2022-11-12T18:17:17Z</time><extensions><speed>1.442584</speed><course>215.054191</course><hAcc>1.616828</hAcc><vAcc>0.826607</vAcc></extensions></trkpt>
      <trkpt lon="35.006637" lat="31.899196"><ele>226.796533</ele><time>2022-11-12T18:17:18Z</time><extensions><speed>1.399227</speed><course>208.403472</course><hAcc>1.582678</hAcc><vAcc>0.826635</vAcc></extensions></trkpt>
      <trkpt lon="35.006631" lat="31.899185"><ele>226.692282</ele><time>2022-11-12T18:17:19Z</time><extensions><speed>1.352788</speed><course>205.164058</course><hAcc>1.581638</hAcc><vAcc>0.826662</vAcc></extensions></trkpt>
      <trkpt lon="35.006625" lat="31.899174"><ele>226.600523</ele><time>2022-11-12T18:17:20Z</time><extensions><speed>1.380963</speed><course>204.119620</course><hAcc>1.602377</hAcc><vAcc>0.826750</vAcc></extensions></trkpt>
      <trkpt lon="35.006619" lat="31.899163"><ele>226.514463</ele><time>2022-11-12T18:17:21Z</time><extensions><speed>1.349366</speed><course>206.150544</course><hAcc>1.620759</hAcc><vAcc>0.826845</vAcc></extensions></trkpt>
      <trkpt lon="35.006611" lat="31.899152"><ele>226.440284</ele><time>2022-11-12T18:17:22Z</time><extensions><speed>1.348891</speed><course>211.469353</course><hAcc>1.626113</hAcc><vAcc>0.827018</vAcc></extensions></trkpt>
      <trkpt lon="35.006603" lat="31.899141"><ele>226.379618</ele><time>2022-11-12T18:17:23Z</time><extensions><speed>1.422103</speed><course>215.374192</course><hAcc>1.619285</hAcc><vAcc>0.827244</vAcc></extensions></trkpt>
      <trkpt lon="35.006594" lat="31.899131"><ele>226.329035</ele><time>2022-11-12T18:17:24Z</time><extensions><speed>1.568046</speed><course>218.406633</course><hAcc>1.608879</hAcc><vAcc>0.827478</vAcc></extensions></trkpt>
      <trkpt lon="35.006582" lat="31.899120"><ele>226.292958</ele><time>2022-11-12T18:17:25Z</time><extensions><speed>1.649005</speed><course>221.865611</course><hAcc>1.583465</hAcc><vAcc>0.827728</vAcc></extensions></trkpt>
      <trkpt lon="35.006570" lat="31.899109"><ele>226.255742</ele><time>2022-11-12T18:17:26Z</time><extensions><speed>1.679796</speed><course>223.854704</course><hAcc>1.566522</hAcc><vAcc>0.827973</vAcc></extensions></trkpt>
      <trkpt lon="35.006558" lat="31.899098"><ele>226.226773</ele><time>2022-11-12T18:17:27Z</time><extensions><speed>1.626571</speed><course>225.172435</course><hAcc>1.582240</hAcc><vAcc>0.828211</vAcc></extensions></trkpt>
      <trkpt lon="35.006546" lat="31.899087"><ele>226.197224</ele><time>2022-11-12T18:17:28Z</time><extensions><speed>1.659481</speed><course>225.474212</course><hAcc>1.552272</hAcc><vAcc>0.828439</vAcc></extensions></trkpt>
      <trkpt lon="35.006533" lat="31.899077"><ele>226.182462</ele><time>2022-11-12T18:17:29Z</time><extensions><speed>1.745910</speed><course>225.618061</course><hAcc>1.527711</hAcc><vAcc>0.828688</vAcc></extensions></trkpt>
      <trkpt lon="35.006520" lat="31.899066"><ele>226.177439</ele><time>2022-11-12T18:17:30Z</time><extensions><speed>1.591367</speed><course>225.762158</course><hAcc>1.562065</hAcc><vAcc>0.828883</vAcc></extensions></trkpt>
      <trkpt lon="35.006507" lat="31.899057"><ele>226.184332</ele><time>2022-11-12T18:17:31Z</time><extensions><speed>1.705632</speed><course>235.046954</course><hAcc>1.540466</hAcc><vAcc>0.829033</vAcc></extensions></trkpt>
      <trkpt lon="35.006492" lat="31.899049"><ele>226.195663</ele><time>2022-11-12T18:17:32Z</time><extensions><speed>1.560425</speed><course>241.279645</course><hAcc>1.572042</hAcc><vAcc>0.829133</vAcc></extensions></trkpt>
      <trkpt lon="35.006478" lat="31.899042"><ele>226.200698</ele><time>2022-11-12T18:17:33Z</time><extensions><speed>1.432158</speed><course>240.301390</course><hAcc>1.582462</hAcc><vAcc>0.829217</vAcc></extensions></trkpt>
      <trkpt lon="35.006466" lat="31.899036"><ele>226.209962</ele><time>2022-11-12T18:17:34Z</time><extensions><speed>1.328601</speed><course>240.062146</course><hAcc>1.570179</hAcc><vAcc>0.829268</vAcc></extensions></trkpt>
      <trkpt lon="35.006454" lat="31.899030"><ele>226.215837</ele><time>2022-11-12T18:17:35Z</time><extensions><speed>1.245663</speed><course>239.283077</course><hAcc>1.578313</hAcc><vAcc>0.829271</vAcc></extensions></trkpt>
      <trkpt lon="35.006443" lat="31.899024"><ele>226.223758</ele><time>2022-11-12T18:17:36Z</time><extensions><speed>1.229293</speed><course>238.126441</course><hAcc>1.590584</hAcc><vAcc>0.829243</vAcc></extensions></trkpt>
      <trkpt lon="35.006432" lat="31.899018"><ele>226.222393</ele><time>2022-11-12T18:17:37Z</time><extensions><speed>1.343791</speed><course>237.970184</course><hAcc>1.599932</hAcc><vAcc>0.829187</vAcc></extensions></trkpt>
      <trkpt lon="35.006419" lat="31.899011"><ele>226.219366</ele><time>2022-11-12T18:17:37Z</time><extensions><speed>1.445059</speed><course>237.324087</course><hAcc>1.628331</hAcc><vAcc>0.829123</vAcc></extensions></trkpt>
      <trkpt lon="35.006407" lat="31.899004"><ele>226.211088</ele><time>2022-11-12T18:17:38Z</time><extensions><speed>1.372022</speed><course>235.521393</course><hAcc>1.676895</hAcc><vAcc>0.829044</vAcc></extensions></trkpt>
      <trkpt lon="35.006396" lat="31.898998"><ele>226.200939</ele><time>2022-11-12T18:17:39Z</time><extensions><speed>1.193015</speed><course>234.528240</course><hAcc>1.634542</hAcc><vAcc>0.828936</vAcc></extensions></trkpt>
      <trkpt lon="35.006387" lat="31.898992"><ele>226.180080</ele><time>2022-11-12T18:17:40Z</time><extensions><speed>0.927953</speed><course>234.274492</course><hAcc>1.620267</hAcc><vAcc>0.828770</vAcc></extensions></trkpt>
      <trkpt lon="35.006380" lat="31.898988"><ele>226.146969</ele><time>2022-11-12T18:17:41Z</time><extensions><speed>0.644557</speed><course>224.840748</course><hAcc>1.635675</hAcc><vAcc>0.828592</vAcc></extensions></trkpt>
      <trkpt lon="35.006377" lat="31.898984"><ele>226.110277</ele><time>2022-11-12T18:17:42Z</time><extensions><speed>0.406288</speed><course>209.101465</course><hAcc>1.664073</hAcc><vAcc>0.828397</vAcc></extensions></trkpt>
      <trkpt lon="35.006376" lat="31.898981"><ele>226.066368</ele><time>2022-11-12T18:17:43Z</time><extensions><speed>0.235350</speed><course>184.941156</course><hAcc>1.698498</hAcc><vAcc>0.828169</vAcc></extensions></trkpt>
      <trkpt lon="35.006375" lat="31.898979"><ele>226.025567</ele><time>2022-11-12T18:17:44Z</time><extensions><speed>0.313714</speed><course>181.565610</course><hAcc>1.680754</hAcc><vAcc>0.827945</vAcc></extensions></trkpt>
      <trkpt lon="35.006376" lat="31.898976"><ele>225.979718</ele><time>2022-11-12T18:17:45Z</time><extensions><speed>0.251073</speed><course>160.911468</course><hAcc>1.681384</hAcc><vAcc>0.827727</vAcc></extensions></trkpt>
      <trkpt lon="35.006377" lat="31.898974"><ele>225.928020</ele><time>2022-11-12T18:17:46Z</time><extensions><speed>0.228580</speed><course>154.287326</course><hAcc>1.694602</hAcc><vAcc>0.827516</vAcc></extensions></trkpt>
      <trkpt lon="35.006378" lat="31.898973"><ele>225.880176</ele><time>2022-11-12T18:17:47Z</time><extensions><speed>0.185949</speed><course>157.696752</course><hAcc>1.717983</hAcc><vAcc>0.827321</vAcc></extensions></trkpt>
      <trkpt lon="35.006378" lat="31.898971"><ele>225.832169</ele><time>2022-11-12T18:17:48Z</time><extensions><speed>0.157143</speed><course>167.716242</course><hAcc>1.723577</hAcc><vAcc>0.827139</vAcc></extensions></trkpt>
      <trkpt lon="35.006378" lat="31.898970"><ele>225.777221</ele><time>2022-11-12T18:17:49Z</time><extensions><speed>0.125304</speed><course>187.356489</course><hAcc>1.723699</hAcc><vAcc>0.827011</vAcc></extensions></trkpt>
      <trkpt lon="35.006378" lat="31.898969"><ele>225.732129</ele><time>2022-11-12T18:17:50Z</time><extensions><speed>0.130579</speed><course>218.816438</course><hAcc>1.718980</hAcc><vAcc>0.826930</vAcc></extensions></trkpt>
      <trkpt lon="35.006376" lat="31.898968"><ele>225.697033</ele><time>2022-11-12T18:17:52Z</time><extensions><speed>0.179378</speed><course>242.508041</course><hAcc>1.720790</hAcc><vAcc>0.826933</vAcc></extensions></trkpt>
      <trkpt lon="35.006374" lat="31.898967"><ele>225.672501</ele><time>2022-11-12T18:17:53Z</time><extensions><speed>0.263948</speed><course>254.211227</course><hAcc>1.720906</hAcc><vAcc>0.826992</vAcc></extensions></trkpt>
      <trkpt lon="35.006371" lat="31.898967"><ele>225.649794</ele><time>2022-11-12T18:17:54Z</time><extensions><speed>0.400285</speed><course>258.736531</course><hAcc>1.715484</hAcc><vAcc>0.827135</vAcc></extensions></trkpt>
      <trkpt lon="35.006365" lat="31.898966"><ele>225.630819</ele><time>2022-11-12T18:17:55Z</time><extensions><speed>0.623294</speed><course>256.886175</course><hAcc>1.709768</hAcc><vAcc>0.827364</vAcc></extensions></trkpt>
      <trkpt lon="35.006357" lat="31.898964"><ele>225.609253</ele><time>2022-11-12T18:17:56Z</time><extensions><speed>1.008920</speed><course>252.252607</course><hAcc>1.708445</hAcc><vAcc>0.827665</vAcc></extensions></trkpt>
      <trkpt lon="35.006345" lat="31.898960"><ele>225.595398</ele><time>2022-11-12T18:17:57Z</time><extensions><speed>1.298948</speed><course>252.234765</course><hAcc>1.698607</hAcc><vAcc>0.828032</vAcc></extensions></trkpt>
      <trkpt lon="35.006331" lat="31.898957"><ele>225.587319</ele><time>2022-11-12T18:17:58Z</time><extensions><speed>1.481831</speed><course>254.178048</course><hAcc>1.681975</hAcc><vAcc>0.828446</vAcc></extensions></trkpt>
      <trkpt lon="35.006316" lat="31.898953"><ele>225.582460</ele><time>2022-11-12T18:17:59Z</time><extensions><speed>1.538038</speed><course>256.159981</course><hAcc>1.654989</hAcc><vAcc>0.828879</vAcc></extensions></trkpt>
      <trkpt lon="35.006300" lat="31.898950"><ele>225.574774</ele><time>2022-11-12T18:18:00Z</time><extensions><speed>1.486396</speed><course>256.418235</course><hAcc>1.619129</hAcc><vAcc>0.829327</vAcc></extensions></trkpt>
      <trkpt lon="35.006285" lat="31.898947"><ele>225.570869</ele><time>2022-11-12T18:18:01Z</time><extensions><speed>1.464838</speed><course>254.958674</course><hAcc>1.576685</hAcc><vAcc>0.829763</vAcc></extensions></trkpt>
      <trkpt lon="35.006270" lat="31.898943"><ele>225.558672</ele><time>2022-11-12T18:18:02Z</time><extensions><speed>1.490103</speed><course>252.523124</course><hAcc>1.537116</hAcc><vAcc>0.830182</vAcc></extensions></trkpt>
      <trkpt lon="35.006255" lat="31.898939"><ele>225.538114</ele><time>2022-11-12T18:18:03Z</time><extensions><speed>1.509107</speed><course>251.399593</course><hAcc>1.503577</hAcc><vAcc>0.830575</vAcc></extensions></trkpt>
      <trkpt lon="35.006240" lat="31.898934"><ele>225.517642</ele><time>2022-11-12T18:18:04Z</time><extensions><speed>1.458462</speed><course>250.702923</course><hAcc>1.513750</hAcc><vAcc>0.830927</vAcc></extensions></trkpt>
      <trkpt lon="35.006225" lat="31.898930"><ele>225.487976</ele><time>2022-11-12T18:18:05Z</time><extensions><speed>1.547937</speed><course>249.708685</course><hAcc>1.462827</hAcc><vAcc>0.831186</vAcc></extensions></trkpt>
      <trkpt lon="35.006209" lat="31.898925"><ele>225.449038</ele><time>2022-11-12T18:18:06Z</time><extensions><speed>1.590603</speed><course>249.147482</course><hAcc>1.468175</hAcc><vAcc>0.831370</vAcc></extensions></trkpt>
      <trkpt lon="35.006193" lat="31.898920"><ele>225.395144</ele><time>2022-11-12T18:18:07Z</time><extensions><speed>1.568781</speed><course>248.114520</course><hAcc>1.485691</hAcc><vAcc>0.831519</vAcc></extensions></trkpt>
      <trkpt lon="35.006178" lat="31.898914"><ele>225.337648</ele><time>2022-11-12T18:18:08Z</time><extensions><speed>1.524583</speed><course>246.086333</course><hAcc>1.476067</hAcc><vAcc>0.831604</vAcc></extensions></trkpt>
      <trkpt lon="35.006163" lat="31.898909"><ele>225.283715</ele><time>2022-11-12T18:18:09Z</time><extensions><speed>1.558981</speed><course>246.965259</course><hAcc>1.442144</hAcc><vAcc>0.831657</vAcc></extensions></trkpt>
      <trkpt lon="35.006148" lat="31.898903"><ele>225.223632</ele><time>2022-11-12T18:18:10Z</time><extensions><speed>1.565104</speed><course>246.921948</course><hAcc>1.453123</hAcc><vAcc>0.831675</vAcc></extensions></trkpt>
      <trkpt lon="35.006133" lat="31.898897"><ele>225.161202</ele><time>2022-11-12T18:18:11Z</time><extensions><speed>1.598177</speed><course>246.999696</course><hAcc>1.476418</hAcc><vAcc>0.831663</vAcc></extensions></trkpt>
      <trkpt lon="35.006117" lat="31.898892"><ele>225.096550</ele><time>2022-11-12T18:18:12Z</time><extensions><speed>1.611841</speed><course>246.648941</course><hAcc>1.514446</hAcc><vAcc>0.831638</vAcc></extensions></trkpt>
      <trkpt lon="35.006102" lat="31.898886"><ele>225.031144</ele><time>2022-11-12T18:18:13Z</time><extensions><speed>1.563597</speed><course>246.071374</course><hAcc>1.543172</hAcc><vAcc>0.831576</vAcc></extensions></trkpt>
      <trkpt lon="35.006087" lat="31.898881"><ele>224.975834</ele><time>2022-11-12T18:18:14Z</time><extensions><speed>1.509743</speed><course>246.706091</course><hAcc>1.529546</hAcc><vAcc>0.831508</vAcc></extensions></trkpt>
      <trkpt lon="35.006072" lat="31.898875"><ele>224.927073</ele><time>2022-11-12T18:18:15Z</time><extensions><speed>1.477260</speed><course>247.968877</course><hAcc>1.484163</hAcc><vAcc>0.831436</vAcc></extensions></trkpt>
      <trkpt lon="35.006057" lat="31.898871"><ele>224.882381</ele><time>2022-11-12T18:18:16Z</time><extensions><speed>1.513929</speed><course>247.266288</course><hAcc>1.476461</hAcc><vAcc>0.831367</vAcc></extensions></trkpt>
      <trkpt lon="35.006042" lat="31.898865"><ele>224.839905</ele><time>2022-11-12T18:18:17Z</time><extensions><speed>1.525081</speed><course>245.065762</course><hAcc>1.503009</hAcc><vAcc>0.831316</vAcc></extensions></trkpt>
      <trkpt lon="35.006027" lat="31.898860"><ele>224.807040</ele><time>2022-11-12T18:18:18Z</time><extensions><speed>1.597081</speed><course>245.403889</course><hAcc>1.461544</hAcc><vAcc>0.831296</vAcc></extensions></trkpt>
      <trkpt lon="35.006012" lat="31.898854"><ele>224.786670</ele><time>2022-11-12T18:18:19Z</time><extensions><speed>1.525152</speed><course>245.479705</course><hAcc>1.475899</hAcc><vAcc>0.831295</vAcc></extensions></trkpt>
      <trkpt lon="35.005998" lat="31.898848"><ele>224.765623</ele><time>2022-11-12T18:18:20Z</time><extensions><speed>1.499451</speed><course>243.407728</course><hAcc>1.490417</hAcc><vAcc>0.831297</vAcc></extensions></trkpt>
      <trkpt lon="35.005983" lat="31.898841"><ele>224.743231</ele><time>2022-11-12T18:18:21Z</time><extensions><speed>1.546330</speed><course>239.302419</course><hAcc>1.486764</hAcc><vAcc>0.831314</vAcc></extensions></trkpt>
      <trkpt lon="35.005970" lat="31.898835"><ele>224.714848</ele><time>2022-11-12T18:18:22Z</time><extensions><speed>1.413052</speed><course>239.100660</course><hAcc>1.502807</hAcc><vAcc>0.831342</vAcc></extensions></trkpt>
      <trkpt lon="35.005957" lat="31.898830"><ele>224.680820</ele><time>2022-11-12T18:18:23Z</time><extensions><speed>1.266758</speed><course>253.021743</course><hAcc>1.463738</hAcc><vAcc>0.831388</vAcc></extensions></trkpt>
      <trkpt lon="35.005944" lat="31.898827"><ele>224.641198</ele><time>2022-11-12T18:18:24Z</time><extensions><speed>1.326014</speed><course>265.258350</course><hAcc>1.460564</hAcc><vAcc>0.831449</vAcc></extensions></trkpt>
      <trkpt lon="35.005929" lat="31.898827"><ele>224.595771</ele><time>2022-11-12T18:18:25Z</time><extensions><speed>1.495393</speed><course>273.635222</course><hAcc>1.465384</hAcc><vAcc>0.831536</vAcc></extensions></trkpt>
      <trkpt lon="35.005913" lat="31.898829"><ele>224.549584</ele><time>2022-11-12T18:18:26Z</time><extensions><speed>1.635054</speed><course>279.603805</course><hAcc>1.464076</hAcc><vAcc>0.831651</vAcc></extensions></trkpt>
      <trkpt lon="35.005896" lat="31.898832"><ele>224.489241</ele><time>2022-11-12T18:18:27Z</time><extensions><speed>1.580455</speed><course>283.982185</course><hAcc>1.473838</hAcc><vAcc>0.831765</vAcc></extensions></trkpt>
      <trkpt lon="35.005880" lat="31.898835"><ele>224.430100</ele><time>2022-11-12T18:18:28Z</time><extensions><speed>1.543805</speed><course>281.530279</course><hAcc>1.429370</hAcc><vAcc>0.831876</vAcc></extensions></trkpt>
      <trkpt lon="35.005865" lat="31.898838"><ele>224.372299</ele><time>2022-11-12T18:18:29Z</time><extensions><speed>1.454095</speed><course>275.294228</course><hAcc>1.427719</hAcc><vAcc>0.831997</vAcc></extensions></trkpt>
      <trkpt lon="35.005849" lat="31.898838"><ele>224.322645</ele><time>2022-11-12T18:18:30Z</time><extensions><speed>1.454653</speed><course>267.678027</course><hAcc>1.406403</hAcc><vAcc>0.832062</vAcc></extensions></trkpt>
      <trkpt lon="35.005834" lat="31.898837"><ele>224.254049</ele><time>2022-11-12T18:18:31Z</time><extensions><speed>1.433850</speed><course>261.167048</course><hAcc>1.402930</hAcc><vAcc>0.832112</vAcc></extensions></trkpt>
      <trkpt lon="35.005819" lat="31.898835"><ele>224.181002</ele><time>2022-11-12T18:18:32Z</time><extensions><speed>1.427094</speed><course>262.772339</course><hAcc>1.392569</hAcc><vAcc>0.832143</vAcc></extensions></trkpt>
      <trkpt lon="35.005805" lat="31.898833"><ele>224.094852</ele><time>2022-11-12T18:18:33Z</time><extensions><speed>1.370377</speed><course>265.470212</course><hAcc>1.357716</hAcc><vAcc>0.832131</vAcc></extensions></trkpt>
      <trkpt lon="35.005790" lat="31.898833"><ele>224.011635</ele><time>2022-11-12T18:18:34Z</time><extensions><speed>1.373931</speed><course>265.713924</course><hAcc>1.365506</hAcc><vAcc>0.832054</vAcc></extensions></trkpt>
      <trkpt lon="35.005776" lat="31.898832"><ele>223.932587</ele><time>2022-11-12T18:18:35Z</time><extensions><speed>1.353407</speed><course>267.515469</course><hAcc>1.404431</hAcc><vAcc>0.831924</vAcc></extensions></trkpt>
      <trkpt lon="35.005762" lat="31.898831"><ele>223.853494</ele><time>2022-11-12T18:18:36Z</time><extensions><speed>1.330826</speed><course>268.125530</course><hAcc>1.414689</hAcc><vAcc>0.831749</vAcc></extensions></trkpt>
      <trkpt lon="35.005748" lat="31.898831"><ele>223.766897</ele><time>2022-11-12T18:18:37Z</time><extensions><speed>1.302881</speed><course>269.546092</course><hAcc>1.389568</hAcc><vAcc>0.831534</vAcc></extensions></trkpt>
      <trkpt lon="35.005734" lat="31.898831"><ele>223.680646</ele><time>2022-11-12T18:18:38Z</time><extensions><speed>1.405225</speed><course>271.136343</course><hAcc>1.400405</hAcc><vAcc>0.831292</vAcc></extensions></trkpt>
      <trkpt lon="35.005719" lat="31.898832"><ele>223.601091</ele><time>2022-11-12T18:18:39Z</time><extensions><speed>1.372475</speed><course>271.964114</course><hAcc>1.459250</hAcc><vAcc>0.831025</vAcc></extensions></trkpt>
      <trkpt lon="35.005705" lat="31.898832"><ele>223.528616</ele><time>2022-11-12T18:18:40Z</time><extensions><speed>1.395515</speed><course>273.200004</course><hAcc>1.448679</hAcc><vAcc>0.830733</vAcc></extensions></trkpt>
      <trkpt lon="35.005690" lat="31.898833"><ele>223.460193</ele><time>2022-11-12T18:18:41Z</time><extensions><speed>1.411850</speed><course>274.489836</course><hAcc>1.508253</hAcc><vAcc>0.830470</vAcc></extensions></trkpt>
      <trkpt lon="35.005675" lat="31.898834"><ele>223.394099</ele><time>2022-11-12T18:18:42Z</time><extensions><speed>1.394082</speed><course>274.174111</course><hAcc>1.514652</hAcc><vAcc>0.830195</vAcc></extensions></trkpt>
      <trkpt lon="35.005661" lat="31.898835"><ele>223.331002</ele><time>2022-11-12T18:18:43Z</time><extensions><speed>1.347695</speed><course>275.544884</course><hAcc>1.537237</hAcc><vAcc>0.829944</vAcc></extensions></trkpt>
      <trkpt lon="35.005647" lat="31.898836"><ele>223.276115</ele><time>2022-11-12T18:18:44Z</time><extensions><speed>1.258247</speed><course>277.913565</course><hAcc>1.552985</hAcc><vAcc>0.829702</vAcc></extensions></trkpt>
      <trkpt lon="35.005634" lat="31.898838"><ele>223.218940</ele><time>2022-11-12T18:18:45Z</time><extensions><speed>1.185603</speed><course>278.787049</course><hAcc>1.589439</hAcc><vAcc>0.829481</vAcc></extensions></trkpt>
      <trkpt lon="35.005622" lat="31.898840"><ele>223.162860</ele><time>2022-11-12T18:18:46Z</time><extensions><speed>1.166460</speed><course>279.789567</course><hAcc>1.621929</hAcc><vAcc>0.829306</vAcc></extensions></trkpt>
      <trkpt lon="35.005609" lat="31.898842"><ele>223.118317</ele><time>2022-11-12T18:18:47Z</time><extensions><speed>1.185020</speed><course>281.652330</course><hAcc>1.633691</hAcc><vAcc>0.829195</vAcc></extensions></trkpt>
      <trkpt lon="35.005597" lat="31.898844"><ele>223.082793</ele><time>2022-11-12T18:18:48Z</time><extensions><speed>1.217498</speed><course>283.013261</course><hAcc>1.624872</hAcc><vAcc>0.829146</vAcc></extensions></trkpt>
      <trkpt lon="35.005584" lat="31.898846"><ele>223.040242</ele><time>2022-11-12T18:18:49Z</time><extensions><speed>1.288820</speed><course>282.604781</course><hAcc>1.606008</hAcc><vAcc>0.829133</vAcc></extensions></trkpt>
      <trkpt lon="35.005570" lat="31.898849"><ele>223.009170</ele><time>2022-11-12T18:18:50Z</time><extensions><speed>1.362979</speed><course>282.127448</course><hAcc>1.607181</hAcc><vAcc>0.829142</vAcc></extensions></trkpt>
      <trkpt lon="35.005556" lat="31.898851"><ele>222.975791</ele><time>2022-11-12T18:18:51Z</time><extensions><speed>1.431929</speed><course>282.110485</course><hAcc>1.637667</hAcc><vAcc>0.829181</vAcc></extensions></trkpt>
      <trkpt lon="35.005540" lat="31.898854"><ele>222.968783</ele><time>2022-11-12T18:18:52Z</time><extensions><speed>1.515777</speed><course>280.954109</course><hAcc>1.578682</hAcc><vAcc>0.829245</vAcc></extensions></trkpt>
      <trkpt lon="35.005524" lat="31.898856"><ele>222.979061</ele><time>2022-11-12T18:18:53Z</time><extensions><speed>1.567222</speed><course>279.530121</course><hAcc>1.551145</hAcc><vAcc>0.829323</vAcc></extensions></trkpt>
      <trkpt lon="35.005507" lat="31.898859"><ele>222.987009</ele><time>2022-11-12T18:18:54Z</time><extensions><speed>1.629404</speed><course>279.675758</course><hAcc>1.535447</hAcc><vAcc>0.829394</vAcc></extensions></trkpt>
      <trkpt lon="35.005490" lat="31.898861"><ele>222.989830</ele><time>2022-11-12T18:18:55Z</time><extensions><speed>1.668411</speed><course>281.810740</course><hAcc>1.533197</hAcc><vAcc>0.829457</vAcc></extensions></trkpt>
      <trkpt lon="35.005473" lat="31.898865"><ele>222.996248</ele><time>2022-11-12T18:18:56Z</time><extensions><speed>1.601081</speed><course>283.982452</course><hAcc>1.562505</hAcc><vAcc>0.837039</vAcc></extensions></trkpt>
      <trkpt lon="35.005457" lat="31.898868"><ele>223.007069</ele><time>2022-11-12T18:18:57Z</time><extensions><speed>1.597495</speed><course>283.248719</course><hAcc>1.558857</hAcc><vAcc>0.849186</vAcc></extensions></trkpt>
      <trkpt lon="35.005441" lat="31.898871"><ele>223.021945</ele><time>2022-11-12T18:18:58Z</time><extensions><speed>1.469344</speed><course>284.362635</course><hAcc>1.600575</hAcc><vAcc>0.868124</vAcc></extensions></trkpt>
      <trkpt lon="35.005427" lat="31.898874"><ele>223.040474</ele><time>2022-11-12T18:18:59Z</time><extensions><speed>1.374222</speed><course>281.936225</course><hAcc>1.568884</hAcc><vAcc>0.896650</vAcc></extensions></trkpt>
      <trkpt lon="35.005413" lat="31.898877"><ele>223.062203</ele><time>2022-11-12T18:19:00Z</time><extensions><speed>1.230560</speed><course>281.862824</course><hAcc>1.588827</hAcc><vAcc>0.938018</vAcc></extensions></trkpt>
      <trkpt lon="35.005400" lat="31.898879"><ele>223.086498</ele><time>2022-11-12T18:19:01Z</time><extensions><speed>1.292617</speed><course>285.419330</course><hAcc>1.655841</hAcc><vAcc>0.995679</vAcc></extensions></trkpt>
      <trkpt lon="35.005387" lat="31.898883"><ele>223.112495</ele><time>2022-11-12T18:19:02Z</time><extensions><speed>1.299893</speed><course>289.941763</course><hAcc>1.750594</hAcc><vAcc>1.072913</vAcc></extensions></trkpt>
      <trkpt lon="35.005375" lat="31.898887"><ele>223.139212</ele><time>2022-11-12T18:19:03Z</time><extensions><speed>1.240782</speed><course>294.817164</course><hAcc>1.876283</hAcc><vAcc>1.172467</vAcc></extensions></trkpt>
      <trkpt lon="35.005363" lat="31.898892"><ele>223.165921</ele><time>2022-11-12T18:19:04Z</time><extensions><speed>1.282624</speed><course>296.620923</course><hAcc>2.072533</hAcc><vAcc>1.296285</vAcc></extensions></trkpt>
      <trkpt lon="35.005350" lat="31.898898"><ele>223.192403</ele><time>2022-11-12T18:19:05Z</time><extensions><speed>1.365383</speed><course>297.116451</course><hAcc>2.439491</hAcc><vAcc>1.445398</vAcc></extensions></trkpt>
    </trkseg>
  </trk>
</gpx>